[
{"city":"Adamov","zipcode":"67904","weightTo27t":"302","weightTo34t":"330","terminal":"Zlin","objIndex":"0"},
{"city":"Albrechtice","zipcode":"73543","weightTo27t":"339","weightTo34t":"371","terminal":"Zlin","objIndex":"1"},
{"city":"Alojzov","zipcode":"79804","weightTo27t":"289","weightTo34t":"315","terminal":"Zlin","objIndex":"2"},
{"city":"Babice","zipcode":"67544","weightTo27t":"493","weightTo34t":"538","terminal":"Zlin","objIndex":"3"},
{"city":"Babice","zipcode":"68703","weightTo27t":"184","weightTo34t":"202","terminal":"Zlin","objIndex":"4"},
{"city":"Backovice","zipcode":"67532","weightTo27t":"572","weightTo34t":"625","terminal":"Zlin","objIndex":"5"},
{"city":"Banov","zipcode":"68754","weightTo27t":"218","weightTo34t":"239","terminal":"Zlin","objIndex":"6"},
{"city":"Baska","zipcode":"73901","weightTo27t":"276","weightTo34t":"303","terminal":"Zlin","objIndex":"7"},
{"city":"Bedihost","zipcode":"79821","weightTo27t":"302","weightTo34t":"329","terminal":"Zlin","objIndex":"8"},
{"city":"Bedrichov","zipcode":"67971","weightTo27t":"405","weightTo34t":"442","terminal":"Zlin","objIndex":"9"},
{"city":"Belkovice Lastany","zipcode":"78315","weightTo27t":"246","weightTo34t":"270","terminal":"Zlin","objIndex":"10"},
{"city":"Belotin","zipcode":"75364","weightTo27t":"267","weightTo34t":"291","terminal":"Zlin","objIndex":"11"},
{"city":"Benesov","zipcode":"67953","weightTo27t":"366","weightTo34t":"399","terminal":"Zlin","objIndex":"12"},
{"city":"Benetice","zipcode":"67506","weightTo27t":"488","weightTo34t":"531","terminal":"Zlin","objIndex":"13"},
{"city":"Bernartice nad Odrou","zipcode":"74101","weightTo27t":"217","weightTo34t":"239","terminal":"Zlin","objIndex":"14"},
{"city":"Bilov","zipcode":"74301","weightTo27t":"324","weightTo34t":"353","terminal":"Zlin","objIndex":"15"},
{"city":"Bilovec","zipcode":"74301","weightTo27t":"324","weightTo34t":"353","terminal":"Zlin","objIndex":"16"},
{"city":"Bilovice","zipcode":"68712","weightTo27t":"184","weightTo34t":"202","terminal":"Zlin","objIndex":"17"},
{"city":"Bilovice nad Svitavou","zipcode":"66401","weightTo27t":"323","weightTo34t":"352","terminal":"Zlin","objIndex":"18"},
{"city":"Biskupice","zipcode":"76341","weightTo27t":"184","weightTo34t":"202","terminal":"Zlin","objIndex":"19"},
{"city":"Blanne","zipcode":"67154","weightTo27t":"519","weightTo34t":"566","terminal":"Zlin","objIndex":"20"},
{"city":"Blansko","zipcode":"67801","weightTo27t":"312","weightTo34t":"341","terminal":"Zlin","objIndex":"21"},
{"city":"Blatnice pod Svatym Antoninkem","zipcode":"69671","weightTo27t":"204","weightTo34t":"224","terminal":"Zlin","objIndex":"22"},
{"city":"Blatnicka","zipcode":"69671","weightTo27t":"206","weightTo34t":"227","terminal":"Zlin","objIndex":"23"},
{"city":"Blizkovice","zipcode":"67155","weightTo27t":"529","weightTo34t":"577","terminal":"Zlin","objIndex":"24"},
{"city":"Blucina","zipcode":"66456","weightTo27t":"353","weightTo34t":"384","terminal":"Zlin","objIndex":"25"},
{"city":"Bludov","zipcode":"78961","weightTo27t":"373","weightTo34t":"407","terminal":"Zlin","objIndex":"26"},
{"city":"Bocanovice","zipcode":"73991","weightTo27t":"361","weightTo34t":"395","terminal":"Zlin","objIndex":"27"},
{"city":"Bohdalice Pavlovice","zipcode":"68341","weightTo27t":"265","weightTo34t":"289","terminal":"Zlin","objIndex":"28"},
{"city":"Bohumin","zipcode":"73581","weightTo27t":"416","weightTo34t":"453","terminal":"Zlin","objIndex":"29"},
{"city":"Bohumin/Pudlov","zipcode":"73551","weightTo27t":"416","weightTo34t":"453","terminal":"Zlin","objIndex":"30"},
{"city":"Bohunovice","zipcode":"78314","weightTo27t":"253","weightTo34t":"277","terminal":"Zlin","objIndex":"31"},
{"city":"Bohuslavice","zipcode":"54906","weightTo27t":"572","weightTo34t":"626","terminal":"Zlin","objIndex":"32"},
{"city":"Bohuslavice","zipcode":"74719","weightTo27t":"407","weightTo34t":"444","terminal":"Zlin","objIndex":"33"},
{"city":"Bohuslavice","zipcode":"79856","weightTo27t":"312","weightTo34t":"341","terminal":"Zlin","objIndex":"34"},
{"city":"Bohuslavice nad Vlari","zipcode":"76321","weightTo27t":"184","weightTo34t":"202","terminal":"Zlin","objIndex":"35"},
{"city":"Bochor","zipcode":"75002","weightTo27t":"211","weightTo34t":"231","terminal":"Zlin","objIndex":"36"},
{"city":"Bojkovice","zipcode":"68771","weightTo27t":"195","weightTo34t":"215","terminal":"Zlin","objIndex":"37"},
{"city":"Bolatice","zipcode":"74723","weightTo27t":"407","weightTo34t":"444","terminal":"Zlin","objIndex":"38"},
{"city":"Boleradice","zipcode":"69112","weightTo27t":"414","weightTo34t":"451","terminal":"Zlin","objIndex":"39"},
{"city":"Borac","zipcode":"59261","weightTo27t":"391","weightTo34t":"427","terminal":"Zlin","objIndex":"40"},
{"city":"Bordovice","zipcode":"74401","weightTo27t":"217","weightTo34t":"239","terminal":"Zlin","objIndex":"41"},
{"city":"Boretice","zipcode":"69108","weightTo27t":"279","weightTo34t":"307","terminal":"Zlin","objIndex":"42"},
{"city":"Borotice","zipcode":"67178","weightTo27t":"444","weightTo34t":"484","terminal":"Zlin","objIndex":"43"},
{"city":"Borotin","zipcode":"67937","weightTo27t":"439","weightTo34t":"479","terminal":"Zlin","objIndex":"44"},
{"city":"Borsice","zipcode":"68709","weightTo27t":"199","weightTo34t":"219","terminal":"Zlin","objIndex":"45"},
{"city":"Boskovice","zipcode":"68001","weightTo27t":"417","weightTo34t":"455","terminal":"Zlin","objIndex":"46"},
{"city":"Bouzov","zipcode":"78325","weightTo27t":"327","weightTo34t":"357","terminal":"Zlin","objIndex":"47"},
{"city":"Branisovice","zipcode":"67177","weightTo27t":"402","weightTo34t":"438","terminal":"Zlin","objIndex":"48"},
{"city":"Brankovice","zipcode":"68333","weightTo27t":"217","weightTo34t":"238","terminal":"Zlin","objIndex":"49"},
{"city":"Branky","zipcode":"75645","weightTo27t":"204","weightTo34t":"224","terminal":"Zlin","objIndex":"50"},
{"city":"Bransouze","zipcode":"67521","weightTo27t":"526","weightTo34t":"572","terminal":"Zlin","objIndex":"51"},
{"city":"Brantice","zipcode":"79393","weightTo27t":"377","weightTo34t":"414","terminal":"Zlin","objIndex":"52"},
{"city":"Breclav","zipcode":"69002","weightTo27t":"279","weightTo34t":"307","terminal":"Zlin","objIndex":"53"},
{"city":"Breclav/Postorna","zipcode":"69141","weightTo27t":"279","weightTo34t":"307","terminal":"Zlin","objIndex":"54"},
{"city":"Brezina","zipcode":"67905","weightTo27t":"334","weightTo34t":"364","terminal":"Zlin","objIndex":"55"},
{"city":"Brezina","zipcode":"79805","weightTo27t":"274","weightTo34t":"299","terminal":"Zlin","objIndex":"56"},
{"city":"Breznice","zipcode":"76001","weightTo27t":"167","weightTo34t":"184","terminal":"Zlin","objIndex":"57"},
{"city":"Breznik","zipcode":"67574","weightTo27t":"409","weightTo34t":"446","terminal":"Zlin","objIndex":"58"},
{"city":"Brezolupy","zipcode":"68713","weightTo27t":"182","weightTo34t":"200","terminal":"Zlin","objIndex":"59"},
{"city":"Brezova","zipcode":"74744","weightTo27t":"332","weightTo34t":"362","terminal":"Zlin","objIndex":"60"},
{"city":"Brezova","zipcode":"76315","weightTo27t":"167","weightTo34t":"184","terminal":"Zlin","objIndex":"61"},
{"city":"Brezova nad Svitavou","zipcode":"56902","weightTo27t":"451","weightTo34t":"492","terminal":"Zlin","objIndex":"62"},
{"city":"Bridlicna","zipcode":"79351","weightTo27t":"322","weightTo34t":"353","terminal":"Zlin","objIndex":"63"},
{"city":"Brno","zipcode":"60200","weightTo27t":"323","weightTo34t":"352","terminal":"Zlin","objIndex":"64"},
{"city":"Brno/Cernovice","zipcode":"61800","weightTo27t":"323","weightTo34t":"352","terminal":"Zlin","objIndex":"65"},
{"city":"Brno/Horni Herspice","zipcode":"61900","weightTo27t":"323","weightTo34t":"352","terminal":"Zlin","objIndex":"66"},
{"city":"Brno/Chrlice","zipcode":"64300","weightTo27t":"323","weightTo34t":"352","terminal":"Zlin","objIndex":"67"},
{"city":"Brno/Slatina","zipcode":"62700","weightTo27t":"323","weightTo34t":"352","terminal":"Zlin","objIndex":"68"},
{"city":"Brno/Turany","zipcode":"62000","weightTo27t":"323","weightTo34t":"352","terminal":"Zlin","objIndex":"69"},
{"city":"Brodek u Prerova","zipcode":"75103","weightTo27t":"223","weightTo34t":"244","terminal":"Zlin","objIndex":"70"},
{"city":"Brodek u Prostejova","zipcode":"79807","weightTo27t":"271","weightTo34t":"295","terminal":"Zlin","objIndex":"71"},
{"city":"Broumov","zipcode":"55001","weightTo27t":"666","weightTo34t":"729","terminal":"Zlin","objIndex":"72"},
{"city":"Brtov Jenec","zipcode":"67921","weightTo27t":"382","weightTo34t":"416","terminal":"Zlin","objIndex":"73"},
{"city":"Brumov","zipcode":"67923","weightTo27t":"415","weightTo34t":"453","terminal":"Zlin","objIndex":"74"},
{"city":"Brumov Bylnice","zipcode":"76331","weightTo27t":"198","weightTo34t":"218","terminal":"Zlin","objIndex":"75"},
{"city":"Brumovice","zipcode":"69111","weightTo27t":"268","weightTo34t":"295","terminal":"Zlin","objIndex":"76"},
{"city":"Bruntal","zipcode":"79201","weightTo27t":"344","weightTo34t":"377","terminal":"Zlin","objIndex":"77"},
{"city":"Brusne","zipcode":"76861","weightTo27t":"207","weightTo34t":"227","terminal":"Zlin","objIndex":"78"},
{"city":"Brusperk","zipcode":"73944","weightTo27t":"256","weightTo34t":"281","terminal":"Zlin","objIndex":"79"},
{"city":"Bruzovice","zipcode":"73936","weightTo27t":"287","weightTo34t":"315","terminal":"Zlin","objIndex":"80"},
{"city":"Bucovice","zipcode":"68501","weightTo27t":"233","weightTo34t":"256","terminal":"Zlin","objIndex":"81"},
{"city":"Budisov","zipcode":"67503","weightTo27t":"453","weightTo34t":"493","terminal":"Zlin","objIndex":"82"},
{"city":"Budisov nad Budisovkou","zipcode":"74787","weightTo27t":"376","weightTo34t":"410","terminal":"Zlin","objIndex":"83"},
{"city":"Buchlovice","zipcode":"68708","weightTo27t":"199","weightTo34t":"219","terminal":"Zlin","objIndex":"84"},
{"city":"Bukova","zipcode":"79848","weightTo27t":"355","weightTo34t":"387","terminal":"Zlin","objIndex":"85"},
{"city":"Bukovice","zipcode":"67923","weightTo27t":"393","weightTo34t":"429","terminal":"Zlin","objIndex":"86"},
{"city":"Bukovina","zipcode":"67905","weightTo27t":"282","weightTo34t":"308","terminal":"Zlin","objIndex":"87"},
{"city":"Busin","zipcode":"78962","weightTo27t":"395","weightTo34t":"432","terminal":"Zlin","objIndex":"88"},
{"city":"Bykovice","zipcode":"67971","weightTo27t":"394","weightTo34t":"430","terminal":"Zlin","objIndex":"89"},
{"city":"Bystrice","zipcode":"73995","weightTo27t":"339","weightTo34t":"371","terminal":"Zlin","objIndex":"90"},
{"city":"Bystrice pod Hostynem","zipcode":"76861","weightTo27t":"210","weightTo34t":"230","terminal":"Zlin","objIndex":"91"},
{"city":"Bystrovany","zipcode":"77900","weightTo27t":"236","weightTo34t":"259","terminal":"Zlin","objIndex":"92"},
{"city":"Bzenec","zipcode":"69681","weightTo27t":"212","weightTo34t":"233","terminal":"Zlin","objIndex":"93"},
{"city":"Cebin","zipcode":"66423","weightTo27t":"358","weightTo34t":"390","terminal":"Zlin","objIndex":"94"},
{"city":"Cechtin","zipcode":"67507","weightTo27t":"488","weightTo34t":"531","terminal":"Zlin","objIndex":"95"},
{"city":"Cechy","zipcode":"75115","weightTo27t":"211","weightTo34t":"231","terminal":"Zlin","objIndex":"96"},
{"city":"Cejc","zipcode":"69614","weightTo27t":"259","weightTo34t":"285","terminal":"Zlin","objIndex":"97"},
{"city":"Cejkovice","zipcode":"69615","weightTo27t":"268","weightTo34t":"295","terminal":"Zlin","objIndex":"98"},
{"city":"Celadna","zipcode":"73912","weightTo27t":"242","weightTo34t":"266","terminal":"Zlin","objIndex":"99"},
{"city":"Celcice","zipcode":"79823","weightTo27t":"241","weightTo34t":"264","terminal":"Zlin","objIndex":"100"},
{"city":"Cerna Hora","zipcode":"67921","weightTo27t":"383","weightTo34t":"417","terminal":"Zlin","objIndex":"101"},
{"city":"Cernovice","zipcode":"67975","weightTo27t":"415","weightTo34t":"453","terminal":"Zlin","objIndex":"102"},
{"city":"Cervena Lhota","zipcode":"67507","weightTo27t":"483","weightTo34t":"527","terminal":"Zlin","objIndex":"103"},
{"city":"Cervenka","zipcode":"78401","weightTo27t":"302","weightTo34t":"330","terminal":"Zlin","objIndex":"104"},
{"city":"Ceska","zipcode":"66431","weightTo27t":"347","weightTo34t":"378","terminal":"Zlin","objIndex":"105"},
{"city":"Ceska Trebova","zipcode":"56002","weightTo27t":"445","weightTo34t":"486","terminal":"Zlin","objIndex":"106"},
{"city":"Ceska Ves","zipcode":"79081","weightTo27t":"490","weightTo34t":"536","terminal":"Zlin","objIndex":"107"},
{"city":"Cesky Tesin","zipcode":"73701","weightTo27t":"328","weightTo34t":"359","terminal":"Zlin","objIndex":"108"},
{"city":"Cetkovice","zipcode":"67938","weightTo27t":"438","weightTo34t":"478","terminal":"Zlin","objIndex":"109"},
{"city":"Cidlina","zipcode":"67544","weightTo27t":"525","weightTo34t":"573","terminal":"Zlin","objIndex":"110"},
{"city":"Cihalin","zipcode":"67507","weightTo27t":"472","weightTo34t":"515","terminal":"Zlin","objIndex":"111"},
{"city":"Citonice","zipcode":"67101","weightTo27t":"487","weightTo34t":"531","terminal":"Zlin","objIndex":"112"},
{"city":"Damborice","zipcode":"69635","weightTo27t":"333","weightTo34t":"363","terminal":"Zlin","objIndex":"113"},
{"city":"Deblin","zipcode":"66475","weightTo27t":"416","weightTo34t":"453","terminal":"Zlin","objIndex":"114"},
{"city":"Dehylov","zipcode":"74794","weightTo27t":"374","weightTo34t":"407","terminal":"Zlin","objIndex":"115"},
{"city":"Desov","zipcode":"67533","weightTo27t":"551","weightTo34t":"601","terminal":"Zlin","objIndex":"116"},
{"city":"Detmarovice","zipcode":"73571","weightTo27t":"437","weightTo34t":"476","terminal":"Zlin","objIndex":"117"},
{"city":"Detrichov nad Bystrici","zipcode":"79303","weightTo27t":"300","weightTo34t":"329","terminal":"Zlin","objIndex":"118"},
{"city":"Divci Hrad","zipcode":"79399","weightTo27t":"493","weightTo34t":"539","terminal":"Zlin","objIndex":"119"},
{"city":"Dlouha Loucka","zipcode":"78386","weightTo27t":"290","weightTo34t":"318","terminal":"Zlin","objIndex":"120"},
{"city":"Dobra","zipcode":"73951","weightTo27t":"278","weightTo34t":"305","terminal":"Zlin","objIndex":"121"},
{"city":"Dobrenice","zipcode":"50325","weightTo27t":"605","weightTo34t":"660","terminal":"Zlin","objIndex":"122"},
{"city":"Dobsice","zipcode":"67182","weightTo27t":"466","weightTo34t":"508","terminal":"Zlin","objIndex":"123"},
{"city":"Dolany","zipcode":"78316","weightTo27t":"246","weightTo34t":"270","terminal":"Zlin","objIndex":"124"},
{"city":"Dolni Becva","zipcode":"75655","weightTo27t":"212","weightTo34t":"233","terminal":"Zlin","objIndex":"125"},
{"city":"Dolni Benesov","zipcode":"74722","weightTo27t":"396","weightTo34t":"432","terminal":"Zlin","objIndex":"126"},
{"city":"Dolni Bojanovice","zipcode":"69617","weightTo27t":"251","weightTo34t":"276","terminal":"Zlin","objIndex":"127"},
{"city":"Dolni Kounice","zipcode":"66464","weightTo27t":"376","weightTo34t":"409","terminal":"Zlin","objIndex":"128"},
{"city":"Dolni Lhota","zipcode":"74766","weightTo27t":"385","weightTo34t":"419","terminal":"Zlin","objIndex":"129"},
{"city":"Dolni Lhota","zipcode":"76323","weightTo27t":"167","weightTo34t":"184","terminal":"Zlin","objIndex":"130"},
{"city":"Dolni Loucky","zipcode":"59455","weightTo27t":"391","weightTo34t":"427","terminal":"Zlin","objIndex":"131"},
{"city":"Dolni Lutyne","zipcode":"73553","weightTo27t":"426","weightTo34t":"464","terminal":"Zlin","objIndex":"132"},
{"city":"Dolni Nemci","zipcode":"68762","weightTo27t":"204","weightTo34t":"224","terminal":"Zlin","objIndex":"133"},
{"city":"Dolni Ujezd","zipcode":"75123","weightTo27t":"228","weightTo34t":"249","terminal":"Zlin","objIndex":"134"},
{"city":"Dolni Zivotice","zipcode":"74756","weightTo27t":"387","weightTo34t":"423","terminal":"Zlin","objIndex":"135"},
{"city":"Domasov","zipcode":"66483","weightTo27t":"378","weightTo34t":"411","terminal":"Zlin","objIndex":"136"},
{"city":"Domazelice","zipcode":"75115","weightTo27t":"211","weightTo34t":"231","terminal":"Zlin","objIndex":"137"},
{"city":"Doubrava","zipcode":"73533","weightTo27t":"346","weightTo34t":"379","terminal":"Zlin","objIndex":"138"},
{"city":"Doubravice nad Svitavou","zipcode":"67911","weightTo27t":"334","weightTo34t":"365","terminal":"Zlin","objIndex":"139"},
{"city":"Doubravnik","zipcode":"59261","weightTo27t":"402","weightTo34t":"439","terminal":"Zlin","objIndex":"140"},
{"city":"Drahonin","zipcode":"59261","weightTo27t":"412","weightTo34t":"450","terminal":"Zlin","objIndex":"141"},
{"city":"Drasov","zipcode":"66424","weightTo27t":"370","weightTo34t":"403","terminal":"Zlin","objIndex":"142"},
{"city":"Drevohostice","zipcode":"75114","weightTo27t":"214","weightTo34t":"234","terminal":"Zlin","objIndex":"143"},
{"city":"Drnovice","zipcode":"67976","weightTo27t":"406","weightTo34t":"443","terminal":"Zlin","objIndex":"144"},
{"city":"Drnovice","zipcode":"68304","weightTo27t":"258","weightTo34t":"282","terminal":"Zlin","objIndex":"145"},
{"city":"Drnovice","zipcode":"76325","weightTo27t":"182","weightTo34t":"200","terminal":"Zlin","objIndex":"146"},
{"city":"Drslavice","zipcode":"68733","weightTo27t":"206","weightTo34t":"226","terminal":"Zlin","objIndex":"147"},
{"city":"Drzovice","zipcode":"79607","weightTo27t":"303","weightTo34t":"330","terminal":"Zlin","objIndex":"148"},
{"city":"Dubicko","zipcode":"78972","weightTo27t":"340","weightTo34t":"371","terminal":"Zlin","objIndex":"149"},
{"city":"Dubnany","zipcode":"69603","weightTo27t":"242","weightTo34t":"266","terminal":"Zlin","objIndex":"150"},
{"city":"Dukovany","zipcode":"67556","weightTo27t":"440","weightTo34t":"480","terminal":"Zlin","objIndex":"151"},
{"city":"Dvorce","zipcode":"79368","weightTo27t":"311","weightTo34t":"341","terminal":"Zlin","objIndex":"152"},
{"city":"Dvur Kralove nad Labem","zipcode":"54401","weightTo27t":"677","weightTo34t":"738","terminal":"Zlin","objIndex":"153"},
{"city":"Dyjakovice","zipcode":"67126","weightTo27t":"487","weightTo34t":"531","terminal":"Zlin","objIndex":"154"},
{"city":"Dyje","zipcode":"66902","weightTo27t":"466","weightTo34t":"508","terminal":"Zlin","objIndex":"155"},
{"city":"Francova Lhota","zipcode":"75614","weightTo27t":"195","weightTo34t":"215","terminal":"Zlin","objIndex":"156"},
{"city":"Frenstat pod Radhostem","zipcode":"74401","weightTo27t":"225","weightTo34t":"248","terminal":"Zlin","objIndex":"157"},
{"city":"Frycovice","zipcode":"73945","weightTo27t":"256","weightTo34t":"281","terminal":"Zlin","objIndex":"158"},
{"city":"Frydek Mistek","zipcode":"73801","weightTo27t":"267","weightTo34t":"293","terminal":"Zlin","objIndex":"159"},
{"city":"Frydek Mistek/Chlebovice","zipcode":"73942","weightTo27t":"267","weightTo34t":"293","terminal":"Zlin","objIndex":"160"},
{"city":"Frydlant nad Ostravici","zipcode":"73911","weightTo27t":"287","weightTo34t":"315","terminal":"Zlin","objIndex":"161"},
{"city":"Frystak","zipcode":"76316","weightTo27t":"167","weightTo34t":"184","terminal":"Zlin","objIndex":"162"},
{"city":"Fulnek","zipcode":"74245","weightTo27t":"311","weightTo34t":"339","terminal":"Zlin","objIndex":"163"},
{"city":"Greslove Myto","zipcode":"67156","weightTo27t":"519","weightTo34t":"566","terminal":"Zlin","objIndex":"164"},
{"city":"Grygov","zipcode":"78373","weightTo27t":"223","weightTo34t":"244","terminal":"Zlin","objIndex":"165"},
{"city":"Haj ve Slezsku","zipcode":"74792","weightTo27t":"386","weightTo34t":"420","terminal":"Zlin","objIndex":"166"},
{"city":"Halenkov","zipcode":"75603","weightTo27t":"289","weightTo34t":"318","terminal":"Zlin","objIndex":"167"},
{"city":"Hanovice","zipcode":"78321","weightTo27t":"291","weightTo34t":"318","terminal":"Zlin","objIndex":"168"},
{"city":"Hanusovice","zipcode":"78833","weightTo27t":"416","weightTo34t":"455","terminal":"Zlin","objIndex":"169"},
{"city":"Hat","zipcode":"74716","weightTo27t":"396","weightTo34t":"432","terminal":"Zlin","objIndex":"170"},
{"city":"Havirov","zipcode":"73601","weightTo27t":"335","weightTo34t":"367","terminal":"Zlin","objIndex":"171"},
{"city":"Havirov/Prostredni Sucha","zipcode":"73564","weightTo27t":"335","weightTo34t":"367","terminal":"Zlin","objIndex":"172"},
{"city":"Havlickuv Brod","zipcode":"58001","weightTo27t":"561","weightTo34t":"609","terminal":"Zlin","objIndex":"173"},
{"city":"Hermanky","zipcode":"74235","weightTo27t":"304","weightTo34t":"332","terminal":"Zlin","objIndex":"174"},
{"city":"Herspice","zipcode":"68401","weightTo27t":"301","weightTo34t":"328","terminal":"Zlin","objIndex":"175"},
{"city":"Hevlin","zipcode":"67169","weightTo27t":"497","weightTo34t":"542","terminal":"Zlin","objIndex":"176"},
{"city":"Hlinsko","zipcode":"53901","weightTo27t":"559","weightTo34t":"609","terminal":"Zlin","objIndex":"177"},
{"city":"Hlubocky","zipcode":"78361","weightTo27t":"253","weightTo34t":"277","terminal":"Zlin","objIndex":"178"},
{"city":"Hlubocky/Marianske Udoli","zipcode":"78365","weightTo27t":"253","weightTo34t":"277","terminal":"Zlin","objIndex":"179"},
{"city":"Hluboke Masuvky","zipcode":"67152","weightTo27t":"487","weightTo34t":"531","terminal":"Zlin","objIndex":"180"},
{"city":"Hlucin","zipcode":"74801","weightTo27t":"385","weightTo34t":"419","terminal":"Zlin","objIndex":"181"},
{"city":"Hluchov","zipcode":"79841","weightTo27t":"334","weightTo34t":"364","terminal":"Zlin","objIndex":"182"},
{"city":"Hluk","zipcode":"68725","weightTo27t":"201","weightTo34t":"221","terminal":"Zlin","objIndex":"183"},
{"city":"Hnevotin","zipcode":"78347","weightTo27t":"251","weightTo34t":"275","terminal":"Zlin","objIndex":"184"},
{"city":"Hnojnik","zipcode":"73953","weightTo27t":"302","weightTo34t":"331","terminal":"Zlin","objIndex":"185"},
{"city":"Hodejice","zipcode":"68401","weightTo27t":"280","weightTo34t":"305","terminal":"Zlin","objIndex":"186"},
{"city":"Hodonice","zipcode":"67125","weightTo27t":"455","weightTo34t":"496","terminal":"Zlin","objIndex":"187"},
{"city":"Hodonin","zipcode":"67971","weightTo27t":"438","weightTo34t":"478","terminal":"Zlin","objIndex":"188"},
{"city":"Hodonin","zipcode":"69501","weightTo27t":"235","weightTo34t":"259","terminal":"Zlin","objIndex":"189"},
{"city":"Hodov","zipcode":"67504","weightTo27t":"453","weightTo34t":"493","terminal":"Zlin","objIndex":"190"},
{"city":"Hodslavice","zipcode":"74271","weightTo27t":"206","weightTo34t":"227","terminal":"Zlin","objIndex":"191"},
{"city":"Holasice","zipcode":"66461","weightTo27t":"340","weightTo34t":"370","terminal":"Zlin","objIndex":"192"},
{"city":"Holasovice","zipcode":"74774","weightTo27t":"398","weightTo34t":"435","terminal":"Zlin","objIndex":"193"},
{"city":"Holcovice","zipcode":"79371","weightTo27t":"398","weightTo34t":"437","terminal":"Zlin","objIndex":"194"},
{"city":"Holesov","zipcode":"76901","weightTo27t":"201","weightTo34t":"221","terminal":"Zlin","objIndex":"195"},
{"city":"Holesov/Vsetuly","zipcode":"76901","weightTo27t":"201","weightTo34t":"221","terminal":"Zlin","objIndex":"196"},
{"city":"Holstejn","zipcode":"67913","weightTo27t":"291","weightTo34t":"318","terminal":"Zlin","objIndex":"197"},
{"city":"Holubice","zipcode":"68351","weightTo27t":"282","weightTo34t":"307","terminal":"Zlin","objIndex":"198"},
{"city":"Horka nad Moravou","zipcode":"78335","weightTo27t":"268","weightTo34t":"293","terminal":"Zlin","objIndex":"199"},
{"city":"Horni Becva","zipcode":"75657","weightTo27t":"225","weightTo34t":"248","terminal":"Zlin","objIndex":"200"},
{"city":"Horni Benesov","zipcode":"79312","weightTo27t":"366","weightTo34t":"402","terminal":"Zlin","objIndex":"201"},
{"city":"Horni Bludovice","zipcode":"73937","weightTo27t":"299","weightTo34t":"328","terminal":"Zlin","objIndex":"202"},
{"city":"Horni Lhota","zipcode":"76323","weightTo27t":"167","weightTo34t":"184","terminal":"Zlin","objIndex":"203"},
{"city":"Horni Lidec","zipcode":"75612","weightTo27t":"190","weightTo34t":"209","terminal":"Zlin","objIndex":"204"},
{"city":"Horni Loucky","zipcode":"59455","weightTo27t":"391","weightTo34t":"427","terminal":"Zlin","objIndex":"205"},
{"city":"Horni Nemci","zipcode":"68764","weightTo27t":"206","weightTo34t":"227","terminal":"Zlin","objIndex":"206"},
{"city":"Horni Smrcne","zipcode":"67507","weightTo27t":"515","weightTo34t":"560","terminal":"Zlin","objIndex":"207"},
{"city":"Horni Stepanov","zipcode":"79847","weightTo27t":"355","weightTo34t":"387","terminal":"Zlin","objIndex":"208"},
{"city":"Horni Sucha","zipcode":"73535","weightTo27t":"346","weightTo34t":"379","terminal":"Zlin","objIndex":"209"},
{"city":"Horni Tosanovice","zipcode":"73953","weightTo27t":"302","weightTo34t":"331","terminal":"Zlin","objIndex":"210"},
{"city":"Hostalkova","zipcode":"75622","weightTo27t":"195","weightTo34t":"215","terminal":"Zlin","objIndex":"211"},
{"city":"Hostenice","zipcode":"66404","weightTo27t":"299","weightTo34t":"326","terminal":"Zlin","objIndex":"212"},
{"city":"Hosteradice","zipcode":"67171","weightTo27t":"434","weightTo34t":"473","terminal":"Zlin","objIndex":"213"},
{"city":"Hostim","zipcode":"67154","weightTo27t":"529","weightTo34t":"577","terminal":"Zlin","objIndex":"214"},
{"city":"Hovezi","zipcode":"75601","weightTo27t":"190","weightTo34t":"209","terminal":"Zlin","objIndex":"215"},
{"city":"Hovorany","zipcode":"69612","weightTo27t":"251","weightTo34t":"276","terminal":"Zlin","objIndex":"216"},
{"city":"Hrabetice","zipcode":"67168","weightTo27t":"519","weightTo34t":"566","terminal":"Zlin","objIndex":"217"},
{"city":"Hrabova","zipcode":"78901","weightTo27t":"351","weightTo34t":"383","terminal":"Zlin","objIndex":"218"},
{"city":"Hradcovice","zipcode":"68733","weightTo27t":"203","weightTo34t":"223","terminal":"Zlin","objIndex":"219"},
{"city":"Hradec Kralove","zipcode":"50002","weightTo27t":"591","weightTo34t":"645","terminal":"Zlin","objIndex":"220"},
{"city":"Hradec nad Moravici","zipcode":"74741","weightTo27t":"354","weightTo34t":"386","terminal":"Zlin","objIndex":"221"},
{"city":"Hradek","zipcode":"67127","weightTo27t":"487","weightTo34t":"531","terminal":"Zlin","objIndex":"222"},
{"city":"Hranice","zipcode":"75301","weightTo27t":"254","weightTo34t":"278","terminal":"Zlin","objIndex":"223"},
{"city":"Hrobice","zipcode":"76315","weightTo27t":"167","weightTo34t":"184","terminal":"Zlin","objIndex":"224"},
{"city":"Hrotovice","zipcode":"67555","weightTo27t":"451","weightTo34t":"492","terminal":"Zlin","objIndex":"225"},
{"city":"Hroznatin","zipcode":"67505","weightTo27t":"478","weightTo34t":"520","terminal":"Zlin","objIndex":"226"},
{"city":"Hroznova Lhota","zipcode":"69663","weightTo27t":"206","weightTo34t":"227","terminal":"Zlin","objIndex":"227"},
{"city":"Hrusky","zipcode":"69156","weightTo27t":"259","weightTo34t":"285","terminal":"Zlin","objIndex":"228"},
{"city":"Hrusovany nad Jevisovkou","zipcode":"67167","weightTo27t":"424","weightTo34t":"462","terminal":"Zlin","objIndex":"229"},
{"city":"Hrusovany u Brna","zipcode":"66462","weightTo27t":"351","weightTo34t":"382","terminal":"Zlin","objIndex":"230"},
{"city":"Hukvaldy","zipcode":"73946","weightTo27t":"256","weightTo34t":"281","terminal":"Zlin","objIndex":"231"},
{"city":"Hulin","zipcode":"76824","weightTo27t":"196","weightTo34t":"215","terminal":"Zlin","objIndex":"232"},
{"city":"Huslenky","zipcode":"75602","weightTo27t":"300","weightTo34t":"330","terminal":"Zlin","objIndex":"233"},
{"city":"Hustenovice","zipcode":"68703","weightTo27t":"190","weightTo34t":"209","terminal":"Zlin","objIndex":"234"},
{"city":"Hustopece","zipcode":"69301","weightTo27t":"381","weightTo34t":"414","terminal":"Zlin","objIndex":"235"},
{"city":"Hutisko Solanec","zipcode":"75662","weightTo27t":"217","weightTo34t":"239","terminal":"Zlin","objIndex":"236"},
{"city":"Hvozd","zipcode":"79855","weightTo27t":"312","weightTo34t":"341","terminal":"Zlin","objIndex":"237"},
{"city":"Chlistov","zipcode":"67522","weightTo27t":"483","weightTo34t":"527","terminal":"Zlin","objIndex":"238"},
{"city":"Chlum","zipcode":"67521","weightTo27t":"515","weightTo34t":"560","terminal":"Zlin","objIndex":"239"},
{"city":"Chropyne","zipcode":"76811","weightTo27t":"210","weightTo34t":"230","terminal":"Zlin","objIndex":"240"},
{"city":"Chrudim","zipcode":"53701","weightTo27t":"549","weightTo34t":"599","terminal":"Zlin","objIndex":"241"},
{"city":"Chuchelna","zipcode":"74724","weightTo27t":"417","weightTo34t":"455","terminal":"Zlin","objIndex":"242"},
{"city":"Ivancice","zipcode":"66491","weightTo27t":"387","weightTo34t":"421","terminal":"Zlin","objIndex":"243"},
{"city":"Ivanovice na Hane","zipcode":"68323","weightTo27t":"232","weightTo34t":"253","terminal":"Zlin","objIndex":"244"},
{"city":"Jablonany","zipcode":"67901","weightTo27t":"406","weightTo34t":"443","terminal":"Zlin","objIndex":"245"},
{"city":"Jablunka","zipcode":"75623","weightTo27t":"190","weightTo34t":"209","terminal":"Zlin","objIndex":"246"},
{"city":"Jablunkov","zipcode":"73991","weightTo27t":"361","weightTo34t":"395","terminal":"Zlin","objIndex":"247"},
{"city":"Jakubcovice nad Odrou","zipcode":"74236","weightTo27t":"293","weightTo34t":"320","terminal":"Zlin","objIndex":"248"},
{"city":"Jamolice","zipcode":"67201","weightTo27t":"409","weightTo34t":"446","terminal":"Zlin","objIndex":"249"},
{"city":"Jaromerice nad Rokytnou","zipcode":"67551","weightTo27t":"472","weightTo34t":"515","terminal":"Zlin","objIndex":"250"},
{"city":"Jasenna","zipcode":"76313","weightTo27t":"167","weightTo34t":"184","terminal":"Zlin","objIndex":"251"},
{"city":"Javornik","zipcode":"69674","weightTo27t":"217","weightTo34t":"239","terminal":"Zlin","objIndex":"252"},
{"city":"Javornik","zipcode":"79070","weightTo27t":"554","weightTo34t":"607","terminal":"Zlin","objIndex":"253"},
{"city":"Javurek","zipcode":"66483","weightTo27t":"378","weightTo34t":"411","terminal":"Zlin","objIndex":"254"},
{"city":"Jedli","zipcode":"78901","weightTo27t":"373","weightTo34t":"407","terminal":"Zlin","objIndex":"255"},
{"city":"Jedovnice","zipcode":"67906","weightTo27t":"291","weightTo34t":"318","terminal":"Zlin","objIndex":"256"},
{"city":"Jemnice","zipcode":"67531","weightTo27t":"562","weightTo34t":"614","terminal":"Zlin","objIndex":"257"},
{"city":"Jesenik","zipcode":"79001","weightTo27t":"479","weightTo34t":"524","terminal":"Zlin","objIndex":"258"},
{"city":"Jesenik nad Odrou","zipcode":"74233","weightTo27t":"217","weightTo34t":"239","terminal":"Zlin","objIndex":"259"},
{"city":"Jevicko","zipcode":"56943","weightTo27t":"327","weightTo34t":"358","terminal":"Zlin","objIndex":"260"},
{"city":"Jevisovka","zipcode":"69183","weightTo27t":"424","weightTo34t":"462","terminal":"Zlin","objIndex":"261"},
{"city":"Jezkovice","zipcode":"68304","weightTo27t":"265","weightTo34t":"289","terminal":"Zlin","objIndex":"262"},
{"city":"Jihlava","zipcode":"58601","weightTo27t":"548","weightTo34t":"595","terminal":"Zlin","objIndex":"263"},
{"city":"Jinacovice","zipcode":"66434","weightTo27t":"345","weightTo34t":"376","terminal":"Zlin","objIndex":"264"},
{"city":"Jindrichov","zipcode":"78823","weightTo27t":"437","weightTo34t":"478","terminal":"Zlin","objIndex":"265"},
{"city":"Jindrichuv Hradec","zipcode":"37701","weightTo27t":"713","weightTo34t":"775","terminal":"Zlin","objIndex":"266"},
{"city":"Jinosov","zipcode":"67571","weightTo27t":"418","weightTo34t":"455","terminal":"Zlin","objIndex":"267"},
{"city":"Jirikovice","zipcode":"66451","weightTo27t":"290","weightTo34t":"316","terminal":"Zlin","objIndex":"268"},
{"city":"Jivova","zipcode":"78316","weightTo27t":"262","weightTo34t":"287","terminal":"Zlin","objIndex":"269"},
{"city":"Kaly","zipcode":"59455","weightTo27t":"391","weightTo34t":"427","terminal":"Zlin","objIndex":"270"},
{"city":"Kamenna","zipcode":"78974","weightTo27t":"373","weightTo34t":"407","terminal":"Zlin","objIndex":"271"},
{"city":"Kamenna","zipcode":"67503","weightTo27t":"443","weightTo34t":"482","terminal":"Zlin","objIndex":"272"},
{"city":"Kanice","zipcode":"66401","weightTo27t":"323","weightTo34t":"352","terminal":"Zlin","objIndex":"273"},
{"city":"Kanovice","zipcode":"76341","weightTo27t":"182","weightTo34t":"200","terminal":"Zlin","objIndex":"274"},
{"city":"Karlovice","zipcode":"79323","weightTo27t":"387","weightTo34t":"425","terminal":"Zlin","objIndex":"275"},
{"city":"Karolinka","zipcode":"75605","weightTo27t":"279","weightTo34t":"307","terminal":"Zlin","objIndex":"276"},
{"city":"Karvina","zipcode":"73301","weightTo27t":"357","weightTo34t":"391","terminal":"Zlin","objIndex":"277"},
{"city":"Katerinice","zipcode":"74258","weightTo27t":"246","weightTo34t":"270","terminal":"Zlin","objIndex":"278"},
{"city":"Katerinice","zipcode":"75621","weightTo27t":"195","weightTo34t":"215","terminal":"Zlin","objIndex":"279"},
{"city":"Kelc","zipcode":"75643","weightTo27t":"206","weightTo34t":"227","terminal":"Zlin","objIndex":"280"},
{"city":"Kelcany","zipcode":"69649","weightTo27t":"225","weightTo34t":"248","terminal":"Zlin","objIndex":"281"},
{"city":"Kelniky","zipcode":"76307","weightTo27t":"184","weightTo34t":"202","terminal":"Zlin","objIndex":"282"},
{"city":"Kladeruby nad Oslavou","zipcode":"67575","weightTo27t":"419","weightTo34t":"457","terminal":"Zlin","objIndex":"283"},
{"city":"Kladky","zipcode":"79854","weightTo27t":"334","weightTo34t":"365","terminal":"Zlin","objIndex":"284"},
{"city":"Klenovice na Hane","zipcode":"79823","weightTo27t":"219","weightTo34t":"240","terminal":"Zlin","objIndex":"285"},
{"city":"Klimkovice","zipcode":"74283","weightTo27t":"349","weightTo34t":"380","terminal":"Zlin","objIndex":"286"},
{"city":"Klobouky u Brna","zipcode":"69172","weightTo27t":"366","weightTo34t":"399","terminal":"Zlin","objIndex":"287"},
{"city":"Klopina","zipcode":"78973","weightTo27t":"351","weightTo34t":"383","terminal":"Zlin","objIndex":"288"},
{"city":"Knezice","zipcode":"67529","weightTo27t":"493","weightTo34t":"538","terminal":"Zlin","objIndex":"289"},
{"city":"Koberice","zipcode":"74727","weightTo27t":"419","weightTo34t":"457","terminal":"Zlin","objIndex":"290"},
{"city":"Kobyli","zipcode":"69110","weightTo27t":"268","weightTo34t":"295","terminal":"Zlin","objIndex":"291"},
{"city":"Kobylnice","zipcode":"66451","weightTo27t":"299","weightTo34t":"326","terminal":"Zlin","objIndex":"292"},
{"city":"Koclirov","zipcode":"56911","weightTo27t":"401","weightTo34t":"438","terminal":"Zlin","objIndex":"293"},
{"city":"Kojetice","zipcode":"67523","weightTo27t":"472","weightTo34t":"515","terminal":"Zlin","objIndex":"294"},
{"city":"Kojetin","zipcode":"75201","weightTo27t":"214","weightTo34t":"234","terminal":"Zlin","objIndex":"295"},
{"city":"Kokory","zipcode":"75105","weightTo27t":"217","weightTo34t":"238","terminal":"Zlin","objIndex":"296"},
{"city":"Komna","zipcode":"68771","weightTo27t":"198","weightTo34t":"218","terminal":"Zlin","objIndex":"297"},
{"city":"Komorany","zipcode":"68301","weightTo27t":"267","weightTo34t":"291","terminal":"Zlin","objIndex":"298"},
{"city":"Konice","zipcode":"79852","weightTo27t":"295","weightTo34t":"323","terminal":"Zlin","objIndex":"299"},
{"city":"Koprivnice","zipcode":"74221","weightTo27t":"225","weightTo34t":"248","terminal":"Zlin","objIndex":"300"},
{"city":"Korenec","zipcode":"68001","weightTo27t":"377","weightTo34t":"411","terminal":"Zlin","objIndex":"301"},
{"city":"Korycany","zipcode":"76805","weightTo27t":"216","weightTo34t":"237","terminal":"Zlin","objIndex":"302"},
{"city":"Kostelany nad Moravou","zipcode":"68601","weightTo27t":"198","weightTo34t":"218","terminal":"Zlin","objIndex":"303"},
{"city":"Kostelec","zipcode":"69651","weightTo27t":"235","weightTo34t":"259","terminal":"Zlin","objIndex":"304"},
{"city":"Kostelec na Hane","zipcode":"79841","weightTo27t":"313","weightTo34t":"341","terminal":"Zlin","objIndex":"305"},
{"city":"Kostelec u Holesova","zipcode":"76843","weightTo27t":"201","weightTo34t":"221","terminal":"Zlin","objIndex":"306"},
{"city":"Kostice","zipcode":"69152","weightTo27t":"268","weightTo34t":"295","terminal":"Zlin","objIndex":"307"},
{"city":"Kotvrdovice","zipcode":"67907","weightTo27t":"282","weightTo34t":"308","terminal":"Zlin","objIndex":"308"},
{"city":"Kouty","zipcode":"67508","weightTo27t":"515","weightTo34t":"560","terminal":"Zlin","objIndex":"309"},
{"city":"Kozarov","zipcode":"67971","weightTo27t":"379","weightTo34t":"416","terminal":"Zlin","objIndex":"310"},
{"city":"Kozichovice","zipcode":"67401","weightTo27t":"451","weightTo34t":"492","terminal":"Zlin","objIndex":"311"},
{"city":"Kozlovice","zipcode":"73947","weightTo27t":"235","weightTo34t":"259","terminal":"Zlin","objIndex":"312"},
{"city":"Kozmice","zipcode":"74711","weightTo27t":"385","weightTo34t":"419","terminal":"Zlin","objIndex":"313"},
{"city":"Kozusany Tazaly","zipcode":"78375","weightTo27t":"238","weightTo34t":"261","terminal":"Zlin","objIndex":"314"},
{"city":"Krahulov","zipcode":"67521","weightTo27t":"462","weightTo34t":"504","terminal":"Zlin","objIndex":"315"},
{"city":"Kralice na Hane","zipcode":"79812","weightTo27t":"302","weightTo34t":"329","terminal":"Zlin","objIndex":"316"},
{"city":"Kralice nad Oslavou","zipcode":"67573","weightTo27t":"398","weightTo34t":"434","terminal":"Zlin","objIndex":"317"},
{"city":"Krasensko","zipcode":"68304","weightTo27t":"282","weightTo34t":"308","terminal":"Zlin","objIndex":"318"},
{"city":"Kravare","zipcode":"74721","weightTo27t":"409","weightTo34t":"446","terminal":"Zlin","objIndex":"319"},
{"city":"Krenovice","zipcode":"68352","weightTo27t":"300","weightTo34t":"327","terminal":"Zlin","objIndex":"320"},
{"city":"Kretin","zipcode":"67962","weightTo27t":"438","weightTo34t":"478","terminal":"Zlin","objIndex":"321"},
{"city":"Krhova","zipcode":"75663","weightTo27t":"204","weightTo34t":"224","terminal":"Zlin","objIndex":"322"},
{"city":"Krmelin","zipcode":"73924","weightTo27t":"265","weightTo34t":"291","terminal":"Zlin","objIndex":"323"},
{"city":"Krnov","zipcode":"79401","weightTo27t":"429","weightTo34t":"469","terminal":"Zlin","objIndex":"324"},
{"city":"Kromeriz","zipcode":"76701","weightTo27t":"207","weightTo34t":"227","terminal":"Zlin","objIndex":"325"},
{"city":"Krtiny","zipcode":"67905","weightTo27t":"282","weightTo34t":"308","terminal":"Zlin","objIndex":"326"},
{"city":"Krtomil","zipcode":"75114","weightTo27t":"212","weightTo34t":"233","terminal":"Zlin","objIndex":"327"},
{"city":"Kudlovice","zipcode":"68703","weightTo27t":"184","weightTo34t":"202","terminal":"Zlin","objIndex":"328"},
{"city":"Kuncice pod Ondrejnikem","zipcode":"73913","weightTo27t":"235","weightTo34t":"259","terminal":"Zlin","objIndex":"329"},
{"city":"Kunice","zipcode":"67971","weightTo27t":"405","weightTo34t":"442","terminal":"Zlin","objIndex":"330"},
{"city":"Kunicky","zipcode":"67902","weightTo27t":"323","weightTo34t":"353","terminal":"Zlin","objIndex":"331"},
{"city":"Kunin","zipcode":"74253","weightTo27t":"217","weightTo34t":"239","terminal":"Zlin","objIndex":"332"},
{"city":"Kunovice","zipcode":"68604","weightTo27t":"195","weightTo34t":"215","terminal":"Zlin","objIndex":"333"},
{"city":"Kunovice","zipcode":"75644","weightTo27t":"206","weightTo34t":"227","terminal":"Zlin","objIndex":"334"},
{"city":"Kunstat","zipcode":"67972","weightTo27t":"417","weightTo34t":"455","terminal":"Zlin","objIndex":"335"},
{"city":"Kurim","zipcode":"66434","weightTo27t":"347","weightTo34t":"378","terminal":"Zlin","objIndex":"336"},
{"city":"Kurimske Jestrabi","zipcode":"59455","weightTo27t":"428","weightTo34t":"466","terminal":"Zlin","objIndex":"337"},
{"city":"Kvasice","zipcode":"76821","weightTo27t":"185","weightTo34t":"203","terminal":"Zlin","objIndex":"338"},
{"city":"Kyjov","zipcode":"69701","weightTo27t":"235","weightTo34t":"259","terminal":"Zlin","objIndex":"339"},
{"city":"Kyjov/Bohuslavice","zipcode":"69655","weightTo27t":"235","weightTo34t":"259","terminal":"Zlin","objIndex":"340"},
{"city":"Ladna","zipcode":"69146","weightTo27t":"279","weightTo34t":"307","terminal":"Zlin","objIndex":"341"},
{"city":"Lanskroun","zipcode":"56301","weightTo27t":"445","weightTo34t":"486","terminal":"Zlin","objIndex":"342"},
{"city":"Lanzhot","zipcode":"69151","weightTo27t":"279","weightTo34t":"307","terminal":"Zlin","objIndex":"343"},
{"city":"Laskov","zipcode":"79857","weightTo27t":"275","weightTo34t":"301","terminal":"Zlin","objIndex":"344"},
{"city":"Lednice","zipcode":"69144","weightTo27t":"305","weightTo34t":"335","terminal":"Zlin","objIndex":"345"},
{"city":"Lechovice","zipcode":"67163","weightTo27t":"444","weightTo34t":"484","terminal":"Zlin","objIndex":"346"},
{"city":"Lelekovice","zipcode":"66431","weightTo27t":"347","weightTo34t":"378","terminal":"Zlin","objIndex":"347"},
{"city":"Leskovec","zipcode":"75611","weightTo27t":"184","weightTo34t":"202","terminal":"Zlin","objIndex":"348"},
{"city":"Lesna","zipcode":"67526","weightTo27t":"493","weightTo34t":"538","terminal":"Zlin","objIndex":"349"},
{"city":"Lesna","zipcode":"75641","weightTo27t":"204","weightTo34t":"224","terminal":"Zlin","objIndex":"350"},
{"city":"Lesni Hluboke","zipcode":"66483","weightTo27t":"394","weightTo34t":"428","terminal":"Zlin","objIndex":"351"},
{"city":"Lesonice","zipcode":"67544","weightTo27t":"493","weightTo34t":"538","terminal":"Zlin","objIndex":"352"},
{"city":"Letovice","zipcode":"67961","weightTo27t":"418","weightTo34t":"456","terminal":"Zlin","objIndex":"353"},
{"city":"Lhota Rapotina","zipcode":"67901","weightTo27t":"416","weightTo34t":"454","terminal":"Zlin","objIndex":"354"},
{"city":"Lhota u Vsetina","zipcode":"75501","weightTo27t":"182","weightTo34t":"200","terminal":"Zlin","objIndex":"355"},
{"city":"Liberec","zipcode":"46001","weightTo27t":"1039","weightTo34t":"1127","terminal":"Zlin","objIndex":"356"},
{"city":"Libina","zipcode":"78805","weightTo27t":"345","weightTo34t":"377","terminal":"Zlin","objIndex":"357"},
{"city":"Libos","zipcode":"78313","weightTo27t":"262","weightTo34t":"287","terminal":"Zlin","objIndex":"358"},
{"city":"Lichnov","zipcode":"74275","weightTo27t":"235","weightTo34t":"259","terminal":"Zlin","objIndex":"359"},
{"city":"Lipa","zipcode":"76311","weightTo27t":"167","weightTo34t":"184","terminal":"Zlin","objIndex":"360"},
{"city":"Lipa vaha","zipcode":"76311","weightTo27t":"22","weightTo34t":"22","terminal":"Zlin","objIndex":"361"},
{"city":"Lipnik nad Becvou","zipcode":"75131","weightTo27t":"225","weightTo34t":"246","terminal":"Zlin","objIndex":"362"},
{"city":"Lipov","zipcode":"69672","weightTo27t":"212","weightTo34t":"233","terminal":"Zlin","objIndex":"363"},
{"city":"Lipova","zipcode":"79845","weightTo27t":"344","weightTo34t":"375","terminal":"Zlin","objIndex":"364"},
{"city":"Lipova lazne","zipcode":"79061","weightTo27t":"490","weightTo34t":"536","terminal":"Zlin","objIndex":"365"},
{"city":"Lipovec","zipcode":"67915","weightTo27t":"282","weightTo34t":"308","terminal":"Zlin","objIndex":"366"},
{"city":"Liptal","zipcode":"75501","weightTo27t":"167","weightTo34t":"184","terminal":"Zlin","objIndex":"367"},
{"city":"Litencice","zipcode":"76813","weightTo27t":"241","weightTo34t":"264","terminal":"Zlin","objIndex":"368"},
{"city":"Litomysl","zipcode":"57001","weightTo27t":"449","weightTo34t":"490","terminal":"Zlin","objIndex":"369"},
{"city":"Litovel","zipcode":"78401","weightTo27t":"291","weightTo34t":"318","terminal":"Zlin","objIndex":"370"},
{"city":"Lobodice","zipcode":"75101","weightTo27t":"219","weightTo34t":"240","terminal":"Zlin","objIndex":"371"},
{"city":"Lomnice","zipcode":"67923","weightTo27t":"391","weightTo34t":"427","terminal":"Zlin","objIndex":"372"},
{"city":"Lomnice","zipcode":"79302","weightTo27t":"311","weightTo34t":"341","terminal":"Zlin","objIndex":"373"},
{"city":"Lostice","zipcode":"78983","weightTo27t":"316","weightTo34t":"345","terminal":"Zlin","objIndex":"374"},
{"city":"Loucka","zipcode":"75644","weightTo27t":"206","weightTo34t":"227","terminal":"Zlin","objIndex":"375"},
{"city":"Loucna nad Desnou","zipcode":"78811","weightTo27t":"416","weightTo34t":"455","terminal":"Zlin","objIndex":"376"},
{"city":"Louka","zipcode":"69676","weightTo27t":"206","weightTo34t":"227","terminal":"Zlin","objIndex":"377"},
{"city":"Lovcice","zipcode":"69639","weightTo27t":"259","weightTo34t":"285","terminal":"Zlin","objIndex":"378"},
{"city":"Lubenice","zipcode":"78346","weightTo27t":"258","weightTo34t":"282","terminal":"Zlin","objIndex":"379"},
{"city":"Ludgerovice","zipcode":"74714","weightTo27t":"401","weightTo34t":"437","terminal":"Zlin","objIndex":"380"},
{"city":"Ludkovice","zipcode":"76341","weightTo27t":"182","weightTo34t":"200","terminal":"Zlin","objIndex":"381"},
{"city":"Ludslavice","zipcode":"76852","weightTo27t":"191","weightTo34t":"210","terminal":"Zlin","objIndex":"382"},
{"city":"Luhacovice","zipcode":"76326","weightTo27t":"190","weightTo34t":"209","terminal":"Zlin","objIndex":"383"},
{"city":"Luka","zipcode":"78324","weightTo27t":"312","weightTo34t":"341","terminal":"Zlin","objIndex":"384"},
{"city":"Lukavice","zipcode":"78901","weightTo27t":"340","weightTo34t":"371","terminal":"Zlin","objIndex":"385"},
{"city":"Lukov","zipcode":"67602","weightTo27t":"493","weightTo34t":"538","terminal":"Zlin","objIndex":"386"},
{"city":"Lukov","zipcode":"76317","weightTo27t":"167","weightTo34t":"184","terminal":"Zlin","objIndex":"387"},
{"city":"Lukovecek","zipcode":"76316","weightTo27t":"182","weightTo34t":"200","terminal":"Zlin","objIndex":"388"},
{"city":"Lulec","zipcode":"68303","weightTo27t":"260","weightTo34t":"284","terminal":"Zlin","objIndex":"389"},
{"city":"Lutin","zipcode":"78349","weightTo27t":"258","weightTo34t":"282","terminal":"Zlin","objIndex":"390"},
{"city":"Luzice","zipcode":"69618","weightTo27t":"251","weightTo34t":"276","terminal":"Zlin","objIndex":"391"},
{"city":"Lysice","zipcode":"67971","weightTo27t":"394","weightTo34t":"430","terminal":"Zlin","objIndex":"392"},
{"city":"Machova","zipcode":"76301","weightTo27t":"183","weightTo34t":"201","terminal":"Zlin","objIndex":"393"},
{"city":"Malenovice","zipcode":"73911","weightTo27t":"297","weightTo34t":"326","terminal":"Zlin","objIndex":"394"},
{"city":"Maletin","zipcode":"78901","weightTo27t":"362","weightTo34t":"395","terminal":"Zlin","objIndex":"395"},
{"city":"Malhotice","zipcode":"75353","weightTo27t":"270","weightTo34t":"295","terminal":"Zlin","objIndex":"396"},
{"city":"Mankovice","zipcode":"74235","weightTo27t":"287","weightTo34t":"313","terminal":"Zlin","objIndex":"397"},
{"city":"Markvartovice","zipcode":"74714","weightTo27t":"401","weightTo34t":"437","terminal":"Zlin","objIndex":"398"},
{"city":"Medlice","zipcode":"67140","weightTo27t":"466","weightTo34t":"508","terminal":"Zlin","objIndex":"399"},
{"city":"Medlov","zipcode":"66466","weightTo27t":"365","weightTo34t":"397","terminal":"Zlin","objIndex":"400"},
{"city":"Medlov","zipcode":"78391","weightTo27t":"323","weightTo34t":"353","terminal":"Zlin","objIndex":"401"},
{"city":"Medlovice","zipcode":"68201","weightTo27t":"232","weightTo34t":"253","terminal":"Zlin","objIndex":"402"},
{"city":"Menin","zipcode":"66457","weightTo27t":"353","weightTo34t":"384","terminal":"Zlin","objIndex":"403"},
{"city":"Mesto Albrechtice","zipcode":"79395","weightTo27t":"461","weightTo34t":"504","terminal":"Zlin","objIndex":"404"},
{"city":"Mikulcice","zipcode":"69619","weightTo27t":"252","weightTo34t":"277","terminal":"Zlin","objIndex":"405"},
{"city":"Mikulov","zipcode":"69201","weightTo27t":"439","weightTo34t":"478","terminal":"Zlin","objIndex":"406"},
{"city":"Mikulovice","zipcode":"79084","weightTo27t":"511","weightTo34t":"559","terminal":"Zlin","objIndex":"407"},
{"city":"Mikulovice","zipcode":"67522","weightTo27t":"472","weightTo34t":"515","terminal":"Zlin","objIndex":"408"},
{"city":"Mikuluvka","zipcode":"75624","weightTo27t":"198","weightTo34t":"218","terminal":"Zlin","objIndex":"409"},
{"city":"Milotice","zipcode":"69605","weightTo27t":"235","weightTo34t":"259","terminal":"Zlin","objIndex":"410"},
{"city":"Milovice","zipcode":"69188","weightTo27t":"438","weightTo34t":"477","terminal":"Zlin","objIndex":"411"},
{"city":"Miroslav","zipcode":"67172","weightTo27t":"423","weightTo34t":"461","terminal":"Zlin","objIndex":"412"},
{"city":"Mirov","zipcode":"78901","weightTo27t":"340","weightTo34t":"371","terminal":"Zlin","objIndex":"413"},
{"city":"Mladec","zipcode":"78321","weightTo27t":"292","weightTo34t":"319","terminal":"Zlin","objIndex":"414"},
{"city":"Mladejovice","zipcode":"78501","weightTo27t":"270","weightTo34t":"296","terminal":"Zlin","objIndex":"415"},
{"city":"Modrice","zipcode":"66442","weightTo27t":"328","weightTo34t":"357","terminal":"Zlin","objIndex":"416"},
{"city":"Mohelnice","zipcode":"78985","weightTo27t":"318","weightTo34t":"347","terminal":"Zlin","objIndex":"417"},
{"city":"Mohelno","zipcode":"67575","weightTo27t":"419","weightTo34t":"457","terminal":"Zlin","objIndex":"418"},
{"city":"Mokra Horakov","zipcode":"66404","weightTo27t":"299","weightTo34t":"326","terminal":"Zlin","objIndex":"419"},
{"city":"Moravany","zipcode":"66448","weightTo27t":"327","weightTo34t":"356","terminal":"Zlin","objIndex":"420"},
{"city":"Moravany","zipcode":"69650","weightTo27t":"218","weightTo34t":"240","terminal":"Zlin","objIndex":"421"},
{"city":"Moravicany","zipcode":"78982","weightTo27t":"316","weightTo34t":"345","terminal":"Zlin","objIndex":"422"},
{"city":"Moravska Nova Ves","zipcode":"69155","weightTo27t":"259","weightTo34t":"285","terminal":"Zlin","objIndex":"423"},
{"city":"Moravska Trebova","zipcode":"57101","weightTo27t":"366","weightTo34t":"399","terminal":"Zlin","objIndex":"424"},
{"city":"Moravske Branice","zipcode":"66464","weightTo27t":"361","weightTo34t":"393","terminal":"Zlin","objIndex":"425"},
{"city":"Moravske Budejovice","zipcode":"67602","weightTo27t":"493","weightTo34t":"538","terminal":"Zlin","objIndex":"426"},
{"city":"Moravske Kninice","zipcode":"66434","weightTo27t":"358","weightTo34t":"390","terminal":"Zlin","objIndex":"427"},
{"city":"Moravsky Beroun","zipcode":"79305","weightTo27t":"290","weightTo34t":"318","terminal":"Zlin","objIndex":"428"},
{"city":"Moravsky Krumlov","zipcode":"67201","weightTo27t":"409","weightTo34t":"446","terminal":"Zlin","objIndex":"429"},
{"city":"Moravsky Pisek","zipcode":"69685","weightTo27t":"201","weightTo34t":"221","terminal":"Zlin","objIndex":"430"},
{"city":"Morkov","zipcode":"74272","weightTo27t":"206","weightTo34t":"227","terminal":"Zlin","objIndex":"431"},
{"city":"Morkovice Slizany","zipcode":"76833","weightTo27t":"228","weightTo34t":"249","terminal":"Zlin","objIndex":"432"},
{"city":"Mosnov","zipcode":"74251","weightTo27t":"246","weightTo34t":"270","terminal":"Zlin","objIndex":"433"},
{"city":"Mostkovice","zipcode":"79802","weightTo27t":"301","weightTo34t":"328","terminal":"Zlin","objIndex":"434"},
{"city":"Mosty u Jablunkova","zipcode":"73998","weightTo27t":"374","weightTo34t":"410","terminal":"Zlin","objIndex":"435"},
{"city":"Mutenice","zipcode":"69611","weightTo27t":"251","weightTo34t":"276","terminal":"Zlin","objIndex":"436"},
{"city":"Nachod","zipcode":"54701","weightTo27t":"593","weightTo34t":"649","terminal":"Zlin","objIndex":"437"},
{"city":"Namest na Hane","zipcode":"78344","weightTo27t":"267","weightTo34t":"292","terminal":"Zlin","objIndex":"438"},
{"city":"Namest nad Oslavou","zipcode":"67571","weightTo27t":"409","weightTo34t":"446","terminal":"Zlin","objIndex":"439"},
{"city":"Napajedla","zipcode":"76361","weightTo27t":"182","weightTo34t":"200","terminal":"Zlin","objIndex":"440"},
{"city":"Navsi","zipcode":"73992","weightTo27t":"350","weightTo34t":"383","terminal":"Zlin","objIndex":"441"},
{"city":"Nebovidy","zipcode":"66448","weightTo27t":"327","weightTo34t":"356","terminal":"Zlin","objIndex":"442"},
{"city":"Nedakonice","zipcode":"68738","weightTo27t":"198","weightTo34t":"218","terminal":"Zlin","objIndex":"443"},
{"city":"Nedvedice","zipcode":"59262","weightTo27t":"412","weightTo34t":"450","terminal":"Zlin","objIndex":"444"},
{"city":"Nemcany","zipcode":"68401","weightTo27t":"280","weightTo34t":"305","terminal":"Zlin","objIndex":"445"},
{"city":"Nemcice","zipcode":"67951","weightTo27t":"312","weightTo34t":"341","terminal":"Zlin","objIndex":"446"},
{"city":"Nemcice nad Hanou","zipcode":"79827","weightTo27t":"222","weightTo34t":"243","terminal":"Zlin","objIndex":"447"},
{"city":"Nemcicky","zipcode":"69107","weightTo27t":"424","weightTo34t":"462","terminal":"Zlin","objIndex":"448"},
{"city":"Nemcicky","zipcode":"66466","weightTo27t":"365","weightTo34t":"397","terminal":"Zlin","objIndex":"449"},
{"city":"Nemojany","zipcode":"68303","weightTo27t":"260","weightTo34t":"284","terminal":"Zlin","objIndex":"450"},
{"city":"Nenkovice","zipcode":"69637","weightTo27t":"251","weightTo34t":"276","terminal":"Zlin","objIndex":"451"},
{"city":"Neslovice","zipcode":"66491","weightTo27t":"376","weightTo34t":"409","terminal":"Zlin","objIndex":"452"},
{"city":"Nesovice","zipcode":"68333","weightTo27t":"223","weightTo34t":"245","terminal":"Zlin","objIndex":"453"},
{"city":"Nesvacilka","zipcode":"66454","weightTo27t":"320","weightTo34t":"349","terminal":"Zlin","objIndex":"454"},
{"city":"Neubuz","zipcode":"76315","weightTo27t":"167","weightTo34t":"184","terminal":"Zlin","objIndex":"455"},
{"city":"Nihov","zipcode":"59455","weightTo27t":"428","weightTo34t":"466","terminal":"Zlin","objIndex":"456"},
{"city":"Niva","zipcode":"79861","weightTo27t":"291","weightTo34t":"318","terminal":"Zlin","objIndex":"457"},
{"city":"Nivnice","zipcode":"68751","weightTo27t":"216","weightTo34t":"237","terminal":"Zlin","objIndex":"458"},
{"city":"Nizkovice","zipcode":"68401","weightTo27t":"301","weightTo34t":"328","terminal":"Zlin","objIndex":"459"},
{"city":"Nizni Lhoty","zipcode":"73951","weightTo27t":"289","weightTo34t":"317","terminal":"Zlin","objIndex":"460"},
{"city":"Nosislav","zipcode":"69164","weightTo27t":"364","weightTo34t":"396","terminal":"Zlin","objIndex":"461"},
{"city":"Nosovice","zipcode":"73951","weightTo27t":"289","weightTo34t":"317","terminal":"Zlin","objIndex":"462"},
{"city":"Nova Lhota","zipcode":"69674","weightTo27t":"225","weightTo34t":"248","terminal":"Zlin","objIndex":"463"},
{"city":"Nova Ves","zipcode":"67521","weightTo27t":"472","weightTo34t":"515","terminal":"Zlin","objIndex":"464"},
{"city":"Nove Herminovy","zipcode":"79201","weightTo27t":"355","weightTo34t":"389","terminal":"Zlin","objIndex":"465"},
{"city":"Nove Syrovice","zipcode":"67541","weightTo27t":"530","weightTo34t":"578","terminal":"Zlin","objIndex":"466"},
{"city":"Novosedly","zipcode":"69182","weightTo27t":"425","weightTo34t":"463","terminal":"Zlin","objIndex":"467"},
{"city":"Novy Hrozenkov","zipcode":"75604","weightTo27t":"279","weightTo34t":"307","terminal":"Zlin","objIndex":"468"},
{"city":"Novy Jicin","zipcode":"74101","weightTo27t":"212","weightTo34t":"233","terminal":"Zlin","objIndex":"469"},
{"city":"Novy Malin","zipcode":"78803","weightTo27t":"395","weightTo34t":"432","terminal":"Zlin","objIndex":"470"},
{"city":"Novy Prerov","zipcode":"69181","weightTo27t":"436","weightTo34t":"475","terminal":"Zlin","objIndex":"471"},
{"city":"Nydek","zipcode":"73995","weightTo27t":"350","weightTo34t":"383","terminal":"Zlin","objIndex":"472"},
{"city":"Odry","zipcode":"74235","weightTo27t":"284","weightTo34t":"310","terminal":"Zlin","objIndex":"473"},
{"city":"Odunec","zipcode":"67555","weightTo27t":"462","weightTo34t":"504","terminal":"Zlin","objIndex":"474"},
{"city":"Ochoz u Tisnova","zipcode":"67923","weightTo27t":"402","weightTo34t":"439","terminal":"Zlin","objIndex":"475"},
{"city":"Okresice","zipcode":"67401","weightTo27t":"472","weightTo34t":"515","terminal":"Zlin","objIndex":"476"},
{"city":"Okrisky","zipcode":"67521","weightTo27t":"472","weightTo34t":"515","terminal":"Zlin","objIndex":"477"},
{"city":"Olbramovice","zipcode":"67176","weightTo27t":"413","weightTo34t":"450","terminal":"Zlin","objIndex":"478"},
{"city":"Oleksovice","zipcode":"67162","weightTo27t":"434","weightTo34t":"473","terminal":"Zlin","objIndex":"479"},
{"city":"Olesnice","zipcode":"67974","weightTo27t":"438","weightTo34t":"478","terminal":"Zlin","objIndex":"480"},
{"city":"Olomouc","zipcode":"77200","weightTo27t":"246","weightTo34t":"270","terminal":"Zlin","objIndex":"481"},
{"city":"Olomouc/Holice","zipcode":"78371","weightTo27t":"246","weightTo34t":"270","terminal":"Zlin","objIndex":"482"},
{"city":"Olomouc/Nedvezi","zipcode":"77900","weightTo27t":"246","weightTo34t":"270","terminal":"Zlin","objIndex":"483"},
{"city":"Olomouc/Slavonin","zipcode":"78301","weightTo27t":"246","weightTo34t":"270","terminal":"Zlin","objIndex":"484"},
{"city":"Olsany","zipcode":"78962","weightTo27t":"384","weightTo34t":"420","terminal":"Zlin","objIndex":"485"},
{"city":"Olsany","zipcode":"68301","weightTo27t":"288","weightTo34t":"314","terminal":"Zlin","objIndex":"486"},
{"city":"Olsany u Prostejova","zipcode":"79814","weightTo27t":"259","weightTo34t":"283","terminal":"Zlin","objIndex":"487"},
{"city":"Opatov","zipcode":"67528","weightTo27t":"493","weightTo34t":"538","terminal":"Zlin","objIndex":"488"},
{"city":"Opatovice","zipcode":"66461","weightTo27t":"353","weightTo34t":"384","terminal":"Zlin","objIndex":"489"},
{"city":"Opava","zipcode":"74601","weightTo27t":"376","weightTo34t":"410","terminal":"Zlin","objIndex":"490"},
{"city":"Opava/Komarov","zipcode":"74770","weightTo27t":"376","weightTo34t":"410","terminal":"Zlin","objIndex":"491"},
{"city":"Opava/Podvihov","zipcode":"74706","weightTo27t":"376","weightTo34t":"410","terminal":"Zlin","objIndex":"492"},
{"city":"Opava/Suche Lazce","zipcode":"74795","weightTo27t":"376","weightTo34t":"410","terminal":"Zlin","objIndex":"493"},
{"city":"Orechov","zipcode":"66444","weightTo27t":"350","weightTo34t":"381","terminal":"Zlin","objIndex":"494"},
{"city":"Orechov","zipcode":"68737","weightTo27t":"202","weightTo34t":"222","terminal":"Zlin","objIndex":"495"},
{"city":"Orlova","zipcode":"73511","weightTo27t":"335","weightTo34t":"367","terminal":"Zlin","objIndex":"496"},
{"city":"Osek nad Becvou","zipcode":"75122","weightTo27t":"218","weightTo34t":"239","terminal":"Zlin","objIndex":"497"},
{"city":"Osiky","zipcode":"67923","weightTo27t":"415","weightTo34t":"453","terminal":"Zlin","objIndex":"498"},
{"city":"Oskava","zipcode":"78801","weightTo27t":"311","weightTo34t":"341","terminal":"Zlin","objIndex":"499"},
{"city":"Oslavany","zipcode":"66412","weightTo27t":"387","weightTo34t":"421","terminal":"Zlin","objIndex":"500"},
{"city":"Osoblaha","zipcode":"79399","weightTo27t":"504","weightTo34t":"551","terminal":"Zlin","objIndex":"501"},
{"city":"Ostrata","zipcode":"76311","weightTo27t":"167","weightTo34t":"184","terminal":"Zlin","objIndex":"502"},
{"city":"Ostrava","zipcode":"70200","weightTo27t":"302","weightTo34t":"331","terminal":"Zlin","objIndex":"503"},
{"city":"Ostrava/Hermanice","zipcode":"71300","weightTo27t":"302","weightTo34t":"331","terminal":"Zlin","objIndex":"504"},
{"city":"Ostrava/Hrabova","zipcode":"72000","weightTo27t":"302","weightTo34t":"331","terminal":"Zlin","objIndex":"505"},
{"city":"Ostrava/Kuncice","zipcode":"71900","weightTo27t":"302","weightTo34t":"331","terminal":"Zlin","objIndex":"506"},
{"city":"Ostrava/Kuncicky","zipcode":"71800","weightTo27t":"302","weightTo34t":"331","terminal":"Zlin","objIndex":"507"},
{"city":"Ostrava/Polanka nad Odrou","zipcode":"72525","weightTo27t":"302","weightTo34t":"331","terminal":"Zlin","objIndex":"508"},
{"city":"Ostrava/Trebovice","zipcode":"72200","weightTo27t":"302","weightTo34t":"331","terminal":"Zlin","objIndex":"509"},
{"city":"Ostrava/Vitkovice","zipcode":"70300","weightTo27t":"302","weightTo34t":"331","terminal":"Zlin","objIndex":"510"},
{"city":"Ostravice","zipcode":"73914","weightTo27t":"297","weightTo34t":"326","terminal":"Zlin","objIndex":"511"},
{"city":"Ostrov u Macochy","zipcode":"67914","weightTo27t":"302","weightTo34t":"330","terminal":"Zlin","objIndex":"512"},
{"city":"Ostrovacice","zipcode":"66481","weightTo27t":"367","weightTo34t":"399","terminal":"Zlin","objIndex":"513"},
{"city":"Ostrozska Lhota","zipcode":"68723","weightTo27t":"201","weightTo34t":"221","terminal":"Zlin","objIndex":"514"},
{"city":"Ostrozska Nova Ves","zipcode":"68722","weightTo27t":"198","weightTo34t":"218","terminal":"Zlin","objIndex":"515"},
{"city":"Osvetimany","zipcode":"68742","weightTo27t":"218","weightTo34t":"240","terminal":"Zlin","objIndex":"516"},
{"city":"Otaslavice","zipcode":"79806","weightTo27t":"289","weightTo34t":"315","terminal":"Zlin","objIndex":"517"},
{"city":"Otice","zipcode":"74781","weightTo27t":"376","weightTo34t":"410","terminal":"Zlin","objIndex":"518"},
{"city":"Otmarov","zipcode":"66457","weightTo27t":"364","weightTo34t":"396","terminal":"Zlin","objIndex":"519"},
{"city":"Otrokovice","zipcode":"76502","weightTo27t":"182","weightTo34t":"200","terminal":"Zlin","objIndex":"520"},
{"city":"Otrokovice Barum export","zipcode":"76502","weightTo27t":"138","weightTo34t":"138","terminal":"Zlin","objIndex":"521"},
{"city":"Otrokovice/Kvitkovice","zipcode":"76502","weightTo27t":"182","weightTo34t":"200","terminal":"Zlin","objIndex":"522"},
{"city":"Palkovice","zipcode":"73941","weightTo27t":"265","weightTo34t":"291","terminal":"Zlin","objIndex":"523"},
{"city":"Pardubice","zipcode":"53002","weightTo27t":"563","weightTo34t":"615","terminal":"Zlin","objIndex":"524"},
{"city":"Paskov","zipcode":"73921","weightTo27t":"287","weightTo34t":"315","terminal":"Zlin","objIndex":"525"},
{"city":"Pasohlavky","zipcode":"69122","weightTo27t":"404","weightTo34t":"440","terminal":"Zlin","objIndex":"526"},
{"city":"Pavlovice u Prerova","zipcode":"75112","weightTo27t":"217","weightTo34t":"238","terminal":"Zlin","objIndex":"527"},
{"city":"Pelhrimov","zipcode":"39301","weightTo27t":"612","weightTo34t":"665","terminal":"Zlin","objIndex":"528"},
{"city":"Petrov","zipcode":"69665","weightTo27t":"217","weightTo34t":"239","terminal":"Zlin","objIndex":"529"},
{"city":"Petrov nad Desnou","zipcode":"78814","weightTo27t":"395","weightTo34t":"432","terminal":"Zlin","objIndex":"530"},
{"city":"Petrovice u Karvine","zipcode":"73572","weightTo27t":"368","weightTo34t":"404","terminal":"Zlin","objIndex":"531"},
{"city":"Petrvald","zipcode":"73541","weightTo27t":"324","weightTo34t":"355","terminal":"Zlin","objIndex":"532"},
{"city":"Petrvald","zipcode":"74260","weightTo27t":"246","weightTo34t":"270","terminal":"Zlin","objIndex":"533"},
{"city":"Pisecna","zipcode":"79082","weightTo27t":"501","weightTo34t":"548","terminal":"Zlin","objIndex":"534"},
{"city":"Pisek","zipcode":"73984","weightTo27t":"372","weightTo34t":"408","terminal":"Zlin","objIndex":"535"},
{"city":"Pist","zipcode":"74718","weightTo27t":"407","weightTo34t":"444","terminal":"Zlin","objIndex":"536"},
{"city":"Pitin","zipcode":"68771","weightTo27t":"190","weightTo34t":"209","terminal":"Zlin","objIndex":"537"},
{"city":"Plana nad Luznici","zipcode":"39111","weightTo27t":"727","weightTo34t":"790","terminal":"Zlin","objIndex":"538"},
{"city":"Plumlov","zipcode":"79803","weightTo27t":"312","weightTo34t":"340","terminal":"Zlin","objIndex":"539"},
{"city":"Podhradi nad Dyji","zipcode":"67106","weightTo27t":"541","weightTo34t":"590","terminal":"Zlin","objIndex":"540"},
{"city":"Podivin","zipcode":"69145","weightTo27t":"294","weightTo34t":"323","terminal":"Zlin","objIndex":"541"},
{"city":"Podoli","zipcode":"66403","weightTo27t":"313","weightTo34t":"341","terminal":"Zlin","objIndex":"542"},
{"city":"Podoli","zipcode":"75116","weightTo27t":"215","weightTo34t":"235","terminal":"Zlin","objIndex":"543"},
{"city":"Podoli","zipcode":"68604","weightTo27t":"199","weightTo34t":"219","terminal":"Zlin","objIndex":"544"},
{"city":"Podomi","zipcode":"68304","weightTo27t":"274","weightTo34t":"299","terminal":"Zlin","objIndex":"545"},
{"city":"Pohorelice","zipcode":"69123","weightTo27t":"391","weightTo34t":"425","terminal":"Zlin","objIndex":"546"},
{"city":"Polesovice","zipcode":"68737","weightTo27t":"201","weightTo34t":"221","terminal":"Zlin","objIndex":"547"},
{"city":"Ponetovice","zipcode":"66451","weightTo27t":"299","weightTo34t":"326","terminal":"Zlin","objIndex":"548"},
{"city":"Popovice","zipcode":"68604","weightTo27t":"202","weightTo34t":"222","terminal":"Zlin","objIndex":"549"},
{"city":"Popuvky","zipcode":"66441","weightTo27t":"351","weightTo34t":"382","terminal":"Zlin","objIndex":"550"},
{"city":"Popuvky","zipcode":"67575","weightTo27t":"430","weightTo34t":"469","terminal":"Zlin","objIndex":"551"},
{"city":"Postrelmov","zipcode":"78969","weightTo27t":"362","weightTo34t":"395","terminal":"Zlin","objIndex":"552"},
{"city":"Potstat","zipcode":"75362","weightTo27t":"273","weightTo34t":"298","terminal":"Zlin","objIndex":"553"},
{"city":"Pozorice","zipcode":"66407","weightTo27t":"290","weightTo34t":"316","terminal":"Zlin","objIndex":"554"},
{"city":"Praha","zipcode":"1xxxx","weightTo27t":"807","weightTo34t":"875","terminal":"Zlin","objIndex":"555"},
{"city":"Praksice","zipcode":"68756","weightTo27t":"190","weightTo34t":"209","terminal":"Zlin","objIndex":"556"},
{"city":"Praslavice","zipcode":"78354","weightTo27t":"246","weightTo34t":"270","terminal":"Zlin","objIndex":"557"},
{"city":"Prazmo","zipcode":"73904","weightTo27t":"299","weightTo34t":"328","terminal":"Zlin","objIndex":"558"},
{"city":"Predklasteri","zipcode":"66602","weightTo27t":"380","weightTo34t":"414","terminal":"Zlin","objIndex":"559"},
{"city":"Premyslovice","zipcode":"79851","weightTo27t":"334","weightTo34t":"364","terminal":"Zlin","objIndex":"560"},
{"city":"Prerov","zipcode":"75002","weightTo27t":"212","weightTo34t":"232","terminal":"Zlin","objIndex":"561"},
{"city":"Prestanov","zipcode":"40317","weightTo27t":"1036","weightTo34t":"1124","terminal":"Zlin","objIndex":"562"},
{"city":"Pribor","zipcode":"74258","weightTo27t":"238","weightTo34t":"262","terminal":"Zlin","objIndex":"563"},
{"city":"Pribyslavice","zipcode":"67521","weightTo27t":"472","weightTo34t":"515","terminal":"Zlin","objIndex":"564"},
{"city":"Prikazy","zipcode":"78333","weightTo27t":"212","weightTo34t":"233","terminal":"Zlin","objIndex":"565"},
{"city":"Prisnotice","zipcode":"66463","weightTo27t":"390","weightTo34t":"424","terminal":"Zlin","objIndex":"566"},
{"city":"Pritluky","zipcode":"69104","weightTo27t":"305","weightTo34t":"335","terminal":"Zlin","objIndex":"567"},
{"city":"Prlov","zipcode":"75611","weightTo27t":"167","weightTo34t":"184","terminal":"Zlin","objIndex":"568"},
{"city":"Prosenice","zipcode":"75121","weightTo27t":"216","weightTo34t":"236","terminal":"Zlin","objIndex":"569"},
{"city":"Prosimerice","zipcode":"67161","weightTo27t":"455","weightTo34t":"496","terminal":"Zlin","objIndex":"570"},
{"city":"Prostejov","zipcode":"79601","weightTo27t":"302","weightTo34t":"329","terminal":"Zlin","objIndex":"571"},
{"city":"Protivanov","zipcode":"79848","weightTo27t":"344","weightTo34t":"375","terminal":"Zlin","objIndex":"572"},
{"city":"Prusanky","zipcode":"69621","weightTo27t":"259","weightTo34t":"285","terminal":"Zlin","objIndex":"573"},
{"city":"Przno","zipcode":"73911","weightTo27t":"287","weightTo34t":"315","terminal":"Zlin","objIndex":"574"},
{"city":"Pteni","zipcode":"79843","weightTo27t":"322","weightTo34t":"351","terminal":"Zlin","objIndex":"575"},
{"city":"Pustimer","zipcode":"68321","weightTo27t":"268","weightTo34t":"292","terminal":"Zlin","objIndex":"576"},
{"city":"Racice Pistovice","zipcode":"68305","weightTo27t":"265","weightTo34t":"289","terminal":"Zlin","objIndex":"577"},
{"city":"Radejov","zipcode":"69667","weightTo27t":"217","weightTo34t":"239","terminal":"Zlin","objIndex":"578"},
{"city":"Radonin","zipcode":"67521","weightTo27t":"483","weightTo34t":"527","terminal":"Zlin","objIndex":"579"},
{"city":"Radosov","zipcode":"67507","weightTo27t":"505","weightTo34t":"549","terminal":"Zlin","objIndex":"580"},
{"city":"Radslavice","zipcode":"75111","weightTo27t":"215","weightTo34t":"235","terminal":"Zlin","objIndex":"581"},
{"city":"Radvanice","zipcode":"75121","weightTo27t":"224","weightTo34t":"245","terminal":"Zlin","objIndex":"582"},
{"city":"Rajec Jestrebi","zipcode":"67902","weightTo27t":"323","weightTo34t":"353","terminal":"Zlin","objIndex":"583"},
{"city":"Rajecko","zipcode":"67902","weightTo27t":"323","weightTo34t":"353","terminal":"Zlin","objIndex":"584"},
{"city":"Rajhrad","zipcode":"66461","weightTo27t":"340","weightTo34t":"370","terminal":"Zlin","objIndex":"585"},
{"city":"Rajhradice","zipcode":"66461","weightTo27t":"340","weightTo34t":"370","terminal":"Zlin","objIndex":"586"},
{"city":"Rajnochovice","zipcode":"76871","weightTo27t":"212","weightTo34t":"233","terminal":"Zlin","objIndex":"587"},
{"city":"Rakvice","zipcode":"69103","weightTo27t":"305","weightTo34t":"335","terminal":"Zlin","objIndex":"588"},
{"city":"Rapotice","zipcode":"67573","weightTo27t":"387","weightTo34t":"421","terminal":"Zlin","objIndex":"589"},
{"city":"Rapotin","zipcode":"78814","weightTo27t":"395","weightTo34t":"432","terminal":"Zlin","objIndex":"590"},
{"city":"Raskovice","zipcode":"73907","weightTo27t":"299","weightTo34t":"328","terminal":"Zlin","objIndex":"591"},
{"city":"Rasov","zipcode":"67923","weightTo27t":"393","weightTo34t":"429","terminal":"Zlin","objIndex":"592"},
{"city":"Ratibor","zipcode":"75621","weightTo27t":"190","weightTo34t":"209","terminal":"Zlin","objIndex":"593"},
{"city":"Ratiskovice","zipcode":"69602","weightTo27t":"235","weightTo34t":"259","terminal":"Zlin","objIndex":"594"},
{"city":"Razova","zipcode":"79201","weightTo27t":"344","weightTo34t":"377","terminal":"Zlin","objIndex":"595"},
{"city":"Rebesovice","zipcode":"66461","weightTo27t":"328","weightTo34t":"357","terminal":"Zlin","objIndex":"596"},
{"city":"Ricany","zipcode":"66482","weightTo27t":"367","weightTo34t":"399","terminal":"Zlin","objIndex":"597"},
{"city":"Ricky","zipcode":"66483","weightTo27t":"378","weightTo34t":"411","terminal":"Zlin","objIndex":"598"},
{"city":"Rimov","zipcode":"67522","weightTo27t":"483","weightTo34t":"527","terminal":"Zlin","objIndex":"599"},
{"city":"Rohatec","zipcode":"69601","weightTo27t":"225","weightTo34t":"248","terminal":"Zlin","objIndex":"600"},
{"city":"Rohle","zipcode":"78974","weightTo27t":"373","weightTo34t":"407","terminal":"Zlin","objIndex":"601"},
{"city":"Rohozec","zipcode":"67923","weightTo27t":"392","weightTo34t":"428","terminal":"Zlin","objIndex":"602"},
{"city":"Rokytnice","zipcode":"76321","weightTo27t":"190","weightTo34t":"209","terminal":"Zlin","objIndex":"603"},
{"city":"Rokytnice nad Rokytnou","zipcode":"67525","weightTo27t":"483","weightTo34t":"527","terminal":"Zlin","objIndex":"604"},
{"city":"Rosice","zipcode":"66501","weightTo27t":"365","weightTo34t":"397","terminal":"Zlin","objIndex":"605"},
{"city":"Rostenice Zvonovice","zipcode":"68201","weightTo27t":"260","weightTo34t":"284","terminal":"Zlin","objIndex":"606"},
{"city":"Rouchovany","zipcode":"67557","weightTo27t":"451","weightTo34t":"492","terminal":"Zlin","objIndex":"607"},
{"city":"Rousinov","zipcode":"68301","weightTo27t":"271","weightTo34t":"295","terminal":"Zlin","objIndex":"608"},
{"city":"Rovensko","zipcode":"78901","weightTo27t":"362","weightTo34t":"395","terminal":"Zlin","objIndex":"609"},
{"city":"Roznov pod Radhostem","zipcode":"75661","weightTo27t":"206","weightTo34t":"227","terminal":"Zlin","objIndex":"610"},
{"city":"Rozsicka","zipcode":"67974","weightTo27t":"438","weightTo34t":"478","terminal":"Zlin","objIndex":"611"},
{"city":"Ruda nad Moravou","zipcode":"78963","weightTo27t":"395","weightTo34t":"432","terminal":"Zlin","objIndex":"612"},
{"city":"Rudice","zipcode":"68732","weightTo27t":"198","weightTo34t":"218","terminal":"Zlin","objIndex":"613"},
{"city":"Ruzdka","zipcode":"75625","weightTo27t":"198","weightTo34t":"218","terminal":"Zlin","objIndex":"614"},
{"city":"Rychnov nad Kneznou","zipcode":"51601","weightTo27t":"520","weightTo34t":"568","terminal":"Zlin","objIndex":"615"},
{"city":"Rychvald","zipcode":"73532","weightTo27t":"335","weightTo34t":"367","terminal":"Zlin","objIndex":"616"},
{"city":"Rymarov","zipcode":"79501","weightTo27t":"322","weightTo34t":"353","terminal":"Zlin","objIndex":"617"},
{"city":"Ryzoviste","zipcode":"79356","weightTo27t":"311","weightTo34t":"341","terminal":"Zlin","objIndex":"618"},
{"city":"Sakvice","zipcode":"69167","weightTo27t":"403","weightTo34t":"439","terminal":"Zlin","objIndex":"619"},
{"city":"Saratice","zipcode":"68352","weightTo27t":"311","weightTo34t":"339","terminal":"Zlin","objIndex":"620"},
{"city":"Sardice","zipcode":"69613","weightTo27t":"251","weightTo34t":"276","terminal":"Zlin","objIndex":"621"},
{"city":"Sebetov","zipcode":"67935","weightTo27t":"438","weightTo34t":"478","terminal":"Zlin","objIndex":"622"},
{"city":"Sebkovice","zipcode":"67545","weightTo27t":"483","weightTo34t":"527","terminal":"Zlin","objIndex":"623"},
{"city":"Sebranice","zipcode":"67931","weightTo27t":"407","weightTo34t":"444","terminal":"Zlin","objIndex":"624"},
{"city":"Sebranice","zipcode":"56962","weightTo27t":"471","weightTo34t":"514","terminal":"Zlin","objIndex":"625"},
{"city":"Sebrov Katerina","zipcode":"67922","weightTo27t":"370","weightTo34t":"403","terminal":"Zlin","objIndex":"626"},
{"city":"Sedliste","zipcode":"73936","weightTo27t":"276","weightTo34t":"303","terminal":"Zlin","objIndex":"627"},
{"city":"Sedlnice","zipcode":"74256","weightTo27t":"237","weightTo34t":"261","terminal":"Zlin","objIndex":"628"},
{"city":"Senetarov","zipcode":"67906","weightTo27t":"282","weightTo34t":"308","terminal":"Zlin","objIndex":"629"},
{"city":"Senice na Hane","zipcode":"78345","weightTo27t":"280","weightTo34t":"306","terminal":"Zlin","objIndex":"630"},
{"city":"Senov","zipcode":"73934","weightTo27t":"324","weightTo34t":"355","terminal":"Zlin","objIndex":"631"},
{"city":"Senov u Noveho Jicina","zipcode":"74242","weightTo27t":"217","weightTo34t":"239","terminal":"Zlin","objIndex":"632"},
{"city":"Siluvky","zipcode":"66446","weightTo27t":"350","weightTo34t":"381","terminal":"Zlin","objIndex":"633"},
{"city":"Sitborice","zipcode":"69176","weightTo27t":"408","weightTo34t":"445","terminal":"Zlin","objIndex":"634"},
{"city":"Sivice","zipcode":"66407","weightTo27t":"290","weightTo34t":"316","terminal":"Zlin","objIndex":"635"},
{"city":"Skalice nad Svitavou","zipcode":"67901","weightTo27t":"406","weightTo34t":"443","terminal":"Zlin","objIndex":"636"},
{"city":"Skastice","zipcode":"76701","weightTo27t":"201","weightTo34t":"221","terminal":"Zlin","objIndex":"637"},
{"city":"Skorosice","zipcode":"79066","weightTo27t":"533","weightTo34t":"583","terminal":"Zlin","objIndex":"638"},
{"city":"Skotnice","zipcode":"74259","weightTo27t":"238","weightTo34t":"262","terminal":"Zlin","objIndex":"639"},
{"city":"Skrben","zipcode":"78335","weightTo27t":"268","weightTo34t":"293","terminal":"Zlin","objIndex":"640"},
{"city":"Skrchov","zipcode":"67961","weightTo27t":"429","weightTo34t":"468","terminal":"Zlin","objIndex":"641"},
{"city":"Slapanice","zipcode":"66451","weightTo27t":"299","weightTo34t":"326","terminal":"Zlin","objIndex":"642"},
{"city":"Slatinice","zipcode":"78342","weightTo27t":"258","weightTo34t":"282","terminal":"Zlin","objIndex":"643"},
{"city":"Slavicin","zipcode":"76321","weightTo27t":"184","weightTo34t":"202","terminal":"Zlin","objIndex":"644"},
{"city":"Slavkov","zipcode":"74757","weightTo27t":"376","weightTo34t":"410","terminal":"Zlin","objIndex":"645"},
{"city":"Slavkov","zipcode":"68764","weightTo27t":"206","weightTo34t":"227","terminal":"Zlin","objIndex":"646"},
{"city":"Slavkov u Brna","zipcode":"68401","weightTo27t":"280","weightTo34t":"305","terminal":"Zlin","objIndex":"647"},
{"city":"Slusovice","zipcode":"76315","weightTo27t":"167","weightTo34t":"184","terminal":"Zlin","objIndex":"648"},
{"city":"Smirice","zipcode":"50303","weightTo27t":"632","weightTo34t":"689","terminal":"Zlin","objIndex":"649"},
{"city":"Smrzice","zipcode":"79817","weightTo27t":"313","weightTo34t":"341","terminal":"Zlin","objIndex":"650"},
{"city":"Sobesovice","zipcode":"73938","weightTo27t":"313","weightTo34t":"343","terminal":"Zlin","objIndex":"651"},
{"city":"Sobotin","zipcode":"78816","weightTo27t":"405","weightTo34t":"443","terminal":"Zlin","objIndex":"652"},
{"city":"Sobotovice","zipcode":"66467","weightTo27t":"351","weightTo34t":"382","terminal":"Zlin","objIndex":"653"},
{"city":"Sokolnice","zipcode":"66452","weightTo27t":"310","weightTo34t":"338","terminal":"Zlin","objIndex":"654"},
{"city":"Spytihnev","zipcode":"76364","weightTo27t":"184","weightTo34t":"202","terminal":"Zlin","objIndex":"655"},
{"city":"Stara Ves nad Ondrejnici","zipcode":"73923","weightTo27t":"256","weightTo34t":"281","terminal":"Zlin","objIndex":"656"},
{"city":"Stare Mesto","zipcode":"79201","weightTo27t":"344","weightTo34t":"377","terminal":"Zlin","objIndex":"657"},
{"city":"Stare Mesto","zipcode":"73801","weightTo27t":"276","weightTo34t":"303","terminal":"Zlin","objIndex":"658"},
{"city":"Stare Mesto","zipcode":"78832","weightTo27t":"448","weightTo34t":"490","terminal":"Zlin","objIndex":"659"},
{"city":"Stare Mesto","zipcode":"68603","weightTo27t":"190","weightTo34t":"209","terminal":"Zlin","objIndex":"660"},
{"city":"Starec","zipcode":"67522","weightTo27t":"462","weightTo34t":"504","terminal":"Zlin","objIndex":"661"},
{"city":"Staric","zipcode":"73943","weightTo27t":"257","weightTo34t":"282","terminal":"Zlin","objIndex":"662"},
{"city":"Starovice","zipcode":"69301","weightTo27t":"392","weightTo34t":"426","terminal":"Zlin","objIndex":"663"},
{"city":"Starovicky","zipcode":"69301","weightTo27t":"316","weightTo34t":"347","terminal":"Zlin","objIndex":"664"},
{"city":"Stary Jicin","zipcode":"74231","weightTo27t":"218","weightTo34t":"240","terminal":"Zlin","objIndex":"665"},
{"city":"Stary Petrin","zipcode":"67106","weightTo27t":"530","weightTo34t":"578","terminal":"Zlin","objIndex":"666"},
{"city":"Stavesice","zipcode":"69638","weightTo27t":"242","weightTo34t":"266","terminal":"Zlin","objIndex":"667"},
{"city":"Stepankovice","zipcode":"74728","weightTo27t":"419","weightTo34t":"457","terminal":"Zlin","objIndex":"668"},
{"city":"Stepanov","zipcode":"78313","weightTo27t":"262","weightTo34t":"287","terminal":"Zlin","objIndex":"669"},
{"city":"Sternberk","zipcode":"78501","weightTo27t":"262","weightTo34t":"287","terminal":"Zlin","objIndex":"670"},
{"city":"Stitina","zipcode":"74791","weightTo27t":"398","weightTo34t":"434","terminal":"Zlin","objIndex":"671"},
{"city":"Stitna nad Vlari Popov","zipcode":"76333","weightTo27t":"190","weightTo34t":"209","terminal":"Zlin","objIndex":"672"},
{"city":"Stity","zipcode":"78991","weightTo27t":"395","weightTo34t":"432","terminal":"Zlin","objIndex":"673"},
{"city":"Stosikovice na Louce","zipcode":"67161","weightTo27t":"455","weightTo34t":"496","terminal":"Zlin","objIndex":"674"},
{"city":"Strachotin","zipcode":"69301","weightTo27t":"427","weightTo34t":"465","terminal":"Zlin","objIndex":"675"},
{"city":"Stramberk","zipcode":"74266","weightTo27t":"226","weightTo34t":"249","terminal":"Zlin","objIndex":"676"},
{"city":"Strani","zipcode":"68765","weightTo27t":"217","weightTo34t":"239","terminal":"Zlin","objIndex":"677"},
{"city":"Straznice","zipcode":"69662","weightTo27t":"212","weightTo34t":"233","terminal":"Zlin","objIndex":"678"},
{"city":"Strelice","zipcode":"66447","weightTo27t":"351","weightTo34t":"382","terminal":"Zlin","objIndex":"679"},
{"city":"Strelna","zipcode":"75612","weightTo27t":"195","weightTo34t":"215","terminal":"Zlin","objIndex":"680"},
{"city":"Stribrnice","zipcode":"68709","weightTo27t":"202","weightTo34t":"222","terminal":"Zlin","objIndex":"681"},
{"city":"Strilky","zipcode":"76804","weightTo27t":"210","weightTo34t":"231","terminal":"Zlin","objIndex":"682"},
{"city":"Stritez","zipcode":"58811","weightTo27t":"535","weightTo34t":"581","terminal":"Zlin","objIndex":"683"},
{"city":"Stritez","zipcode":"67401","weightTo27t":"462","weightTo34t":"504","terminal":"Zlin","objIndex":"684"},
{"city":"Stritez nad Ludinou","zipcode":"75363","weightTo27t":"264","weightTo34t":"288","terminal":"Zlin","objIndex":"685"},
{"city":"Studenec","zipcode":"67502","weightTo27t":"430","weightTo34t":"469","terminal":"Zlin","objIndex":"686"},
{"city":"Studenka","zipcode":"74213","weightTo27t":"324","weightTo34t":"353","terminal":"Zlin","objIndex":"687"},
{"city":"Stupava","zipcode":"68601","weightTo27t":"221","weightTo34t":"243","terminal":"Zlin","objIndex":"688"},
{"city":"Subirov","zipcode":"79852","weightTo27t":"305","weightTo34t":"334","terminal":"Zlin","objIndex":"689"},
{"city":"Sudkov","zipcode":"78821","weightTo27t":"373","weightTo34t":"407","terminal":"Zlin","objIndex":"690"},
{"city":"Sudomerice","zipcode":"69666","weightTo27t":"217","weightTo34t":"239","terminal":"Zlin","objIndex":"691"},
{"city":"Suchdol nad Odrou","zipcode":"74201","weightTo27t":"296","weightTo34t":"323","terminal":"Zlin","objIndex":"692"},
{"city":"Suchohrdly","zipcode":"66902","weightTo27t":"466","weightTo34t":"508","terminal":"Zlin","objIndex":"693"},
{"city":"Suchy","zipcode":"68001","weightTo27t":"366","weightTo34t":"399","terminal":"Zlin","objIndex":"694"},
{"city":"Sumna","zipcode":"67102","weightTo27t":"519","weightTo34t":"566","terminal":"Zlin","objIndex":"695"},
{"city":"Sumperk","zipcode":"78701","weightTo27t":"384","weightTo34t":"420","terminal":"Zlin","objIndex":"696"},
{"city":"Sumvald","zipcode":"78385","weightTo27t":"300","weightTo34t":"329","terminal":"Zlin","objIndex":"697"},
{"city":"Supikovice","zipcode":"79051","weightTo27t":"501","weightTo34t":"548","terminal":"Zlin","objIndex":"698"},
{"city":"Svarov","zipcode":"68712","weightTo27t":"184","weightTo34t":"202","terminal":"Zlin","objIndex":"699"},
{"city":"Svatoborice Mistrin","zipcode":"69604","weightTo27t":"235","weightTo34t":"259","terminal":"Zlin","objIndex":"700"},
{"city":"Svatonovice","zipcode":"74787","weightTo27t":"365","weightTo34t":"398","terminal":"Zlin","objIndex":"701"},
{"city":"Svatoslav","zipcode":"66601","weightTo27t":"405","weightTo34t":"441","terminal":"Zlin","objIndex":"702"},
{"city":"Svatoslav","zipcode":"67507","weightTo27t":"478","weightTo34t":"520","terminal":"Zlin","objIndex":"703"},
{"city":"Svesedlice","zipcode":"78354","weightTo27t":"228","weightTo34t":"250","terminal":"Zlin","objIndex":"704"},
{"city":"Sviadnov","zipcode":"73925","weightTo27t":"277","weightTo34t":"304","terminal":"Zlin","objIndex":"705"},
{"city":"Svitavka","zipcode":"67932","weightTo27t":"407","weightTo34t":"444","terminal":"Zlin","objIndex":"706"},
{"city":"Svitavy","zipcode":"56802","weightTo27t":"414","weightTo34t":"452","terminal":"Zlin","objIndex":"707"},
{"city":"Svobodne Hermanice","zipcode":"79313","weightTo27t":"366","weightTo34t":"402","terminal":"Zlin","objIndex":"708"},
{"city":"Syrovice","zipcode":"66467","weightTo27t":"351","weightTo34t":"382","terminal":"Zlin","objIndex":"709"},
{"city":"Syrovin","zipcode":"69684","weightTo27t":"205","weightTo34t":"225","terminal":"Zlin","objIndex":"710"},
{"city":"Tabor","zipcode":"39001","weightTo27t":"714","weightTo34t":"776","terminal":"Zlin","objIndex":"711"},
{"city":"Tasov","zipcode":"67579","weightTo27t":"432","weightTo34t":"470","terminal":"Zlin","objIndex":"712"},
{"city":"Tasovice","zipcode":"67125","weightTo27t":"455","weightTo34t":"496","terminal":"Zlin","objIndex":"713"},
{"city":"Tavikovice","zipcode":"67140","weightTo27t":"466","weightTo34t":"508","terminal":"Zlin","objIndex":"714"},
{"city":"Tecovice","zipcode":"76302","weightTo27t":"191","weightTo34t":"210","terminal":"Zlin","objIndex":"715"},
{"city":"Telnice","zipcode":"66459","weightTo27t":"324","weightTo34t":"353","terminal":"Zlin","objIndex":"716"},
{"city":"Terlicko","zipcode":"73542","weightTo27t":"324","weightTo34t":"355","terminal":"Zlin","objIndex":"717"},
{"city":"Tesany","zipcode":"66454","weightTo27t":"364","weightTo34t":"396","terminal":"Zlin","objIndex":"718"},
{"city":"Tesetice","zipcode":"67161","weightTo27t":"455","weightTo34t":"496","terminal":"Zlin","objIndex":"719"},
{"city":"Tetcice","zipcode":"66417","weightTo27t":"365","weightTo34t":"397","terminal":"Zlin","objIndex":"720"},
{"city":"Ticha","zipcode":"74274","weightTo27t":"225","weightTo34t":"248","terminal":"Zlin","objIndex":"721"},
{"city":"Tisnov","zipcode":"66601","weightTo27t":"369","weightTo34t":"402","terminal":"Zlin","objIndex":"722"},
{"city":"Tisnovska Nova Ves","zipcode":"59451","weightTo27t":"402","weightTo34t":"439","terminal":"Zlin","objIndex":"723"},
{"city":"Tlumacov","zipcode":"76362","weightTo27t":"183","weightTo34t":"201","terminal":"Zlin","objIndex":"724"},
{"city":"Topolna","zipcode":"68711","weightTo27t":"184","weightTo34t":"202","terminal":"Zlin","objIndex":"725"},
{"city":"Tovacov","zipcode":"75101","weightTo27t":"225","weightTo34t":"246","terminal":"Zlin","objIndex":"726"},
{"city":"Tover","zipcode":"78316","weightTo27t":"246","weightTo34t":"270","terminal":"Zlin","objIndex":"727"},
{"city":"Tranovice","zipcode":"73953","weightTo27t":"302","weightTo34t":"331","terminal":"Zlin","objIndex":"728"},
{"city":"Trebic","zipcode":"67401","weightTo27t":"451","weightTo34t":"492","terminal":"Zlin","objIndex":"729"},
{"city":"Trinec","zipcode":"73961","weightTo27t":"337","weightTo34t":"369","terminal":"Zlin","objIndex":"730"},
{"city":"Trojanovice","zipcode":"74401","weightTo27t":"217","weightTo34t":"239","terminal":"Zlin","objIndex":"731"},
{"city":"Troskotovice","zipcode":"67178","weightTo27t":"423","weightTo34t":"461","terminal":"Zlin","objIndex":"732"},
{"city":"Troubelice","zipcode":"78383","weightTo27t":"323","weightTo34t":"353","terminal":"Zlin","objIndex":"733"},
{"city":"Troubky","zipcode":"75102","weightTo27t":"214","weightTo34t":"234","terminal":"Zlin","objIndex":"734"},
{"city":"Troubsko","zipcode":"66441","weightTo27t":"351","weightTo34t":"382","terminal":"Zlin","objIndex":"735"},
{"city":"Tulesice","zipcode":"67173","weightTo27t":"419","weightTo34t":"457","terminal":"Zlin","objIndex":"736"},
{"city":"Tupesy","zipcode":"68707","weightTo27t":"198","weightTo34t":"218","terminal":"Zlin","objIndex":"737"},
{"city":"Tvarozna","zipcode":"66405","weightTo27t":"290","weightTo34t":"316","terminal":"Zlin","objIndex":"738"},
{"city":"Tvrdonice","zipcode":"69153","weightTo27t":"268","weightTo34t":"295","terminal":"Zlin","objIndex":"739"},
{"city":"Tynec","zipcode":"69154","weightTo27t":"259","weightTo34t":"285","terminal":"Zlin","objIndex":"740"},
{"city":"Uhercice","zipcode":"67107","weightTo27t":"551","weightTo34t":"601","terminal":"Zlin","objIndex":"741"},
{"city":"Uherske Hradiste","zipcode":"68601","weightTo27t":"195","weightTo34t":"215","terminal":"Zlin","objIndex":"742"},
{"city":"Uhersky Brod","zipcode":"68801","weightTo27t":"195","weightTo34t":"215","terminal":"Zlin","objIndex":"743"},
{"city":"Uhersky Ostroh","zipcode":"68724","weightTo27t":"201","weightTo34t":"221","terminal":"Zlin","objIndex":"744"},
{"city":"Uhrice","zipcode":"67963","weightTo27t":"338","weightTo34t":"370","terminal":"Zlin","objIndex":"745"},
{"city":"Uhrice","zipcode":"76833","weightTo27t":"222","weightTo34t":"243","terminal":"Zlin","objIndex":"746"},
{"city":"Ujcov","zipcode":"59262","weightTo27t":"460","weightTo34t":"502","terminal":"Zlin","objIndex":"747"},
{"city":"Ujezd","zipcode":"76325","weightTo27t":"167","weightTo34t":"184","terminal":"Zlin","objIndex":"748"},
{"city":"Ujezd","zipcode":"67140","weightTo27t":"476","weightTo34t":"519","terminal":"Zlin","objIndex":"749"},
{"city":"Ujezd u Brna","zipcode":"66453","weightTo27t":"310","weightTo34t":"338","terminal":"Zlin","objIndex":"750"},
{"city":"Ujezd u Cerne Hory","zipcode":"67922","weightTo27t":"370","weightTo34t":"403","terminal":"Zlin","objIndex":"751"},
{"city":"Ujezd u Rosic","zipcode":"66484","weightTo27t":"387","weightTo34t":"421","terminal":"Zlin","objIndex":"752"},
{"city":"Unicov","zipcode":"78391","weightTo27t":"290","weightTo34t":"318","terminal":"Zlin","objIndex":"753"},
{"city":"Unin","zipcode":"67924","weightTo27t":"381","weightTo34t":"415","terminal":"Zlin","objIndex":"754"},
{"city":"Usobrno","zipcode":"67939","weightTo27t":"327","weightTo34t":"358","terminal":"Zlin","objIndex":"755"},
{"city":"Usov","zipcode":"78973","weightTo27t":"323","weightTo34t":"353","terminal":"Zlin","objIndex":"756"},
{"city":"Usti","zipcode":"75501","weightTo27t":"184","weightTo34t":"202","terminal":"Zlin","objIndex":"757"},
{"city":"Usti nad Labem","zipcode":"40001","weightTo27t":"1025","weightTo34t":"1112","terminal":"Zlin","objIndex":"758"},
{"city":"Usti nad Orlici","zipcode":"56201","weightTo27t":"466","weightTo34t":"509","terminal":"Zlin","objIndex":"759"},
{"city":"Uvalno","zipcode":"79391","weightTo27t":"408","weightTo34t":"446","terminal":"Zlin","objIndex":"760"},
{"city":"Vacenovice","zipcode":"69606","weightTo27t":"225","weightTo34t":"248","terminal":"Zlin","objIndex":"761"},
{"city":"Vaclavovice","zipcode":"73934","weightTo27t":"287","weightTo34t":"315","terminal":"Zlin","objIndex":"762"},
{"city":"Valasska Bystrice","zipcode":"75627","weightTo27t":"204","weightTo34t":"224","terminal":"Zlin","objIndex":"763"},
{"city":"Valasska Polanka","zipcode":"75611","weightTo27t":"182","weightTo34t":"200","terminal":"Zlin","objIndex":"764"},
{"city":"Valasske Klobouky","zipcode":"76601","weightTo27t":"195","weightTo34t":"215","terminal":"Zlin","objIndex":"765"},
{"city":"Valasske Mezirici","zipcode":"75701","weightTo27t":"201","weightTo34t":"221","terminal":"Zlin","objIndex":"766"},
{"city":"Valasske Mezirici/Krasno nad Becvou","zipcode":"75706","weightTo27t":"201","weightTo34t":"221","terminal":"Zlin","objIndex":"767"},
{"city":"Valsov","zipcode":"79201","weightTo27t":"322","weightTo34t":"353","terminal":"Zlin","objIndex":"768"},
{"city":"Valtice","zipcode":"69142","weightTo27t":"300","weightTo34t":"330","terminal":"Zlin","objIndex":"769"},
{"city":"Vanovice","zipcode":"67936","weightTo27t":"439","weightTo34t":"479","terminal":"Zlin","objIndex":"770"},
{"city":"Vapenice","zipcode":"68774","weightTo27t":"202","weightTo34t":"222","terminal":"Zlin","objIndex":"771"},
{"city":"Vapenna","zipcode":"79064","weightTo27t":"533","weightTo34t":"583","terminal":"Zlin","objIndex":"772"},
{"city":"Vazany nad Litavou","zipcode":"68401","weightTo27t":"301","weightTo34t":"328","terminal":"Zlin","objIndex":"773"},
{"city":"Velenov","zipcode":"68001","weightTo27t":"334","weightTo34t":"365","terminal":"Zlin","objIndex":"774"},
{"city":"Veletiny","zipcode":"68733","weightTo27t":"203","weightTo34t":"223","terminal":"Zlin","objIndex":"775"},
{"city":"Velka Bites","zipcode":"59501","weightTo27t":"407","weightTo34t":"443","terminal":"Zlin","objIndex":"776"},
{"city":"Velka Bystrice","zipcode":"78353","weightTo27t":"236","weightTo34t":"259","terminal":"Zlin","objIndex":"777"},
{"city":"Velka Kras","zipcode":"79058","weightTo27t":"523","weightTo34t":"572","terminal":"Zlin","objIndex":"778"},
{"city":"Velka nad Velickou","zipcode":"69674","weightTo27t":"212","weightTo34t":"233","terminal":"Zlin","objIndex":"779"},
{"city":"Velka Polom","zipcode":"74764","weightTo27t":"385","weightTo34t":"419","terminal":"Zlin","objIndex":"780"},
{"city":"Velka Stahle","zipcode":"79351","weightTo27t":"322","weightTo34t":"353","terminal":"Zlin","objIndex":"781"},
{"city":"Velke Albrechtice","zipcode":"74291","weightTo27t":"335","weightTo34t":"365","terminal":"Zlin","objIndex":"782"},
{"city":"Velke Bilovice","zipcode":"69102","weightTo27t":"268","weightTo34t":"295","terminal":"Zlin","objIndex":"783"},
{"city":"Velke Hostice","zipcode":"74731","weightTo27t":"387","weightTo34t":"423","terminal":"Zlin","objIndex":"784"},
{"city":"Velke Karlovice","zipcode":"75606","weightTo27t":"268","weightTo34t":"295","terminal":"Zlin","objIndex":"785"},
{"city":"Velke Losiny","zipcode":"78815","weightTo27t":"405","weightTo34t":"443","terminal":"Zlin","objIndex":"786"},
{"city":"Velke Mezirici","zipcode":"59401","weightTo27t":"446","weightTo34t":"485","terminal":"Zlin","objIndex":"787"},
{"city":"Velke Nemcice","zipcode":"69163","weightTo27t":"403","weightTo34t":"439","terminal":"Zlin","objIndex":"788"},
{"city":"Velke Opatovice","zipcode":"67963","weightTo27t":"450","weightTo34t":"491","terminal":"Zlin","objIndex":"789"},
{"city":"Velke Pavlovice","zipcode":"69106","weightTo27t":"316","weightTo34t":"347","terminal":"Zlin","objIndex":"790"},
{"city":"Velky Orechov","zipcode":"76307","weightTo27t":"182","weightTo34t":"200","terminal":"Zlin","objIndex":"791"},
{"city":"Velky Tynec","zipcode":"78372","weightTo27t":"223","weightTo34t":"244","terminal":"Zlin","objIndex":"792"},
{"city":"Vendryne","zipcode":"73994","weightTo27t":"350","weightTo34t":"383","terminal":"Zlin","objIndex":"793"},
{"city":"Verovany","zipcode":"78375","weightTo27t":"223","weightTo34t":"244","terminal":"Zlin","objIndex":"794"},
{"city":"Verovice","zipcode":"74273","weightTo27t":"212","weightTo34t":"233","terminal":"Zlin","objIndex":"795"},
{"city":"Vesela","zipcode":"76315","weightTo27t":"167","weightTo34t":"184","terminal":"Zlin","objIndex":"796"},
{"city":"Veseli nad Moravou","zipcode":"69801","weightTo27t":"204","weightTo34t":"224","terminal":"Zlin","objIndex":"797"},
{"city":"Vetrkovice","zipcode":"74743","weightTo27t":"343","weightTo34t":"374","terminal":"Zlin","objIndex":"798"},
{"city":"Veverska Bityska","zipcode":"66471","weightTo27t":"378","weightTo34t":"411","terminal":"Zlin","objIndex":"799"},
{"city":"Veverske Kninice","zipcode":"66481","weightTo27t":"367","weightTo34t":"399","terminal":"Zlin","objIndex":"800"},
{"city":"Vicemerice","zipcode":"79826","weightTo27t":"228","weightTo34t":"249","terminal":"Zlin","objIndex":"801"},
{"city":"Vicenice u Nameste nad Oslavou","zipcode":"67571","weightTo27t":"419","weightTo34t":"457","terminal":"Zlin","objIndex":"802"},
{"city":"Vidce","zipcode":"75653","weightTo27t":"206","weightTo34t":"227","terminal":"Zlin","objIndex":"803"},
{"city":"Vikyrovice","zipcode":"78813","weightTo27t":"384","weightTo34t":"420","terminal":"Zlin","objIndex":"804"},
{"city":"Vilemov","zipcode":"78322","weightTo27t":"300","weightTo34t":"328","terminal":"Zlin","objIndex":"805"},
{"city":"Vinicne Sumice","zipcode":"66406","weightTo27t":"280","weightTo34t":"305","terminal":"Zlin","objIndex":"806"},
{"city":"Visnove","zipcode":"67138","weightTo27t":"455","weightTo34t":"496","terminal":"Zlin","objIndex":"807"},
{"city":"Vitkov","zipcode":"74901","weightTo27t":"354","weightTo34t":"386","terminal":"Zlin","objIndex":"808"},
{"city":"Vitonice","zipcode":"76861","weightTo27t":"222","weightTo34t":"243","terminal":"Zlin","objIndex":"809"},
{"city":"Vizovice","zipcode":"76312","weightTo27t":"167","weightTo34t":"184","terminal":"Zlin","objIndex":"810"},
{"city":"Vladislav","zipcode":"67501","weightTo27t":"430","weightTo34t":"469","terminal":"Zlin","objIndex":"811"},
{"city":"Vlachovice","zipcode":"76324","weightTo27t":"198","weightTo34t":"218","terminal":"Zlin","objIndex":"812"},
{"city":"Vlasatice","zipcode":"69130","weightTo27t":"403","weightTo34t":"439","terminal":"Zlin","objIndex":"813"},
{"city":"Vlcnov","zipcode":"68761","weightTo27t":"206","weightTo34t":"226","terminal":"Zlin","objIndex":"814"},
{"city":"Vlkos","zipcode":"69641","weightTo27t":"225","weightTo34t":"248","terminal":"Zlin","objIndex":"815"},
{"city":"Vlkos","zipcode":"75119","weightTo27t":"211","weightTo34t":"231","terminal":"Zlin","objIndex":"816"},
{"city":"Vnorovy","zipcode":"69661","weightTo27t":"206","weightTo34t":"227","terminal":"Zlin","objIndex":"817"},
{"city":"Vohancice","zipcode":"66601","weightTo27t":"369","weightTo34t":"402","terminal":"Zlin","objIndex":"818"},
{"city":"Vojkovice","zipcode":"66701","weightTo27t":"351","weightTo34t":"382","terminal":"Zlin","objIndex":"819"},
{"city":"Vracov","zipcode":"69642","weightTo27t":"217","weightTo34t":"239","terminal":"Zlin","objIndex":"820"},
{"city":"Vranov nad Dyji","zipcode":"67103","weightTo27t":"519","weightTo34t":"566","terminal":"Zlin","objIndex":"821"},
{"city":"Vranovice","zipcode":"69125","weightTo27t":"402","weightTo34t":"438","terminal":"Zlin","objIndex":"822"},
{"city":"Vranovice Kelcice","zipcode":"79808","weightTo27t":"281","weightTo34t":"306","terminal":"Zlin","objIndex":"823"},
{"city":"Vranovska Ves","zipcode":"67151","weightTo27t":"508","weightTo34t":"554","terminal":"Zlin","objIndex":"824"},
{"city":"Vratimov","zipcode":"73932","weightTo27t":"302","weightTo34t":"331","terminal":"Zlin","objIndex":"825"},
{"city":"Vrbatky","zipcode":"79813","weightTo27t":"259","weightTo34t":"283","terminal":"Zlin","objIndex":"826"},
{"city":"Vrbno pod Pradedem","zipcode":"79326","weightTo27t":"387","weightTo34t":"425","terminal":"Zlin","objIndex":"827"},
{"city":"Vrbovec","zipcode":"67124","weightTo27t":"476","weightTo34t":"519","terminal":"Zlin","objIndex":"828"},
{"city":"Vresina","zipcode":"74285","weightTo27t":"363","weightTo34t":"395","terminal":"Zlin","objIndex":"829"},
{"city":"Vresovice","zipcode":"69648","weightTo27t":"229","weightTo34t":"252","terminal":"Zlin","objIndex":"830"},
{"city":"Vsechovice","zipcode":"75353","weightTo27t":"212","weightTo34t":"233","terminal":"Zlin","objIndex":"831"},
{"city":"Vsemina","zipcode":"76315","weightTo27t":"167","weightTo34t":"184","terminal":"Zlin","objIndex":"832"},
{"city":"Vsetin","zipcode":"75501","weightTo27t":"184","weightTo34t":"202","terminal":"Zlin","objIndex":"833"},
{"city":"Vycapy","zipcode":"67401","weightTo27t":"472","weightTo34t":"515","terminal":"Zlin","objIndex":"834"},
{"city":"Vyskov","zipcode":"68201","weightTo27t":"248","weightTo34t":"271","terminal":"Zlin","objIndex":"835"},
{"city":"Vysni Lhoty","zipcode":"73951","weightTo27t":"289","weightTo34t":"317","terminal":"Zlin","objIndex":"836"},
{"city":"Vysocany","zipcode":"67913","weightTo27t":"291","weightTo34t":"318","terminal":"Zlin","objIndex":"837"},
{"city":"Zabcice","zipcode":"66463","weightTo27t":"379","weightTo34t":"412","terminal":"Zlin","objIndex":"838"},
{"city":"Zaben","zipcode":"73925","weightTo27t":"277","weightTo34t":"304","terminal":"Zlin","objIndex":"839"},
{"city":"Zabreh","zipcode":"78901","weightTo27t":"351","weightTo34t":"383","terminal":"Zlin","objIndex":"840"},
{"city":"Zadovice","zipcode":"69649","weightTo27t":"213","weightTo34t":"234","terminal":"Zlin","objIndex":"841"},
{"city":"Zadverice Rakova","zipcode":"76312","weightTo27t":"167","weightTo34t":"184","terminal":"Zlin","objIndex":"842"},
{"city":"Zajeci","zipcode":"69105","weightTo27t":"316","weightTo34t":"347","terminal":"Zlin","objIndex":"843"},
{"city":"Zakrany","zipcode":"66484","weightTo27t":"376","weightTo34t":"409","terminal":"Zlin","objIndex":"844"},
{"city":"Zalesna Zhor","zipcode":"66484","weightTo27t":"418","weightTo34t":"455","terminal":"Zlin","objIndex":"845"},
{"city":"Zarosice","zipcode":"69634","weightTo27t":"322","weightTo34t":"351","terminal":"Zlin","objIndex":"846"},
{"city":"Zasova","zipcode":"75651","weightTo27t":"204","weightTo34t":"224","terminal":"Zlin","objIndex":"847"},
{"city":"Zasovice","zipcode":"67521","weightTo27t":"483","weightTo34t":"527","terminal":"Zlin","objIndex":"848"},
{"city":"Zastavka","zipcode":"66484","weightTo27t":"365","weightTo34t":"397","terminal":"Zlin","objIndex":"849"},
{"city":"Zastrizly","zipcode":"76805","weightTo27t":"210","weightTo34t":"231","terminal":"Zlin","objIndex":"850"},
{"city":"Zatcany","zipcode":"66453","weightTo27t":"310","weightTo34t":"338","terminal":"Zlin","objIndex":"851"},
{"city":"Zator","zipcode":"79316","weightTo27t":"366","weightTo34t":"402","terminal":"Zlin","objIndex":"852"},
{"city":"Zborovice","zipcode":"76832","weightTo27t":"219","weightTo34t":"240","terminal":"Zlin","objIndex":"853"},
{"city":"Zbraslav","zipcode":"66484","weightTo27t":"387","weightTo34t":"421","terminal":"Zlin","objIndex":"854"},
{"city":"Zbysov","zipcode":"66411","weightTo27t":"376","weightTo34t":"409","terminal":"Zlin","objIndex":"855"},
{"city":"Zdanice","zipcode":"69632","weightTo27t":"251","weightTo34t":"276","terminal":"Zlin","objIndex":"856"},
{"city":"Zdar nad Sazavou","zipcode":"59101","weightTo27t":"492","weightTo34t":"536","terminal":"Zlin","objIndex":"857"},
{"city":"Zdarec","zipcode":"59456","weightTo27t":"449","weightTo34t":"489","terminal":"Zlin","objIndex":"858"},
{"city":"Zdarna","zipcode":"67952","weightTo27t":"366","weightTo34t":"399","terminal":"Zlin","objIndex":"859"},
{"city":"Zdounky","zipcode":"76802","weightTo27t":"214","weightTo34t":"234","terminal":"Zlin","objIndex":"860"},
{"city":"Zelatovice","zipcode":"75116","weightTo27t":"215","weightTo34t":"235","terminal":"Zlin","objIndex":"861"},
{"city":"Zelechovice nad Drevnici","zipcode":"76311","weightTo27t":"167","weightTo34t":"184","terminal":"Zlin","objIndex":"862"},
{"city":"Zelesice","zipcode":"66443","weightTo27t":"339","weightTo34t":"369","terminal":"Zlin","objIndex":"863"},
{"city":"Zeletava","zipcode":"67526","weightTo27t":"504","weightTo34t":"550","terminal":"Zlin","objIndex":"864"},
{"city":"Zelezne","zipcode":"66601","weightTo27t":"380","weightTo34t":"414","terminal":"Zlin","objIndex":"865"},
{"city":"Zenklava","zipcode":"74267","weightTo27t":"212","weightTo34t":"233","terminal":"Zlin","objIndex":"866"},
{"city":"Zernovnik","zipcode":"67921","weightTo27t":"382","weightTo34t":"416","terminal":"Zlin","objIndex":"867"},
{"city":"Zidlochovice","zipcode":"66701","weightTo27t":"364","weightTo34t":"396","terminal":"Zlin","objIndex":"868"},
{"city":"Zlate Hory","zipcode":"79376","weightTo27t":"430","weightTo34t":"472","terminal":"Zlin","objIndex":"869"},
{"city":"Zlin","zipcode":"76001","weightTo27t":"167","weightTo34t":"184","terminal":"Zlin","objIndex":"870"},
{"city":"Zlin/Louky","zipcode":"76302","weightTo27t":"167","weightTo34t":"184","terminal":"Zlin","objIndex":"871"},
{"city":"Zlin/Malenovice","zipcode":"76302","weightTo27t":"167","weightTo34t":"184","terminal":"Zlin","objIndex":"872"},
{"city":"Znojmo","zipcode":"66902","weightTo27t":"476","weightTo34t":"519","terminal":"Zlin","objIndex":"873"},
{"city":"Zubri","zipcode":"75654","weightTo27t":"206","weightTo34t":"227","terminal":"Zlin","objIndex":"874"},
{"city":"Zulova","zipcode":"79065","weightTo27t":"533","weightTo34t":"583","terminal":"Zlin","objIndex":"875"}
]
