[
{"city":"Adamov","zipcode":"67904","do27t":"267","do34t":"293"},
{"city":"Adrspach","zipcode":"54952","do27t":"300","do34t":"330"},
{"city":"Albrechtice","zipcode":"73543","do27t":"544","do34t":"592"},
{"city":"Albrechtice","zipcode":"56301","do27t":"182","do34t":"200"},
{"city":"Albrechtice nad Orlici","zipcode":"51722","do27t":"206","do34t":"227"},
{"city":"Alojzov","zipcode":"79804","do27t":"332","do34t":"362"},
{"city":"As","zipcode":"35201","do27t":"995","do34t":"1084"},
{"city":"Babice","zipcode":"67544","do27t":"433","do34t":"475"},
{"city":"Babice","zipcode":"68703","do27t":"426","do34t":"465"},
{"city":"Backov","zipcode":"58291","do27t":"346","do34t":"378"},
{"city":"Backovice","zipcode":"67532","do27t":"508","do34t":"555"},
{"city":"Bakov nad Jizerou","zipcode":"29401","do27t":"410","do34t":"450"},
{"city":"Banin","zipcode":"56802","do27t":"197","do34t":"217"},
{"city":"Banov","zipcode":"68754","do27t":"505","do34t":"551"},
{"city":"Barchov","zipcode":"53002","do27t":"270","do34t":"296"},
{"city":"Barchovice","zipcode":"28163","do27t":"397","do34t":"436"},
{"city":"Baska","zipcode":"73901","do27t":"517","do34t":"563"},
{"city":"Basnice","zipcode":"50801","do27t":"272","do34t":"299"},
{"city":"Batelov","zipcode":"58851","do27t":"402","do34t":"440"},
{"city":"Becvary","zipcode":"28143","do27t":"365","do34t":"401"},
{"city":"Bedihost","zipcode":"79821","do27t":"308","do34t":"336"},
{"city":"Bednarec","zipcode":"37842","do27t":"474","do34t":"518"},
{"city":"Bedrichov","zipcode":"67971","do27t":"222","do34t":"244"},
{"city":"Bechyne","zipcode":"39165","do27t":"554","do34t":"606"},
{"city":"Bela","zipcode":"39301","do27t":"434","do34t":"475"},
{"city":"Bela nad Svitavou","zipcode":"56905","do27t":"197","do34t":"217"},
{"city":"Bela pod Bezdezem","zipcode":"29421","do27t":"448","do34t":"491"},
{"city":"Belkovice Lastany","zipcode":"78315","do27t":"302","do34t":"330"},
{"city":"Belotin","zipcode":"75364","do27t":"387","do34t":"421"},
{"city":"Benatky nad Jizerou","zipcode":"29471","do27t":"517","do34t":"564"},
{"city":"Benesov","zipcode":"25601","do27t":"590","do34t":"644"},
{"city":"Benesov","zipcode":"67953","do27t":"229","do34t":"252"},
{"city":"Benetice","zipcode":"67506","do27t":"427","do34t":"467"},
{"city":"Bernartice","zipcode":"25765","do27t":"421","do34t":"460"},
{"city":"Bernartice nad Odrou","zipcode":"74101","do27t":"434","do34t":"473"},
{"city":"Beroun","zipcode":"26601","do27t":"645","do34t":"703"},
{"city":"Berunice","zipcode":"28908","do27t":"333","do34t":"365"},
{"city":"Bestovice","zipcode":"56501","do27t":"195","do34t":"215"},
{"city":"Bestvina","zipcode":"53845","do27t":"303","do34t":"332"},
{"city":"Bezdekov","zipcode":"53501","do27t":"279","do34t":"306"},
{"city":"Bila Tremesna","zipcode":"54472","do27t":"319","do34t":"350"},
{"city":"Bilov","zipcode":"74301","do27t":"450","do34t":"490"},
{"city":"Bilovec","zipcode":"74301","do27t":"450","do34t":"490"},
{"city":"Bilovice","zipcode":"68712","do27t":"436","do34t":"476"},
{"city":"Bilovice nad Svitavou","zipcode":"66401","do27t":"279","do34t":"306"},
{"city":"Bily Kamen","zipcode":"58841","do27t":"369","do34t":"403"},
{"city":"Biskupice","zipcode":"76341","do27t":"466","do34t":"509"},
{"city":"Bitouchov","zipcode":"29401","do27t":"438","do34t":"480"},
{"city":"Bitovcice","zipcode":"58822","do27t":"381","do34t":"417"},
{"city":"Blanne","zipcode":"67154","do27t":"486","do34t":"532"},
{"city":"Blansko","zipcode":"67801","do27t":"239","do34t":"263"},
{"city":"Blatnice pod Svatym Antoninkem","zipcode":"69671","do27t":"489","do34t":"534"},
{"city":"Blatnicka","zipcode":"69671","do27t":"500","do34t":"546"},
{"city":"Blazejovice","zipcode":"25768","do27t":"396","do34t":"433"},
{"city":"Blesno","zipcode":"50346","do27t":"217","do34t":"239"},
{"city":"Blizkovice","zipcode":"67155","do27t":"487","do34t":"533"},
{"city":"Blucina","zipcode":"66456","do27t":"317","do34t":"347"},
{"city":"Bludov","zipcode":"78961","do27t":"204","do34t":"224"},
{"city":"Bobrova","zipcode":"59255","do27t":"239","do34t":"263"},
{"city":"Bocanovice","zipcode":"73991","do27t":"590","do34t":"643"},
{"city":"Bohdalec","zipcode":"59255","do27t":"239","do34t":"263"},
{"city":"Bohdalice Pavlovice","zipcode":"68341","do27t":"383","do34t":"417"},
{"city":"Bohdalov","zipcode":"59213","do27t":"255","do34t":"280"},
{"city":"Bohdanec","zipcode":"28525","do27t":"363","do34t":"399"},
{"city":"Bohumin","zipcode":"73581","do27t":"540","do34t":"587"},
{"city":"Bohumin/Pudlov","zipcode":"73551","do27t":"540","do34t":"587"},
{"city":"Bohunov","zipcode":"59301","do27t":"210","do34t":"231"},
{"city":"Bohunovice","zipcode":"78314","do27t":"302","do34t":"330"},
{"city":"Bohunovice","zipcode":"57001","do27t":"199","do34t":"219"},
{"city":"Bohuslavice","zipcode":"54906","do27t":"217","do34t":"239"},
{"city":"Bohuslavice","zipcode":"74719","do27t":"531","do34t":"578"},
{"city":"Bohuslavice","zipcode":"79856","do27t":"248","do34t":"272"},
{"city":"Bohuslavice nad Vlari","zipcode":"76321","do27t":"531","do34t":"580"},
{"city":"Bohusovice nad Ohri","zipcode":"41156","do27t":"605","do34t":"660"},
{"city":"Bochor","zipcode":"75002","do27t":"361","do34t":"394"},
{"city":"Bojanov","zipcode":"53826","do27t":"276","do34t":"303"},
{"city":"Bojkovice","zipcode":"68771","do27t":"515","do34t":"562"},
{"city":"Bolatice","zipcode":"74723","do27t":"531","do34t":"578"},
{"city":"Boleradice","zipcode":"69112","do27t":"377","do34t":"413"},
{"city":"Borac","zipcode":"59261","do27t":"264","do34t":"290"},
{"city":"Boranovice","zipcode":"25065","do27t":"502","do34t":"548"},
{"city":"Bordovice","zipcode":"74401","do27t":"491","do34t":"535"},
{"city":"Boretice","zipcode":"69108","do27t":"427","do34t":"467"},
{"city":"Boretin","zipcode":"37853","do27t":"480","do34t":"525"},
{"city":"Borice","zipcode":"53862","do27t":"225","do34t":"247"},
{"city":"Borohradek","zipcode":"51724","do27t":"204","do34t":"224"},
{"city":"Borotice","zipcode":"67178","do27t":"407","do34t":"446"},
{"city":"Borotin","zipcode":"67937","do27t":"210","do34t":"231"},
{"city":"Borova","zipcode":"56982","do27t":"207","do34t":"227"},
{"city":"Borovany","zipcode":"37312","do27t":"587","do34t":"642"},
{"city":"Borovnice","zipcode":"59242","do27t":"202","do34t":"222"},
{"city":"Borsice","zipcode":"68709","do27t":"459","do34t":"501"},
{"city":"Borsov","zipcode":"58805","do27t":"381","do34t":"417"},
{"city":"Bory","zipcode":"59461","do27t":"263","do34t":"289"},
{"city":"Boskovice","zipcode":"68001","do27t":"210","do34t":"231"},
{"city":"Bouzov","zipcode":"78325","do27t":"221","do34t":"242"},
{"city":"Bozejov","zipcode":"39461","do27t":"415","do34t":"454"},
{"city":"Brandys nad Labem Stara Boleslav","zipcode":"25001","do27t":"466","do34t":"509"},
{"city":"Branisovice","zipcode":"67177","do27t":"364","do34t":"398"},
{"city":"Brankovice","zipcode":"68333","do27t":"365","do34t":"399"},
{"city":"Branky","zipcode":"75645","do27t":"414","do34t":"452"},
{"city":"Bransouze","zipcode":"67521","do27t":"315","do34t":"346"},
{"city":"Brantice","zipcode":"79393","do27t":"344","do34t":"378"},
{"city":"Bratcice","zipcode":"28601","do27t":"319","do34t":"350"},
{"city":"Bratrice","zipcode":"39501","do27t":"459","do34t":"502"},
{"city":"Breclav","zipcode":"69002","do27t":"420","do34t":"459"},
{"city":"Breclav/Postorna","zipcode":"69141","do27t":"420","do34t":"459"},
{"city":"Brehy","zipcode":"53501","do27t":"293","do34t":"322"},
{"city":"Brevnice","zipcode":"58001","do27t":"285","do34t":"312"},
{"city":"Brezejc","zipcode":"59401","do27t":"293","do34t":"322"},
{"city":"Brezi","zipcode":"59453","do27t":"367","do34t":"401"},
{"city":"Brezi nad Oslavou","zipcode":"59214","do27t":"246","do34t":"270"},
{"city":"Brezina","zipcode":"67905","do27t":"276","do34t":"303"},
{"city":"Brezina","zipcode":"79805","do27t":"394","do34t":"430"},
{"city":"Brezinky","zipcode":"56943","do27t":"209","do34t":"229"},
{"city":"Breznice","zipcode":"76001","do27t":"434","do34t":"474"},
{"city":"Breznik","zipcode":"67574","do27t":"347","do34t":"380"},
{"city":"Brezno","zipcode":"29406","do27t":"423","do34t":"464"},
{"city":"Brezolupy","zipcode":"68713","do27t":"434","do34t":"474"},
{"city":"Brezova","zipcode":"74744","do27t":"458","do34t":"499"},
{"city":"Brezova","zipcode":"76315","do27t":"456","do34t":"498"},
{"city":"Brezova nad Svitavou","zipcode":"56902","do27t":"192","do34t":"211"},
{"city":"Bridlicna","zipcode":"79351","do27t":"279","do34t":"307"},
{"city":"Brnenec","zipcode":"56904","do27t":"197","do34t":"217"},
{"city":"Brno","zipcode":"60200","do27t":"279","do34t":"306"},
{"city":"Brno/Cernovice","zipcode":"61800","do27t":"279","do34t":"306"},
{"city":"Brno/Horni Herspice","zipcode":"61900","do27t":"279","do34t":"306"},
{"city":"Brno/Chrlice","zipcode":"64300","do27t":"279","do34t":"306"},
{"city":"Brno/Slatina","zipcode":"62700","do27t":"279","do34t":"306"},
{"city":"Brno/Turany","zipcode":"62000","do27t":"279","do34t":"306"},
{"city":"Brodce","zipcode":"29473","do27t":"453","do34t":"496"},
{"city":"Brodek u Prerova","zipcode":"75103","do27t":"304","do34t":"332"},
{"city":"Brodek u Prostejova","zipcode":"79807","do27t":"334","do34t":"364"},
{"city":"Broumov","zipcode":"55001","do27t":"300","do34t":"330"},
{"city":"Broumov/Olivetin","zipcode":"55001","do27t":"300","do34t":"330"},
{"city":"Brtnice","zipcode":"58832","do27t":"391","do34t":"428"},
{"city":"Brtov Jenec","zipcode":"67921","do27t":"224","do34t":"246"},
{"city":"Brumov","zipcode":"67923","do27t":"230","do34t":"253"},
{"city":"Brumov Bylnice","zipcode":"76331","do27t":"520","do34t":"568"},
{"city":"Brumovice","zipcode":"69111","do27t":"382","do34t":"419"},
{"city":"Bruntal","zipcode":"79201","do27t":"300","do34t":"330"},
{"city":"Brusne","zipcode":"76861","do27t":"397","do34t":"434"},
{"city":"Brusperk","zipcode":"73944","do27t":"493","do34t":"537"},
{"city":"Bruzovice","zipcode":"73936","do27t":"528","do34t":"575"},
{"city":"Brzice","zipcode":"55205","do27t":"262","do34t":"288"},
{"city":"Brzkov","zipcode":"58813","do27t":"272","do34t":"299"},
{"city":"Bucovice","zipcode":"68501","do27t":"340","do34t":"372"},
{"city":"Budceves","zipcode":"50732","do27t":"409","do34t":"448"},
{"city":"Budec","zipcode":"59214","do27t":"239","do34t":"263"},
{"city":"Budikov","zipcode":"39601","do27t":"356","do34t":"389"},
{"city":"Budikov/Puste Lhotsko","zipcode":"39601","do27t":"356","do34t":"389"},
{"city":"Budiskovice","zipcode":"37891","do27t":"474","do34t":"518"},
{"city":"Budisov","zipcode":"67503","do27t":"393","do34t":"430"},
{"city":"Budisov nad Budisovkou","zipcode":"74787","do27t":"389","do34t":"426"},
{"city":"Buchlovice","zipcode":"68708","do27t":"412","do34t":"451"},
{"city":"Bukov","zipcode":"59251","do27t":"229","do34t":"252"},
{"city":"Bukova","zipcode":"79848","do27t":"239","do34t":"263"},
{"city":"Bukovice","zipcode":"67923","do27t":"232","do34t":"255"},
{"city":"Bukovina","zipcode":"67905","do27t":"276","do34t":"303"},
{"city":"Burenice","zipcode":"39501","do27t":"414","do34t":"453"},
{"city":"Busin","zipcode":"78962","do27t":"198","do34t":"218"},
{"city":"Bykovice","zipcode":"67971","do27t":"217","do34t":"238"},
{"city":"Bystre","zipcode":"56992","do27t":"201","do34t":"221"},
{"city":"Bystrice","zipcode":"73995","do27t":"569","do34t":"619"},
{"city":"Bystrice","zipcode":"50723","do27t":"363","do34t":"399"},
{"city":"Bystrice nad Pernstejnem","zipcode":"59301","do27t":"216","do34t":"237"},
{"city":"Bystrice pod Hostynem","zipcode":"76861","do27t":"391","do34t":"427"},
{"city":"Bystrovany","zipcode":"77900","do27t":"282","do34t":"308"},
{"city":"Bzenec","zipcode":"69681","do27t":"413","do34t":"453"},
{"city":"Caslav","zipcode":"28601","do27t":"308","do34t":"338"},
{"city":"Castolovice","zipcode":"51750","do27t":"198","do34t":"218"},
{"city":"Castrov","zipcode":"39463","do27t":"425","do34t":"465"},
{"city":"Cebin","zipcode":"66423","do27t":"250","do34t":"274"},
{"city":"Cechtice","zipcode":"25765","do27t":"417","do34t":"456"},
{"city":"Cechtin","zipcode":"67507","do27t":"438","do34t":"479"},
{"city":"Cechy","zipcode":"75115","do27t":"348","do34t":"380"},
{"city":"Cejc","zipcode":"69614","do27t":"371","do34t":"407"},
{"city":"Cejkovice","zipcode":"69615","do27t":"417","do34t":"456"},
{"city":"Cejle","zipcode":"58851","do27t":"381","do34t":"417"},
{"city":"Cejov","zipcode":"39601","do27t":"344","do34t":"376"},
{"city":"Celadna","zipcode":"73912","do27t":"538","do34t":"586"},
{"city":"Celakovice","zipcode":"25088","do27t":"440","do34t":"481"},
{"city":"Celcice","zipcode":"79823","do27t":"330","do34t":"360"},
{"city":"Cep","zipcode":"37901","do27t":"575","do34t":"629"},
{"city":"Ceperka","zipcode":"53345","do27t":"244","do34t":"268"},
{"city":"Cepi","zipcode":"53332","do27t":"259","do34t":"284"},
{"city":"Cerekvice nad Loucnou","zipcode":"56953","do27t":"204","do34t":"224"},
{"city":"Cerekvicka Rosice","zipcode":"58833","do27t":"382","do34t":"418"},
{"city":"Cerhenice","zipcode":"28102","do27t":"391","do34t":"428"},
{"city":"Cerhovice","zipcode":"26761","do27t":"707","do34t":"770"},
{"city":"Cermna nad Orlici","zipcode":"51725","do27t":"204","do34t":"224"},
{"city":"Cerna","zipcode":"59442","do27t":"272","do34t":"299"},
{"city":"Cerna Hora","zipcode":"67921","do27t":"219","do34t":"240"},
{"city":"Cerncice","zipcode":"54901","do27t":"217","do34t":"239"},
{"city":"Cerniky","zipcode":"28915","do27t":"429","do34t":"469"},
{"city":"Cernilov","zipcode":"50343","do27t":"225","do34t":"248"},
{"city":"Cerniny","zipcode":"28401","do27t":"352","do34t":"386"},
{"city":"Cernosice","zipcode":"25228","do27t":"591","do34t":"645"},
{"city":"Cernousy","zipcode":"46373","do27t":"524","do34t":"574"},
{"city":"Cernovice","zipcode":"67975","do27t":"230","do34t":"253"},
{"city":"Cernovice","zipcode":"39494","do27t":"449","do34t":"491"},
{"city":"Cernozice","zipcode":"50304","do27t":"255","do34t":"280"},
{"city":"Cerny Dul","zipcode":"54344","do27t":"366","do34t":"403"},
{"city":"Cervena Lhota","zipcode":"67507","do27t":"422","do34t":"463"},
{"city":"Cervena Recice","zipcode":"39446","do27t":"389","do34t":"426"},
{"city":"Cervena Voda","zipcode":"56161","do27t":"201","do34t":"221"},
{"city":"Cervene Pecky","zipcode":"28121","do27t":"354","do34t":"388"},
{"city":"Cervene Pecky/Bohounovice I","zipcode":"28002","do27t":"354","do34t":"388"},
{"city":"Cervenka","zipcode":"78401","do27t":"239","do34t":"262"},
{"city":"Cerveny Hradek","zipcode":"38001","do27t":"440","do34t":"481"},
{"city":"Cerveny Kostelec","zipcode":"54941","do27t":"251","do34t":"276"},
{"city":"Ceska","zipcode":"66431","do27t":"245","do34t":"269"},
{"city":"Ceska Bela","zipcode":"58261","do27t":"276","do34t":"302"},
{"city":"Ceska Lipa","zipcode":"47001","do27t":"519","do34t":"568"},
{"city":"Ceska Skalice","zipcode":"55203","do27t":"244","do34t":"268"},
{"city":"Ceska Trebova","zipcode":"56002","do27t":"167","do34t":"184"},
{"city":"Ceska Trebova CFS","zipcode":"56002","do27t":"65","do34t":"65"},
{"city":"Ceska Trebova vaha","zipcode":"56002","do27t":"22","do34t":"22"},
{"city":"Ceska Ves","zipcode":"79081","do27t":"289","do34t":"318"},
{"city":"Ceske Budejovice","zipcode":"37001","do27t":"614","do34t":"670"},
{"city":"Ceske Mezirici","zipcode":"51771","do27t":"217","do34t":"239"},
{"city":"Ceske Velenice","zipcode":"37810","do27t":"617","do34t":"675"},
{"city":"Cesky Brod","zipcode":"28201","do27t":"416","do34t":"455"},
{"city":"Cesky Brod/Liblice","zipcode":"28201","do27t":"416","do34t":"455"},
{"city":"Cesky Dub","zipcode":"46343","do27t":"434","do34t":"476"},
{"city":"Cesky Krumlov","zipcode":"38101","do27t":"677","do34t":"739"},
{"city":"Cesky Rudolec","zipcode":"37883","do27t":"493","do34t":"539"},
{"city":"Cesky Tesin","zipcode":"73701","do27t":"559","do34t":"608"},
{"city":"Cestice","zipcode":"51741","do27t":"201","do34t":"221"},
{"city":"Cestin","zipcode":"28510","do27t":"374","do34t":"411"},
{"city":"Cestlice","zipcode":"25101","do27t":"526","do34t":"574"},
{"city":"Cetkovice","zipcode":"67938","do27t":"208","do34t":"228"},
{"city":"Cetoraz","zipcode":"39411","do27t":"439","do34t":"480"},
{"city":"Cidlina","zipcode":"67544","do27t":"453","do34t":"495"},
{"city":"Cihalin","zipcode":"67507","do27t":"411","do34t":"451"},
{"city":"Cihost","zipcode":"58287","do27t":"379","do34t":"415"},
{"city":"Cineves","zipcode":"28901","do27t":"388","do34t":"425"},
{"city":"Citonice","zipcode":"67101","do27t":"451","do34t":"494"},
{"city":"Cizkov","zipcode":"39301","do27t":"403","do34t":"441"},
{"city":"Ctverin","zipcode":"46345","do27t":"411","do34t":"451"},
{"city":"Dacice","zipcode":"38001","do27t":"472","do34t":"516"},
{"city":"Dalecin","zipcode":"59241","do27t":"208","do34t":"228"},
{"city":"Damborice","zipcode":"69635","do27t":"360","do34t":"394"},
{"city":"Dasice","zipcode":"53303","do27t":"236","do34t":"259"},
{"city":"Deblin","zipcode":"66475","do27t":"267","do34t":"293"},
{"city":"Decin","zipcode":"40502","do27t":"737","do34t":"803"},
{"city":"Dehtare","zipcode":"39301","do27t":"369","do34t":"403"},
{"city":"Dehtare/Onsovice","zipcode":"39301","do27t":"369","do34t":"403"},
{"city":"Dehylov","zipcode":"74794","do27t":"499","do34t":"543"},
{"city":"Dekanovice","zipcode":"25768","do27t":"406","do34t":"444"},
{"city":"Desna","zipcode":"46861","do27t":"448","do34t":"492"},
{"city":"Desna","zipcode":"37873","do27t":"518","do34t":"566"},
{"city":"Desov","zipcode":"67533","do27t":"510","do34t":"557"},
{"city":"Destna","zipcode":"37825","do27t":"471","do34t":"515"},
{"city":"Detenice","zipcode":"50724","do27t":"384","do34t":"422"},
{"city":"Detmarovice","zipcode":"73571","do27t":"551","do34t":"599"},
{"city":"Detrichov","zipcode":"46401","do27t":"502","do34t":"550"},
{"city":"Detrichov nad Bystrici","zipcode":"79303","do27t":"356","do34t":"389"},
{"city":"Divci Hrad","zipcode":"79399","do27t":"408","do34t":"449"},
{"city":"Dlouha Brtnice","zipcode":"58834","do27t":"407","do34t":"445"},
{"city":"Dlouha Loucka","zipcode":"78386","do27t":"251","do34t":"275"},
{"city":"Dlouha Ves","zipcode":"58222","do27t":"298","do34t":"326"},
{"city":"Dlouhonovice","zipcode":"56401","do27t":"190","do34t":"209"},
{"city":"Dobra","zipcode":"73951","do27t":"519","do34t":"565"},
{"city":"Dobra Voda","zipcode":"39301","do27t":"413","do34t":"452"},
{"city":"Dobra Voda u Horic","zipcode":"50773","do27t":"293","do34t":"322"},
{"city":"Dobrejovice","zipcode":"25101","do27t":"530","do34t":"578"},
{"city":"Dobrenice","zipcode":"50325","do27t":"275","do34t":"302"},
{"city":"Dobronin","zipcode":"58812","do27t":"346","do34t":"378"},
{"city":"Dobrovice","zipcode":"29441","do27t":"443","do34t":"485"},
{"city":"Dobrovitov","zipcode":"28601","do27t":"341","do34t":"374"},
{"city":"Dobroviz","zipcode":"25261","do27t":"631","do34t":"688"},
{"city":"Dobruska","zipcode":"51801","do27t":"206","do34t":"227"},
{"city":"Dobsice","zipcode":"67182","do27t":"428","do34t":"469"},
{"city":"Dohalice","zipcode":"50313","do27t":"253","do34t":"278"},
{"city":"Doksany","zipcode":"41182","do27t":"594","do34t":"648"},
{"city":"Dolany","zipcode":"55201","do27t":"255","do34t":"280"},
{"city":"Dolany","zipcode":"78316","do27t":"302","do34t":"330"},
{"city":"Dolni Becva","zipcode":"75655","do27t":"457","do34t":"499"},
{"city":"Dolni Benesov","zipcode":"74722","do27t":"520","do34t":"566"},
{"city":"Dolni Bojanovice","zipcode":"69617","do27t":"452","do34t":"494"},
{"city":"Dolni Bousov","zipcode":"29404","do27t":"378","do34t":"415"},
{"city":"Dolni Branna","zipcode":"54362","do27t":"374","do34t":"411"},
{"city":"Dolni Brusnice","zipcode":"54472","do27t":"319","do34t":"350"},
{"city":"Dolni Cerekev","zipcode":"58845","do27t":"381","do34t":"417"},
{"city":"Dolni Cermna","zipcode":"56153","do27t":"184","do34t":"202"},
{"city":"Dolni Dobrouc","zipcode":"56102","do27t":"184","do34t":"202"},
{"city":"Dolni Kalna","zipcode":"54374","do27t":"352","do34t":"386"},
{"city":"Dolni Kounice","zipcode":"66464","do27t":"338","do34t":"370"},
{"city":"Dolni Kralovice","zipcode":"25768","do27t":"406","do34t":"444"},
{"city":"Dolni Krupa","zipcode":"58271","do27t":"285","do34t":"312"},
{"city":"Dolni Lhota","zipcode":"74766","do27t":"509","do34t":"554"},
{"city":"Dolni Lhota","zipcode":"76323","do27t":"466","do34t":"509"},
{"city":"Dolni Loucky","zipcode":"59455","do27t":"267","do34t":"293"},
{"city":"Dolni Lutyne","zipcode":"73553","do27t":"550","do34t":"598"},
{"city":"Dolni Mesto","zipcode":"58233","do27t":"343","do34t":"375"},
{"city":"Dolni Nemci","zipcode":"68762","do27t":"479","do34t":"523"},
{"city":"Dolni Olesnice","zipcode":"54375","do27t":"330","do34t":"362"},
{"city":"Dolni Pena","zipcode":"37701","do27t":"506","do34t":"553"},
{"city":"Dolni Radechova","zipcode":"54911","do27t":"235","do34t":"259"},
{"city":"Dolni Rasnice","zipcode":"46401","do27t":"514","do34t":"563"},
{"city":"Dolni Redice","zipcode":"53375","do27t":"236","do34t":"259"},
{"city":"Dolni Roven","zipcode":"53371","do27t":"228","do34t":"250"},
{"city":"Dolni Rozinka","zipcode":"59251","do27t":"229","do34t":"252"},
{"city":"Dolni Ujezd","zipcode":"75123","do27t":"333","do34t":"363"},
{"city":"Dolni Ujezd","zipcode":"56961","do27t":"199","do34t":"219"},
{"city":"Dolni Zivotice","zipcode":"74756","do27t":"420","do34t":"460"},
{"city":"Domasov","zipcode":"66483","do27t":"316","do34t":"346"},
{"city":"Domazelice","zipcode":"75115","do27t":"348","do34t":"380"},
{"city":"Domazlice","zipcode":"34401","do27t":"908","do34t":"988"},
{"city":"Doubrava","zipcode":"73533","do27t":"543","do34t":"591"},
{"city":"Doubravcice","zipcode":"28201","do27t":"437","do34t":"478"},
{"city":"Doubravice nad Svitavou","zipcode":"67911","do27t":"221","do34t":"243"},
{"city":"Doubravnik","zipcode":"59261","do27t":"256","do34t":"281"},
{"city":"Doudleby nad Orlici","zipcode":"51742","do27t":"195","do34t":"215"},
{"city":"Drahonin","zipcode":"59261","do27t":"264","do34t":"290"},
{"city":"Drasov","zipcode":"66424","do27t":"243","do34t":"267"},
{"city":"Drevohostice","zipcode":"75114","do27t":"359","do34t":"392"},
{"city":"Dritec","zipcode":"53305","do27t":"255","do34t":"279"},
{"city":"Drnovice","zipcode":"67976","do27t":"211","do34t":"232"},
{"city":"Drnovice","zipcode":"68304","do27t":"372","do34t":"405"},
{"city":"Drnovice","zipcode":"76325","do27t":"498","do34t":"544"},
{"city":"Drslavice","zipcode":"68733","do27t":"481","do34t":"525"},
{"city":"Druhanov","zipcode":"58291","do27t":"344","do34t":"376"},
{"city":"Drzkov","zipcode":"46824","do27t":"442","do34t":"485"},
{"city":"Drzovice","zipcode":"79607","do27t":"296","do34t":"323"},
{"city":"Dubenec","zipcode":"54455","do27t":"285","do34t":"313"},
{"city":"Dubicko","zipcode":"78972","do27t":"221","do34t":"242"},
{"city":"Dubnany","zipcode":"69603","do27t":"403","do34t":"442"},
{"city":"Dubovice","zipcode":"39301","do27t":"392","do34t":"429"},
{"city":"Dudin","zipcode":"58805","do27t":"379","do34t":"415"},
{"city":"Dukovany","zipcode":"67556","do27t":"380","do34t":"417"},
{"city":"Dusejov","zipcode":"58805","do27t":"381","do34t":"417"},
{"city":"Dvorce","zipcode":"79368","do27t":"367","do34t":"401"},
{"city":"Dvory","zipcode":"28802","do27t":"400","do34t":"438"},
{"city":"Dvur Kralove nad Labem","zipcode":"54401","do27t":"297","do34t":"326"},
{"city":"Dyjakovice","zipcode":"67126","do27t":"449","do34t":"492"},
{"city":"Dyje","zipcode":"66902","do27t":"417","do34t":"457"},
{"city":"Dyjice","zipcode":"58856","do27t":"438","do34t":"479"},
{"city":"Dymokury","zipcode":"28901","do27t":"398","do34t":"436"},
{"city":"Dzbanov","zipcode":"56601","do27t":"190","do34t":"209"},
{"city":"Es","zipcode":"39501","do27t":"427","do34t":"467"},
{"city":"Francova Lhota","zipcode":"75614","do27t":"519","do34t":"567"},
{"city":"Frenstat pod Radhostem","zipcode":"74401","do27t":"491","do34t":"535"},
{"city":"Frycovice","zipcode":"73945","do27t":"482","do34t":"525"},
{"city":"Frydek Mistek","zipcode":"73801","do27t":"506","do34t":"551"},
{"city":"Frydek Mistek/Chlebovice","zipcode":"73942","do27t":"506","do34t":"551"},
{"city":"Frydlant","zipcode":"46401","do27t":"503","do34t":"551"},
{"city":"Frydlant nad Ostravici","zipcode":"73911","do27t":"528","do34t":"575"},
{"city":"Frydstejn","zipcode":"46342","do27t":"410","do34t":"450"},
{"city":"Frystak","zipcode":"76316","do27t":"407","do34t":"445"},
{"city":"Fulnek","zipcode":"74245","do27t":"437","do34t":"476"},
{"city":"Golcuv Jenikov","zipcode":"58282","do27t":"343","do34t":"376"},
{"city":"Greslove Myto","zipcode":"67156","do27t":"475","do34t":"520"},
{"city":"Grygov","zipcode":"78373","do27t":"294","do34t":"321"},
{"city":"Habartice","zipcode":"46373","do27t":"524","do34t":"574"},
{"city":"Habry","zipcode":"58281","do27t":"303","do34t":"332"},
{"city":"Haj ve Slezsku","zipcode":"74792","do27t":"510","do34t":"555"},
{"city":"Haje nad Jizerou","zipcode":"51301","do27t":"395","do34t":"434"},
{"city":"Hajnice","zipcode":"54466","do27t":"319","do34t":"350"},
{"city":"Halenkov","zipcode":"75603","do27t":"542","do34t":"592"},
{"city":"Hanovice","zipcode":"78321","do27t":"231","do34t":"253"},
{"city":"Hanusovice","zipcode":"78833","do27t":"217","do34t":"239"},
{"city":"Harrachov","zipcode":"51246","do27t":"437","do34t":"480"},
{"city":"Hat","zipcode":"74716","do27t":"520","do34t":"566"},
{"city":"Hatin","zipcode":"37701","do27t":"506","do34t":"553"},
{"city":"Havirov","zipcode":"73601","do27t":"533","do34t":"580"},
{"city":"Havirov/Prostredni Sucha","zipcode":"73564","do27t":"533","do34t":"580"},
{"city":"Havlickuv Brod","zipcode":"58001","do27t":"299","do34t":"327"},
{"city":"Hejnice","zipcode":"46362","do27t":"503","do34t":"551"},
{"city":"Heralec","zipcode":"58255","do27t":"332","do34t":"363"},
{"city":"Hermanec","zipcode":"37853","do27t":"480","do34t":"525"},
{"city":"Hermanice","zipcode":"55212","do27t":"276","do34t":"303"},
{"city":"Hermanky","zipcode":"74235","do27t":"430","do34t":"469"},
{"city":"Hermanov","zipcode":"59451","do27t":"293","do34t":"322"},
{"city":"Hermanuv Mestec","zipcode":"53803","do27t":"259","do34t":"284"},
{"city":"Herspice","zipcode":"68401","do27t":"327","do34t":"358"},
{"city":"Hevlin","zipcode":"67169","do27t":"460","do34t":"504"},
{"city":"Hladov","zipcode":"58833","do27t":"418","do34t":"457"},
{"city":"Hlinsko","zipcode":"53901","do27t":"229","do34t":"251"},
{"city":"Hlubocky","zipcode":"78361","do27t":"302","do34t":"330"},
{"city":"Hlubocky/Marianske Udoli","zipcode":"78365","do27t":"302","do34t":"330"},
{"city":"Hluboke Masuvky","zipcode":"67152","do27t":"449","do34t":"492"},
{"city":"Hlucin","zipcode":"74801","do27t":"509","do34t":"554"},
{"city":"Hluchov","zipcode":"79841","do27t":"268","do34t":"293"},
{"city":"Hluk","zipcode":"68725","do27t":"468","do34t":"511"},
{"city":"Hnatnice","zipcode":"56101","do27t":"182","do34t":"200"},
{"city":"Hnevkovice","zipcode":"58294","do27t":"431","do34t":"471"},
{"city":"Hnevotin","zipcode":"78347","do27t":"274","do34t":"299"},
{"city":"Hnojnik","zipcode":"73953","do27t":"544","do34t":"592"},
{"city":"Hodejice","zipcode":"68401","do27t":"328","do34t":"359"},
{"city":"Hodice","zipcode":"58901","do27t":"402","do34t":"440"},
{"city":"Hodkovice nad Mohelkou","zipcode":"46342","do27t":"423","do34t":"464"},
{"city":"Hodonice","zipcode":"67125","do27t":"417","do34t":"457"},
{"city":"Hodonin","zipcode":"67971","do27t":"230","do34t":"253"},
{"city":"Hodonin","zipcode":"69501","do27t":"452","do34t":"494"},
{"city":"Hodov","zipcode":"67504","do27t":"403","do34t":"441"},
{"city":"Hodslavice","zipcode":"74271","do27t":"457","do34t":"498"},
{"city":"Hojkov","zipcode":"58805","do27t":"392","do34t":"429"},
{"city":"Holasice","zipcode":"66461","do27t":"302","do34t":"331"},
{"city":"Holasovice","zipcode":"74774","do27t":"366","do34t":"403"},
{"city":"Holcovice","zipcode":"79371","do27t":"366","do34t":"403"},
{"city":"Holesov","zipcode":"76901","do27t":"386","do34t":"422"},
{"city":"Holesov/Vsetuly","zipcode":"76901","do27t":"386","do34t":"422"},
{"city":"Holice","zipcode":"53401","do27t":"227","do34t":"249"},
{"city":"Holin","zipcode":"50601","do27t":"342","do34t":"375"},
{"city":"Holohlavy","zipcode":"50303","do27t":"255","do34t":"280"},
{"city":"Holovousy","zipcode":"50801","do27t":"284","do34t":"312"},
{"city":"Holovousy/Chodovice","zipcode":"50801","do27t":"284","do34t":"312"},
{"city":"Holstejn","zipcode":"67913","do27t":"239","do34t":"263"},
{"city":"Holubice","zipcode":"68351","do27t":"303","do34t":"332"},
{"city":"Homole","zipcode":"37001","do27t":"635","do34t":"693"},
{"city":"Horatev","zipcode":"28913","do27t":"390","do34t":"427"},
{"city":"Horepnik","zipcode":"39421","do27t":"403","do34t":"441"},
{"city":"Horice","zipcode":"50801","do27t":"272","do34t":"299"},
{"city":"Horice","zipcode":"39601","do27t":"396","do34t":"433"},
{"city":"Horicky","zipcode":"55205","do27t":"253","do34t":"278"},
{"city":"Horineves","zipcode":"50306","do27t":"252","do34t":"277"},
{"city":"Horka nad Moravou","zipcode":"78335","do27t":"262","do34t":"286"},
{"city":"Horka u Stare Paky","zipcode":"51234","do27t":"352","do34t":"386"},
{"city":"Horni Becva","zipcode":"75657","do27t":"478","do34t":"522"},
{"city":"Horni Benesov","zipcode":"79312","do27t":"333","do34t":"366"},
{"city":"Horni Bludovice","zipcode":"73937","do27t":"543","do34t":"591"},
{"city":"Horni Bradlo","zipcode":"53953","do27t":"263","do34t":"288"},
{"city":"Horni Brusnice","zipcode":"54474","do27t":"304","do34t":"334"},
{"city":"Horni Cerekev","zipcode":"39403","do27t":"423","do34t":"463"},
{"city":"Horni Cermna","zipcode":"56156","do27t":"184","do34t":"202"},
{"city":"Horni Dubenky","zipcode":"58852","do27t":"423","do34t":"463"},
{"city":"Horni Jeleni","zipcode":"53374","do27t":"221","do34t":"242"},
{"city":"Horni Krupa","zipcode":"58001","do27t":"285","do34t":"312"},
{"city":"Horni Lhota","zipcode":"76323","do27t":"466","do34t":"509"},
{"city":"Horni Lidec","zipcode":"75612","do27t":"510","do34t":"557"},
{"city":"Horni Loucky","zipcode":"59455","do27t":"267","do34t":"293"},
{"city":"Horni Nemci","zipcode":"68764","do27t":"489","do34t":"534"},
{"city":"Horni Paseka","zipcode":"58401","do27t":"403","do34t":"441"},
{"city":"Horni Smrcne","zipcode":"67507","do27t":"315","do34t":"346"},
{"city":"Horni Stepanov","zipcode":"79847","do27t":"216","do34t":"237"},
{"city":"Horni Sucha","zipcode":"73535","do27t":"543","do34t":"591"},
{"city":"Horni Tosanovice","zipcode":"73953","do27t":"544","do34t":"592"},
{"city":"Horni Tresnovec","zipcode":"56301","do27t":"182","do34t":"200"},
{"city":"Horni Ves","zipcode":"39301","do27t":"423","do34t":"463"},
{"city":"Hostalkova","zipcode":"75622","do27t":"467","do34t":"510"},
{"city":"Hostenice","zipcode":"66404","do27t":"300","do34t":"329"},
{"city":"Hosteradice","zipcode":"67171","do27t":"396","do34t":"434"},
{"city":"Hostim","zipcode":"67154","do27t":"487","do34t":"533"},
{"city":"Hostinne","zipcode":"54371","do27t":"330","do34t":"362"},
{"city":"Hostivice","zipcode":"25301","do27t":"607","do34t":"662"},
{"city":"Hovezi","zipcode":"75601","do27t":"478","do34t":"522"},
{"city":"Hovorany","zipcode":"69612","do27t":"382","do34t":"419"},
{"city":"Hrabesin","zipcode":"28601","do27t":"330","do34t":"362"},
{"city":"Hrabetice","zipcode":"67168","do27t":"470","do34t":"515"},
{"city":"Hrabova","zipcode":"78901","do27t":"221","do34t":"242"},
{"city":"Hradcovice","zipcode":"68733","do27t":"470","do34t":"513"},
{"city":"Hradec","zipcode":"58401","do27t":"379","do34t":"415"},
{"city":"Hradec Kralove","zipcode":"50002","do27t":"225","do34t":"248"},
{"city":"Hradec Kralove/Brezhrad","zipcode":"50332","do27t":"225","do34t":"248"},
{"city":"Hradec Kralove/Plotiste nad Labem","zipcode":"50301","do27t":"225","do34t":"248"},
{"city":"Hradec nad Moravici","zipcode":"74741","do27t":"479","do34t":"522"},
{"city":"Hradec nad Svitavou","zipcode":"56901","do27t":"182","do34t":"200"},
{"city":"Hradek","zipcode":"67127","do27t":"439","do34t":"481"},
{"city":"Hradek nad Nisou","zipcode":"46334","do27t":"504","do34t":"552"},
{"city":"Hradesin","zipcode":"28201","do27t":"450","do34t":"492"},
{"city":"Hradistko","zipcode":"28912","do27t":"426","do34t":"466"},
{"city":"Hranice","zipcode":"75301","do27t":"371","do34t":"404"},
{"city":"Hribiny Ledska","zipcode":"51741","do27t":"201","do34t":"221"},
{"city":"Hribojedy","zipcode":"54456","do27t":"285","do34t":"313"},
{"city":"Hrobice","zipcode":"76315","do27t":"456","do34t":"498"},
{"city":"Hrochuv Tynec","zipcode":"53862","do27t":"225","do34t":"247"},
{"city":"Hronov","zipcode":"54931","do27t":"251","do34t":"276"},
{"city":"Hrotovice","zipcode":"67555","do27t":"390","do34t":"428"},
{"city":"Hroznatin","zipcode":"67505","do27t":"417","do34t":"456"},
{"city":"Hroznova Lhota","zipcode":"69663","do27t":"489","do34t":"534"},
{"city":"Hruba Skala","zipcode":"51101","do27t":"378","do34t":"415"},
{"city":"Hrusky","zipcode":"69156","do27t":"420","do34t":"459"},
{"city":"Hrusova","zipcode":"56555","do27t":"204","do34t":"224"},
{"city":"Hrusovany nad Jevisovkou","zipcode":"67167","do27t":"387","do34t":"424"},
{"city":"Hrusovany u Brna","zipcode":"66462","do27t":"313","do34t":"343"},
{"city":"Hukvaldy","zipcode":"73946","do27t":"493","do34t":"537"},
{"city":"Hulin","zipcode":"76824","do27t":"375","do34t":"409"},
{"city":"Humpolec","zipcode":"39601","do27t":"345","do34t":"377"},
{"city":"Humpolec/Brunka","zipcode":"39601","do27t":"345","do34t":"377"},
{"city":"Huslenky","zipcode":"75602","do27t":"553","do34t":"605"},
{"city":"Hustenovice","zipcode":"68703","do27t":"436","do34t":"476"},
{"city":"Hustopece","zipcode":"69301","do27t":"355","do34t":"388"},
{"city":"Hutisko Solanec","zipcode":"75662","do27t":"478","do34t":"522"},
{"city":"Hvozd","zipcode":"79855","do27t":"248","do34t":"272"},
{"city":"Hybralec","zipcode":"58601","do27t":"358","do34t":"391"},
{"city":"Hyncice","zipcode":"54983","do27t":"300","do34t":"330"},
{"city":"Cheb","zipcode":"35002","do27t":"956","do34t":"1041"},
{"city":"Chleby","zipcode":"28931","do27t":"411","do34t":"450"},
{"city":"Chlistov","zipcode":"67522","do27t":"422","do34t":"463"},
{"city":"Chlum","zipcode":"67521","do27t":"315","do34t":"346"},
{"city":"Chlum u Trebone","zipcode":"37804","do27t":"531","do34t":"580"},
{"city":"Chlumec nad Cidlinou","zipcode":"50351","do27t":"300","do34t":"329"},
{"city":"Chocen","zipcode":"56501","do27t":"190","do34t":"209"},
{"city":"Chocen/Dvorisko","zipcode":"56501","do27t":"190","do34t":"209"},
{"city":"Chomutov","zipcode":"43001","do27t":"727","do34t":"793"},
{"city":"Choratice","zipcode":"28506","do27t":"509","do34t":"555"},
{"city":"Chornice","zipcode":"56942","do27t":"206","do34t":"226"},
{"city":"Chotanky","zipcode":"29001","do27t":"366","do34t":"400"},
{"city":"Chotebor","zipcode":"58301","do27t":"265","do34t":"290"},
{"city":"Chotusice","zipcode":"28576","do27t":"308","do34t":"338"},
{"city":"Choustnikovo Hradiste","zipcode":"54442","do27t":"287","do34t":"315"},
{"city":"Chrast","zipcode":"53851","do27t":"243","do34t":"267"},
{"city":"Chrastany","zipcode":"25219","do27t":"594","do34t":"648"},
{"city":"Chrastava","zipcode":"46331","do27t":"482","do34t":"528"},
{"city":"Chropyne","zipcode":"76811","do27t":"372","do34t":"406"},
{"city":"Chroustovice","zipcode":"53863","do27t":"220","do34t":"241"},
{"city":"Chrtnic","zipcode":"58282","do27t":"357","do34t":"390"},
{"city":"Chrudim","zipcode":"53701","do27t":"243","do34t":"267"},
{"city":"Chuchelna","zipcode":"74724","do27t":"541","do34t":"589"},
{"city":"Chvaletice","zipcode":"53312","do27t":"311","do34t":"341"},
{"city":"Chyne","zipcode":"25301","do27t":"605","do34t":"660"},
{"city":"Chysna","zipcode":"39501","do27t":"417","do34t":"456"},
{"city":"Ivancice","zipcode":"66491","do27t":"325","do34t":"356"},
{"city":"Ivanovice na Hane","zipcode":"68323","do27t":"383","do34t":"417"},
{"city":"Jablonany","zipcode":"67901","do27t":"211","do34t":"232"},
{"city":"Jablonec nad Nisou","zipcode":"46601","do27t":"445","do34t":"488"},
{"city":"Jablonne nad Orlici","zipcode":"56164","do27t":"190","do34t":"209"},
{"city":"Jablonne v Podjestedi","zipcode":"47125","do27t":"505","do34t":"553"},
{"city":"Jablunka","zipcode":"75623","do27t":"446","do34t":"487"},
{"city":"Jablunkov","zipcode":"73991","do27t":"590","do34t":"643"},
{"city":"Jakubcovice nad Odrou","zipcode":"74236","do27t":"418","do34t":"456"},
{"city":"Jamne nad Orlici","zipcode":"56165","do27t":"195","do34t":"215"},
{"city":"Jamolice","zipcode":"67201","do27t":"347","do34t":"380"},
{"city":"Jankov","zipcode":"39301","do27t":"394","do34t":"431"},
{"city":"Janov","zipcode":"51801","do27t":"217","do34t":"239"},
{"city":"Jaromer","zipcode":"55101","do27t":"274","do34t":"301"},
{"city":"Jaromerice nad Rokytnou","zipcode":"67551","do27t":"411","do34t":"451"},
{"city":"Jarosov nad Nezarkou","zipcode":"37841","do27t":"463","do34t":"506"},
{"city":"Jasenna","zipcode":"76313","do27t":"466","do34t":"509"},
{"city":"Javornik","zipcode":"69674","do27t":"511","do34t":"558"},
{"city":"Javornik","zipcode":"79070","do27t":"397","do34t":"437"},
{"city":"Javurek","zipcode":"66483","do27t":"327","do34t":"358"},
{"city":"Jedla","zipcode":"58401","do27t":"374","do34t":"411"},
{"city":"Jedli","zipcode":"78901","do27t":"195","do34t":"215"},
{"city":"Jedlova","zipcode":"56991","do27t":"202","do34t":"222"},
{"city":"Jedovnice","zipcode":"67906","do27t":"246","do34t":"270"},
{"city":"Jemnice","zipcode":"67531","do27t":"497","do34t":"543"},
{"city":"Jenec","zipcode":"25261","do27t":"620","do34t":"676"},
{"city":"Jenisovice","zipcode":"46833","do27t":"400","do34t":"439"},
{"city":"Jerisno","zipcode":"58274","do27t":"293","do34t":"321"},
{"city":"Jersin","zipcode":"58825","do27t":"272","do34t":"299"},
{"city":"Jesenice","zipcode":"25242","do27t":"543","do34t":"592"},
{"city":"Jesenik","zipcode":"79001","do27t":"279","do34t":"307"},
{"city":"Jesenik nad Odrou","zipcode":"74233","do27t":"422","do34t":"460"},
{"city":"Jesenny","zipcode":"51212","do27t":"416","do34t":"457"},
{"city":"Jetrichov","zipcode":"54983","do27t":"289","do34t":"318"},
{"city":"Jevany","zipcode":"28166","do27t":"458","do34t":"501"},
{"city":"Jevicko","zipcode":"56943","do27t":"205","do34t":"225"},
{"city":"Jevisovka","zipcode":"69183","do27t":"387","do34t":"424"},
{"city":"Jezdovice","zipcode":"58901","do27t":"392","do34t":"429"},
{"city":"Jezkovice","zipcode":"68304","do27t":"394","do34t":"430"},
{"city":"Jicin","zipcode":"50601","do27t":"330","do34t":"362"},
{"city":"Jicineves","zipcode":"50731","do27t":"341","do34t":"374"},
{"city":"Jihlava","zipcode":"58601","do27t":"358","do34t":"391"},
{"city":"Jihlava/Pavov","zipcode":"58601","do27t":"358","do34t":"391"},
{"city":"Jihlavka","zipcode":"58851","do27t":"423","do34t":"463"},
{"city":"Jilemnice","zipcode":"51401","do27t":"374","do34t":"411"},
{"city":"Jilove u Prahy","zipcode":"25401","do27t":"553","do34t":"603"},
{"city":"Jimramov","zipcode":"59242","do27t":"205","do34t":"225"},
{"city":"Jinacovice","zipcode":"66434","do27t":"251","do34t":"275"},
{"city":"Jindrichov","zipcode":"78823","do27t":"225","do34t":"248"},
{"city":"Jindrichuv Hradec","zipcode":"37701","do27t":"484","do34t":"529"},
{"city":"Jinosov","zipcode":"67571","do27t":"356","do34t":"389"},
{"city":"Jiretin pod Bukovou","zipcode":"46843","do27t":"477","do34t":"523"},
{"city":"Jirice","zipcode":"28922","do27t":"443","do34t":"485"},
{"city":"Jirice","zipcode":"39601","do27t":"356","do34t":"389"},
{"city":"Jirikovice","zipcode":"66451","do27t":"290","do34t":"318"},
{"city":"Jirny","zipcode":"25090","do27t":"445","do34t":"486"},
{"city":"Jitkov","zipcode":"58301","do27t":"267","do34t":"292"},
{"city":"Jivova","zipcode":"78316","do27t":"312","do34t":"341"},
{"city":"Jivovi","zipcode":"59451","do27t":"272","do34t":"299"},
{"city":"Kacov","zipcode":"28509","do27t":"470","do34t":"513"},
{"city":"Kadan","zipcode":"43201","do27t":"747","do34t":"815"},
{"city":"Kaliste","zipcode":"39451","do27t":"354","do34t":"387"},
{"city":"Kaly","zipcode":"59455","do27t":"267","do34t":"293"},
{"city":"Kamberk","zipcode":"25706","do27t":"510","do34t":"557"},
{"city":"Kamen","zipcode":"58242","do27t":"334","do34t":"365"},
{"city":"Kamen","zipcode":"39413","do27t":"426","do34t":"466"},
{"city":"Kamenice","zipcode":"58823","do27t":"344","do34t":"376"},
{"city":"Kamenice","zipcode":"25168","do27t":"553","do34t":"603"},
{"city":"Kamenice nad Lipou","zipcode":"39470","do27t":"439","do34t":"480"},
{"city":"Kamenna","zipcode":"58813","do27t":"333","do34t":"364"},
{"city":"Kamenna","zipcode":"78974","do27t":"234","do34t":"257"},
{"city":"Kamenna","zipcode":"67503","do27t":"382","do34t":"418"},
{"city":"Kamenna Lhota","zipcode":"58292","do27t":"393","do34t":"430"},
{"city":"Kamenny Malikov","zipcode":"37842","do27t":"461","do34t":"504"},
{"city":"Kanice","zipcode":"66401","do27t":"300","do34t":"329"},
{"city":"Kanovice","zipcode":"76341","do27t":"445","do34t":"486"},
{"city":"Kardasova Recice","zipcode":"37821","do27t":"506","do34t":"553"},
{"city":"Karlovice","zipcode":"79323","do27t":"344","do34t":"378"},
{"city":"Karlovice","zipcode":"51101","do27t":"378","do34t":"415"},
{"city":"Karlovy Vary","zipcode":"36001","do27t":"842","do34t":"917"},
{"city":"Karolinka","zipcode":"75605","do27t":"532","do34t":"581"},
{"city":"Karvina","zipcode":"73301","do27t":"544","do34t":"592"},
{"city":"Katerinice","zipcode":"74258","do27t":"482","do34t":"525"},
{"city":"Katerinice","zipcode":"75621","do27t":"467","do34t":"510"},
{"city":"Keblov","zipcode":"25765","do27t":"421","do34t":"460"},
{"city":"Kelc","zipcode":"75643","do27t":"404","do34t":"441"},
{"city":"Kelcany","zipcode":"69649","do27t":"392","do34t":"430"},
{"city":"Kelniky","zipcode":"76307","do27t":"445","do34t":"486"},
{"city":"Kladeruby nad Oslavou","zipcode":"67575","do27t":"358","do34t":"392"},
{"city":"Kladky","zipcode":"79854","do27t":"211","do34t":"232"},
{"city":"Kladno","zipcode":"27201","do27t":"643","do34t":"701"},
{"city":"Kladruby nad Labem","zipcode":"53314","do27t":"322","do34t":"353"},
{"city":"Klamos","zipcode":"50351","do27t":"300","do34t":"329"},
{"city":"Klasterec nad Orlici","zipcode":"56182","do27t":"198","do34t":"218"},
{"city":"Klatovy","zipcode":"33901","do27t":"856","do34t":"931"},
{"city":"Klenovice na Hane","zipcode":"79823","do27t":"330","do34t":"360"},
{"city":"Klimkovice","zipcode":"74283","do27t":"475","do34t":"517"},
{"city":"Klobouky u Brna","zipcode":"69172","do27t":"361","do34t":"395"},
{"city":"Klokocov","zipcode":"58301","do27t":"271","do34t":"297"},
{"city":"Klopina","zipcode":"78973","do27t":"226","do34t":"248"},
{"city":"Knezeves","zipcode":"25268","do27t":"619","do34t":"675"},
{"city":"Knezice","zipcode":"67529","do27t":"416","do34t":"455"},
{"city":"Knezmost","zipcode":"29402","do27t":"389","do34t":"427"},
{"city":"Knyk","zipcode":"58001","do27t":"310","do34t":"339"},
{"city":"Koberice","zipcode":"74727","do27t":"543","do34t":"591"},
{"city":"Koberovice","zipcode":"39459","do27t":"371","do34t":"405"},
{"city":"Kobyli","zipcode":"69110","do27t":"392","do34t":"430"},
{"city":"Kobylnice","zipcode":"66451","do27t":"290","do34t":"318"},
{"city":"Kocbere","zipcode":"54464","do27t":"297","do34t":"326"},
{"city":"Koclirov","zipcode":"56911","do27t":"168","do34t":"185"},
{"city":"Kohoutov","zipcode":"54401","do27t":"297","do34t":"326"},
{"city":"Kojcice","zipcode":"39409","do27t":"370","do34t":"404"},
{"city":"Kojetice","zipcode":"67523","do27t":"411","do34t":"451"},
{"city":"Kojetin","zipcode":"58001","do27t":"276","do34t":"302"},
{"city":"Kojetin","zipcode":"75201","do27t":"336","do34t":"367"},
{"city":"Kokory","zipcode":"75105","do27t":"305","do34t":"333"},
{"city":"Koldin","zipcode":"56501","do27t":"195","do34t":"215"},
{"city":"Kolin","zipcode":"28002","do27t":"401","do34t":"439"},
{"city":"Komna","zipcode":"68771","do27t":"528","do34t":"576"},
{"city":"Komorany","zipcode":"68301","do27t":"328","do34t":"359"},
{"city":"Konarovice","zipcode":"28125","do27t":"362","do34t":"396"},
{"city":"Konecchlumi","zipcode":"50705","do27t":"296","do34t":"325"},
{"city":"Konice","zipcode":"79852","do27t":"217","do34t":"238"},
{"city":"Konojedy","zipcode":"28163","do27t":"458","do34t":"501"},
{"city":"Kopidlno","zipcode":"50732","do27t":"352","do34t":"386"},
{"city":"Koprivnice","zipcode":"74221","do27t":"480","do34t":"523"},
{"city":"Korenec","zipcode":"68001","do27t":"216","do34t":"237"},
{"city":"Korenice","zipcode":"28002","do27t":"413","do34t":"452"},
{"city":"Korenice/Pucery","zipcode":"28144","do27t":"413","do34t":"452"},
{"city":"Korouhev","zipcode":"56993","do27t":"202","do34t":"222"},
{"city":"Korycany","zipcode":"76805","do27t":"398","do34t":"436"},
{"city":"Kosetice","zipcode":"39422","do27t":"403","do34t":"441"},
{"city":"Kosmonosy","zipcode":"29306","do27t":"426","do34t":"467"},
{"city":"Kosorin","zipcode":"56501","do27t":"190","do34t":"209"},
{"city":"Kosova Hora","zipcode":"26291","do27t":"646","do34t":"705"},
{"city":"Kostalov","zipcode":"51202","do27t":"376","do34t":"413"},
{"city":"Kostelany nad Moravou","zipcode":"68601","do27t":"458","do34t":"500"},
{"city":"Kostelec","zipcode":"69651","do27t":"392","do34t":"430"},
{"city":"Kostelec","zipcode":"58861","do27t":"381","do34t":"417"},
{"city":"Kostelec","zipcode":"34901","do27t":"849","do34t":"923"},
{"city":"Kostelec na Hane","zipcode":"79841","do27t":"318","do34t":"347"},
{"city":"Kostelec nad Cernymi Lesy","zipcode":"28163","do27t":"448","do34t":"490"},
{"city":"Kostelec nad Orlici","zipcode":"51741","do27t":"198","do34t":"218"},
{"city":"Kostelec u Holesova","zipcode":"76843","do27t":"361","do34t":"394"},
{"city":"Kostenice","zipcode":"53002","do27t":"233","do34t":"256"},
{"city":"Kostice","zipcode":"69152","do27t":"430","do34t":"470"},
{"city":"Kostomlaty nad Labem","zipcode":"28921","do27t":"400","do34t":"438"},
{"city":"Kotlasy","zipcode":"59214","do27t":"255","do34t":"280"},
{"city":"Kotvrdovice","zipcode":"67907","do27t":"255","do34t":"280"},
{"city":"Kounice","zipcode":"28915","do27t":"429","do34t":"469"},
{"city":"Kourim","zipcode":"28161","do27t":"448","do34t":"490"},
{"city":"Kourim/Molitorov","zipcode":"28163","do27t":"448","do34t":"490"},
{"city":"Kouty","zipcode":"58401","do27t":"393","do34t":"430"},
{"city":"Kouty","zipcode":"67508","do27t":"315","do34t":"346"},
{"city":"Kovac","zipcode":"50601","do27t":"307","do34t":"337"},
{"city":"Kozarov","zipcode":"67971","do27t":"222","do34t":"244"},
{"city":"Kozichovice","zipcode":"67401","do27t":"390","do34t":"428"},
{"city":"Kozlov","zipcode":"58821","do27t":"370","do34t":"404"},
{"city":"Kozlov","zipcode":"59451","do27t":"283","do34t":"311"},
{"city":"Kozlovice","zipcode":"73947","do27t":"503","do34t":"548"},
{"city":"Kozmice","zipcode":"74711","do27t":"509","do34t":"554"},
{"city":"Kozojedy","zipcode":"28163","do27t":"458","do34t":"501"},
{"city":"Kozusany Tazaly","zipcode":"78375","do27t":"284","do34t":"310"},
{"city":"Krahulov","zipcode":"67521","do27t":"411","do34t":"451"},
{"city":"Kralice na Hane","zipcode":"79812","do27t":"308","do34t":"336"},
{"city":"Kralice nad Oslavou","zipcode":"67573","do27t":"336","do34t":"368"},
{"city":"Kraliky","zipcode":"56169","do27t":"204","do34t":"224"},
{"city":"Krasensko","zipcode":"68304","do27t":"255","do34t":"280"},
{"city":"Krasna Hora","zipcode":"58234","do27t":"320","do34t":"350"},
{"city":"Krasonice","zipcode":"58864","do27t":"453","do34t":"495"},
{"city":"Kratonohy","zipcode":"50324","do27t":"260","do34t":"286"},
{"city":"Kravare","zipcode":"74721","do27t":"533","do34t":"580"},
{"city":"Krechor","zipcode":"28002","do27t":"402","do34t":"440"},
{"city":"Krelovice","zipcode":"39445","do27t":"378","do34t":"414"},
{"city":"Krenovice","zipcode":"68352","do27t":"316","do34t":"346"},
{"city":"Kresin","zipcode":"39424","do27t":"424","do34t":"464"},
{"city":"Kretin","zipcode":"67962","do27t":"206","do34t":"226"},
{"city":"Krhova","zipcode":"75663","do27t":"435","do34t":"475"},
{"city":"Krivsoudov","zipcode":"25766","do27t":"406","do34t":"444"},
{"city":"Krizanky","zipcode":"59202","do27t":"213","do34t":"234"},
{"city":"Krizanov","zipcode":"59451","do27t":"272","do34t":"299"},
{"city":"Krmelin","zipcode":"73924","do27t":"522","do34t":"568"},
{"city":"Krnov","zipcode":"79401","do27t":"355","do34t":"391"},
{"city":"Kromeriz","zipcode":"76701","do27t":"377","do34t":"411"},
{"city":"Krouna","zipcode":"53943","do27t":"215","do34t":"236"},
{"city":"Krovi","zipcode":"59454","do27t":"276","do34t":"303"},
{"city":"Krtiny","zipcode":"67905","do27t":"267","do34t":"293"},
{"city":"Krtomil","zipcode":"75114","do27t":"370","do34t":"404"},
{"city":"Krucemburk","zipcode":"58266","do27t":"256","do34t":"280"},
{"city":"Krupka","zipcode":"41741","do27t":"705","do34t":"768"},
{"city":"Ksely","zipcode":"28201","do27t":"437","do34t":"478"},
{"city":"Kudlovice","zipcode":"68703","do27t":"436","do34t":"476"},
{"city":"Kuks","zipcode":"54443","do27t":"287","do34t":"315"},
{"city":"Kuncice pod Ondrejnikem","zipcode":"73913","do27t":"501","do34t":"546"},
{"city":"Kuncina","zipcode":"56924","do27t":"199","do34t":"219"},
{"city":"Kunemil","zipcode":"58291","do27t":"345","do34t":"377"},
{"city":"Kunice","zipcode":"67971","do27t":"217","do34t":"238"},
{"city":"Kunice","zipcode":"25163","do27t":"543","do34t":"592"},
{"city":"Kunicky","zipcode":"67902","do27t":"229","do34t":"252"},
{"city":"Kunin","zipcode":"74253","do27t":"437","do34t":"476"},
{"city":"Kunovice","zipcode":"68604","do27t":"458","do34t":"500"},
{"city":"Kunovice","zipcode":"75644","do27t":"414","do34t":"452"},
{"city":"Kunstat","zipcode":"67972","do27t":"211","do34t":"232"},
{"city":"Kunzak","zipcode":"37862","do27t":"495","do34t":"541"},
{"city":"Kurim","zipcode":"66434","do27t":"244","do34t":"268"},
{"city":"Kurimske Jestrabi","zipcode":"59455","do27t":"276","do34t":"303"},
{"city":"Kutna Hora","zipcode":"28401","do27t":"343","do34t":"376"},
{"city":"Kutna Hora/Sedlec","zipcode":"28403","do27t":"343","do34t":"376"},
{"city":"Kvasice","zipcode":"76821","do27t":"397","do34t":"434"},
{"city":"Kvasiny","zipcode":"51702","do27t":"201","do34t":"221"},
{"city":"Kyjov","zipcode":"58001","do27t":"299","do34t":"327"},
{"city":"Kyjov","zipcode":"69701","do27t":"382","do34t":"419"},
{"city":"Kyjov/Bohuslavice","zipcode":"69655","do27t":"382","do34t":"419"},
{"city":"Ladna","zipcode":"69146","do27t":"406","do34t":"444"},
{"city":"Lanov","zipcode":"54341","do27t":"366","do34t":"403"},
{"city":"Lanskroun","zipcode":"56301","do27t":"167","do34t":"184"},
{"city":"Lanzhot","zipcode":"69151","do27t":"441","do34t":"482"},
{"city":"Laskov","zipcode":"79857","do27t":"268","do34t":"293"},
{"city":"Lavicky","zipcode":"59401","do27t":"409","do34t":"447"},
{"city":"Lazne Belohrad","zipcode":"50781","do27t":"293","do34t":"322"},
{"city":"Lazne Bohdanec","zipcode":"53341","do27t":"272","do34t":"299"},
{"city":"Ledce","zipcode":"51771","do27t":"217","do34t":"239"},
{"city":"Ledec nad Sazavou","zipcode":"58401","do27t":"390","do34t":"427"},
{"city":"Ledecko","zipcode":"28506","do27t":"407","do34t":"447"},
{"city":"Lednice","zipcode":"69144","do27t":"406","do34t":"444"},
{"city":"Lechovice","zipcode":"67163","do27t":"407","do34t":"446"},
{"city":"Lelekovice","zipcode":"66431","do27t":"252","do34t":"276"},
{"city":"Leskovec","zipcode":"75611","do27t":"478","do34t":"522"},
{"city":"Leskovice","zipcode":"39414","do27t":"404","do34t":"442"},
{"city":"Lesna","zipcode":"39501","do27t":"424","do34t":"464"},
{"city":"Lesna","zipcode":"67526","do27t":"433","do34t":"475"},
{"city":"Lesna","zipcode":"75641","do27t":"422","do34t":"460"},
{"city":"Lesni Hluboke","zipcode":"66483","do27t":"332","do34t":"363"},
{"city":"Lesonice","zipcode":"67544","do27t":"465","do34t":"508"},
{"city":"Lestina u Svetle","zipcode":"58286","do27t":"357","do34t":"390"},
{"city":"Letohrad","zipcode":"56151","do27t":"184","do34t":"202"},
{"city":"Letovice","zipcode":"67961","do27t":"204","do34t":"224"},
{"city":"Lhota pod Libcany","zipcode":"50327","do27t":"252","do34t":"277"},
{"city":"Lhota Rapotina","zipcode":"67901","do27t":"216","do34t":"237"},
{"city":"Lhota u Vsetina","zipcode":"75501","do27t":"478","do34t":"522"},
{"city":"Liban","zipcode":"50723","do27t":"374","do34t":"411"},
{"city":"Libcany","zipcode":"50322","do27t":"252","do34t":"277"},
{"city":"Liberec","zipcode":"46001","do27t":"459","do34t":"503"},
{"city":"Liberec/Vesec","zipcode":"46312","do27t":"459","do34t":"503"},
{"city":"Liberec/Vratislavice nad Nisou","zipcode":"46311","do27t":"459","do34t":"503"},
{"city":"Liberk","zipcode":"51712","do27t":"225","do34t":"248"},
{"city":"Libeznice","zipcode":"25065","do27t":"515","do34t":"562"},
{"city":"Libchavy","zipcode":"56116","do27t":"167","do34t":"184"},
{"city":"Libice nad Cidlinou","zipcode":"28907","do27t":"366","do34t":"400"},
{"city":"Libina","zipcode":"78805","do27t":"225","do34t":"248"},
{"city":"Libisany","zipcode":"53345","do27t":"253","do34t":"278"},
{"city":"Libkova Voda","zipcode":"39462","do27t":"404","do34t":"442"},
{"city":"Libomerice","zipcode":"53821","do27t":"259","do34t":"284"},
{"city":"Libos","zipcode":"78313","do27t":"256","do34t":"280"},
{"city":"Libstat","zipcode":"51203","do27t":"376","do34t":"413"},
{"city":"Libun","zipcode":"50715","do27t":"355","do34t":"389"},
{"city":"Licno","zipcode":"51735","do27t":"204","do34t":"224"},
{"city":"Lidman","zipcode":"39501","do27t":"425","do34t":"465"},
{"city":"Lichnov","zipcode":"74275","do27t":"491","do34t":"535"},
{"city":"Linhartice","zipcode":"57101","do27t":"195","do34t":"214"},
{"city":"Lipa","zipcode":"58257","do27t":"320","do34t":"350"},
{"city":"Lipa","zipcode":"76311","do27t":"434","do34t":"474"},
{"city":"Lipa nad Orlici","zipcode":"51721","do27t":"201","do34t":"221"},
{"city":"Lipnice nad Sazavou","zipcode":"58232","do27t":"332","do34t":"363"},
{"city":"Lipnik nad Becvou","zipcode":"75131","do27t":"335","do34t":"366"},
{"city":"Lipoltice","zipcode":"53364","do27t":"287","do34t":"315"},
{"city":"Lipov","zipcode":"69672","do27t":"500","do34t":"546"},
{"city":"Lipova","zipcode":"79845","do27t":"221","do34t":"243"},
{"city":"Lipova lazne","zipcode":"79061","do27t":"289","do34t":"318"},
{"city":"Lipovec","zipcode":"67915","do27t":"246","do34t":"270"},
{"city":"Liptal","zipcode":"75501","do27t":"477","do34t":"521"},
{"city":"Lisice","zipcode":"50351","do27t":"311","do34t":"341"},
{"city":"Litencice","zipcode":"76813","do27t":"419","do34t":"457"},
{"city":"Litomerice","zipcode":"41201","do27t":"630","do34t":"687"},
{"city":"Litomysl","zipcode":"57001","do27t":"194","do34t":"213"},
{"city":"Litomysl/Nedosin","zipcode":"57001","do27t":"194","do34t":"213"},
{"city":"Litomysl/Pohodli","zipcode":"57001","do27t":"194","do34t":"213"},
{"city":"Litosice","zipcode":"53501","do27t":"297","do34t":"326"},
{"city":"Litovel","zipcode":"78401","do27t":"231","do34t":"253"},
{"city":"Litvinov","zipcode":"43601","do27t":"713","do34t":"778"},
{"city":"Lobodice","zipcode":"75101","do27t":"314","do34t":"343"},
{"city":"Loket","zipcode":"25765","do27t":"410","do34t":"448"},
{"city":"Lomnice","zipcode":"67923","do27t":"258","do34t":"283"},
{"city":"Lomnice","zipcode":"79302","do27t":"367","do34t":"401"},
{"city":"Lomnice nad Luznici","zipcode":"37816","do27t":"572","do34t":"625"},
{"city":"Lomnice nad Popelkou","zipcode":"51251","do27t":"365","do34t":"401"},
{"city":"Lostice","zipcode":"78983","do27t":"213","do34t":"233"},
{"city":"Loucka","zipcode":"75644","do27t":"414","do34t":"452"},
{"city":"Loucna nad Desnou","zipcode":"78811","do27t":"225","do34t":"248"},
{"city":"Louka","zipcode":"69676","do27t":"489","do34t":"534"},
{"city":"Lounovice pod Blanikem","zipcode":"25706","do27t":"499","do34t":"545"},
{"city":"Louny","zipcode":"44001","do27t":"657","do34t":"717"},
{"city":"Lovcice","zipcode":"69639","do27t":"371","do34t":"407"},
{"city":"Lovcice","zipcode":"50361","do27t":"311","do34t":"341"},
{"city":"Lubenice","zipcode":"78346","do27t":"259","do34t":"283"},
{"city":"Lubna","zipcode":"27036","do27t":"743","do34t":"809"},
{"city":"Lubna","zipcode":"56963","do27t":"206","do34t":"226"},
{"city":"Lucany nad Nisou","zipcode":"46871","do27t":"456","do34t":"500"},
{"city":"Ludgerovice","zipcode":"74714","do27t":"525","do34t":"571"},
{"city":"Ludkovice","zipcode":"76341","do27t":"456","do34t":"498"},
{"city":"Ludslavice","zipcode":"76852","do27t":"386","do34t":"422"},
{"city":"Luhacovice","zipcode":"76326","do27t":"477","do34t":"521"},
{"city":"Luka","zipcode":"78324","do27t":"238","do34t":"261"},
{"city":"Luka nad Jihlavou","zipcode":"58822","do27t":"381","do34t":"417"},
{"city":"Lukavec","zipcode":"39426","do27t":"424","do34t":"464"},
{"city":"Lukavice","zipcode":"53821","do27t":"250","do34t":"274"},
{"city":"Lukavice","zipcode":"51603","do27t":"242","do34t":"266"},
{"city":"Lukavice","zipcode":"78901","do27t":"215","do34t":"236"},
{"city":"Lukov","zipcode":"67602","do27t":"433","do34t":"475"},
{"city":"Lukov","zipcode":"76317","do27t":"418","do34t":"457"},
{"city":"Lukova","zipcode":"56123","do27t":"167","do34t":"184"},
{"city":"Lukovecek","zipcode":"76316","do27t":"397","do34t":"434"},
{"city":"Lulec","zipcode":"68303","do27t":"386","do34t":"420"},
{"city":"Lustenice","zipcode":"29442","do27t":"443","do34t":"485"},
{"city":"Lutin","zipcode":"78349","do27t":"282","do34t":"308"},
{"city":"Luze","zipcode":"53854","do27t":"225","do34t":"247"},
{"city":"Luzec nad Cidlinou","zipcode":"50362","do27t":"322","do34t":"353"},
{"city":"Luzice","zipcode":"69618","do27t":"441","do34t":"482"},
{"city":"Lysa nad Labem","zipcode":"28922","do27t":"421","do34t":"461"},
{"city":"Lysice","zipcode":"67971","do27t":"211","do34t":"232"},
{"city":"Machov","zipcode":"54963","do27t":"268","do34t":"295"},
{"city":"Machova","zipcode":"76301","do27t":"413","do34t":"451"},
{"city":"Male Svatonovice","zipcode":"54234","do27t":"268","do34t":"295"},
{"city":"Malec","zipcode":"58276","do27t":"282","do34t":"309"},
{"city":"Malenovice","zipcode":"73911","do27t":"538","do34t":"586"},
{"city":"Maletin","zipcode":"78901","do27t":"210","do34t":"231"},
{"city":"Malhotice","zipcode":"75353","do27t":"393","do34t":"429"},
{"city":"Mankovice","zipcode":"74235","do27t":"412","do34t":"449"},
{"city":"Markvartice","zipcode":"50742","do27t":"366","do34t":"402"},
{"city":"Markvartovice","zipcode":"74714","do27t":"525","do34t":"571"},
{"city":"Martinice u Onsova","zipcode":"39501","do27t":"417","do34t":"456"},
{"city":"Martinice v Krkonosich","zipcode":"51232","do27t":"363","do34t":"399"},
{"city":"Medlice","zipcode":"67140","do27t":"417","do34t":"457"},
{"city":"Medlov","zipcode":"66466","do27t":"327","do34t":"358"},
{"city":"Medlov","zipcode":"78391","do27t":"234","do34t":"257"},
{"city":"Medlovice","zipcode":"68201","do27t":"387","do34t":"421"},
{"city":"Melnik","zipcode":"27601","do27t":"579","do34t":"632"},
{"city":"Menin","zipcode":"66457","do27t":"328","do34t":"359"},
{"city":"Merin","zipcode":"59442","do27t":"283","do34t":"311"},
{"city":"Mesin","zipcode":"58601","do27t":"357","do34t":"390"},
{"city":"Mestec Kralove","zipcode":"28903","do27t":"344","do34t":"377"},
{"city":"Mestecko Trnavka","zipcode":"56941","do27t":"203","do34t":"223"},
{"city":"Mesto Albrechtice","zipcode":"79395","do27t":"387","do34t":"426"},
{"city":"Mezimesti","zipcode":"54981","do27t":"289","do34t":"318"},
{"city":"Meziricko","zipcode":"58827","do27t":"272","do34t":"299"},
{"city":"Mezna","zipcode":"39301","do27t":"413","do34t":"452"},
{"city":"Michalovice","zipcode":"58001","do27t":"310","do34t":"339"},
{"city":"Mikulcice","zipcode":"69619","do27t":"441","do34t":"482"},
{"city":"Mikulov","zipcode":"69201","do27t":"391","do34t":"428"},
{"city":"Mikulovice","zipcode":"79084","do27t":"311","do34t":"342"},
{"city":"Mikulovice","zipcode":"53002","do27t":"250","do34t":"274"},
{"city":"Mikulovice","zipcode":"67522","do27t":"411","do34t":"451"},
{"city":"Mikuluvka","zipcode":"75624","do27t":"446","do34t":"487"},
{"city":"Milcice","zipcode":"28911","do27t":"401","do34t":"439"},
{"city":"Miletin","zipcode":"50771","do27t":"293","do34t":"322"},
{"city":"Milotice","zipcode":"69605","do27t":"403","do34t":"442"},
{"city":"Milovice","zipcode":"69188","do27t":"400","do34t":"438"},
{"city":"Milovice","zipcode":"28924","do27t":"432","do34t":"473"},
{"city":"Miretice","zipcode":"53955","do27t":"247","do34t":"271"},
{"city":"Miroslav","zipcode":"67172","do27t":"386","do34t":"423"},
{"city":"Mirov","zipcode":"78901","do27t":"215","do34t":"236"},
{"city":"Mirova pod Kozakovem","zipcode":"51101","do27t":"400","do34t":"439"},
{"city":"Mlada Boleslav","zipcode":"29301","do27t":"414","do34t":"454"},
{"city":"Mlade Buky","zipcode":"54223","do27t":"322","do34t":"354"},
{"city":"Mladec","zipcode":"78321","do27t":"225","do34t":"246"},
{"city":"Mladejov","zipcode":"50745","do27t":"377","do34t":"414"},
{"city":"Mladejovice","zipcode":"78501","do27t":"265","do34t":"290"},
{"city":"Mladkov","zipcode":"56167","do27t":"201","do34t":"221"},
{"city":"Mladonovice","zipcode":"53821","do27t":"259","do34t":"284"},
{"city":"Mladosovice","zipcode":"37901","do27t":"566","do34t":"619"},
{"city":"Mlazovice","zipcode":"50758","do27t":"307","do34t":"337"},
{"city":"Mnich","zipcode":"39492","do27t":"450","do34t":"492"},
{"city":"Mnichovice","zipcode":"25765","do27t":"431","do34t":"471"},
{"city":"Mnichovice","zipcode":"25164","do27t":"543","do34t":"592"},
{"city":"Mnichovo Hradiste","zipcode":"29501","do27t":"400","do34t":"439"},
{"city":"Mnisek","zipcode":"46331","do27t":"481","do34t":"527"},
{"city":"Mnisek pod Brdy","zipcode":"25210","do27t":"628","do34t":"685"},
{"city":"Modletice","zipcode":"25101","do27t":"529","do34t":"577"},
{"city":"Modrice","zipcode":"66442","do27t":"291","do34t":"319"},
{"city":"Modrisice","zipcode":"51101","do27t":"400","do34t":"439"},
{"city":"Mohelnice","zipcode":"78985","do27t":"213","do34t":"233"},
{"city":"Mohelno","zipcode":"67575","do27t":"369","do34t":"405"},
{"city":"Mochov","zipcode":"25087","do27t":"429","do34t":"469"},
{"city":"Mokra Horakov","zipcode":"66404","do27t":"300","do34t":"329"},
{"city":"Mokrovousy","zipcode":"50315","do27t":"253","do34t":"278"},
{"city":"Morasice","zipcode":"53802","do27t":"259","do34t":"284"},
{"city":"Morasice","zipcode":"53501","do27t":"311","do34t":"341"},
{"city":"Morasice","zipcode":"56951","do27t":"199","do34t":"219"},
{"city":"Moravany","zipcode":"66448","do27t":"290","do34t":"318"},
{"city":"Moravany","zipcode":"69650","do27t":"392","do34t":"430"},
{"city":"Moravany","zipcode":"53372","do27t":"225","do34t":"247"},
{"city":"Moravecke Pavlovice","zipcode":"59262","do27t":"264","do34t":"290"},
{"city":"Moravicany","zipcode":"78982","do27t":"215","do34t":"236"},
{"city":"Moravska Nova Ves","zipcode":"69155","do27t":"430","do34t":"470"},
{"city":"Moravska Trebova","zipcode":"57101","do27t":"188","do34t":"206"},
{"city":"Moravske Branice","zipcode":"66464","do27t":"323","do34t":"354"},
{"city":"Moravske Budejovice","zipcode":"67602","do27t":"433","do34t":"475"},
{"city":"Moravske Kninice","zipcode":"66434","do27t":"251","do34t":"275"},
{"city":"Moravsky Beroun","zipcode":"79305","do27t":"345","do34t":"377"},
{"city":"Moravsky Krumlov","zipcode":"67201","do27t":"347","do34t":"380"},
{"city":"Moravsky Pisek","zipcode":"69685","do27t":"424","do34t":"465"},
{"city":"Morkov","zipcode":"74272","do27t":"457","do34t":"498"},
{"city":"Morkovice Slizany","zipcode":"76833","do27t":"409","do34t":"446"},
{"city":"Mosnov","zipcode":"74251","do27t":"481","do34t":"524"},
{"city":"Most","zipcode":"43401","do27t":"693","do34t":"756"},
{"city":"Mostkovice","zipcode":"79802","do27t":"318","do34t":"347"},
{"city":"Mosty u Jablunkova","zipcode":"73998","do27t":"602","do34t":"656"},
{"city":"Mrakotin","zipcode":"58854","do27t":"449","do34t":"491"},
{"city":"Mratin","zipcode":"25063","do27t":"525","do34t":"573"},
{"city":"Mutenice","zipcode":"69611","do27t":"392","do34t":"430"},
{"city":"Mysletin","zipcode":"39601","do27t":"368","do34t":"402"},
{"city":"Naceradec","zipcode":"25708","do27t":"478","do34t":"522"},
{"city":"Nacesice","zipcode":"53803","do27t":"267","do34t":"293"},
{"city":"Nadejov","zipcode":"58827","do27t":"272","do34t":"299"},
{"city":"Nachod","zipcode":"54701","do27t":"235","do34t":"259"},
{"city":"Namest na Hane","zipcode":"78344","do27t":"252","do34t":"276"},
{"city":"Namest nad Oslavou","zipcode":"67571","do27t":"347","do34t":"380"},
{"city":"Napajedla","zipcode":"76361","do27t":"415","do34t":"453"},
{"city":"Nasavrky","zipcode":"53825","do27t":"259","do34t":"284"},
{"city":"Navsi","zipcode":"73992","do27t":"580","do34t":"632"},
{"city":"Nebovidy","zipcode":"66448","do27t":"290","do34t":"318"},
{"city":"Nedakonice","zipcode":"68738","do27t":"458","do34t":"500"},
{"city":"Nedvedice","zipcode":"59262","do27t":"247","do34t":"271"},
{"city":"Nechanice","zipcode":"50315","do27t":"251","do34t":"276"},
{"city":"Nemcany","zipcode":"68401","do27t":"328","do34t":"359"},
{"city":"Nemcice","zipcode":"67951","do27t":"221","do34t":"243"},
{"city":"Nemcice","zipcode":"56118","do27t":"184","do34t":"202"},
{"city":"Nemcice nad Hanou","zipcode":"79827","do27t":"356","do34t":"388"},
{"city":"Nemcicky","zipcode":"69107","do27t":"388","do34t":"425"},
{"city":"Nemcicky","zipcode":"66466","do27t":"327","do34t":"358"},
{"city":"Nemojany","zipcode":"68303","do27t":"397","do34t":"433"},
{"city":"Nemojov","zipcode":"54461","do27t":"319","do34t":"350"},
{"city":"Nenkovice","zipcode":"69637","do27t":"371","do34t":"407"},
{"city":"Neslovice","zipcode":"66491","do27t":"314","do34t":"344"},
{"city":"Nesovice","zipcode":"68333","do27t":"353","do34t":"386"},
{"city":"Nesvacilka","zipcode":"66454","do27t":"339","do34t":"371"},
{"city":"Netin","zipcode":"59444","do27t":"263","do34t":"289"},
{"city":"Neubuz","zipcode":"76315","do27t":"456","do34t":"498"},
{"city":"Nevcehle","zipcode":"58862","do27t":"417","do34t":"456"},
{"city":"Nihov","zipcode":"59455","do27t":"287","do34t":"315"},
{"city":"Niva","zipcode":"79861","do27t":"239","do34t":"263"},
{"city":"Nivnice","zipcode":"68751","do27t":"504","do34t":"550"},
{"city":"Nizkovice","zipcode":"68401","do27t":"327","do34t":"358"},
{"city":"Nizni Lhoty","zipcode":"73951","do27t":"533","do34t":"580"},
{"city":"Nosislav","zipcode":"69164","do27t":"324","do34t":"355"},
{"city":"Nosovice","zipcode":"73951","do27t":"519","do34t":"565"},
{"city":"Nova Bystrice","zipcode":"37833","do27t":"517","do34t":"565"},
{"city":"Nova Cerekev","zipcode":"39415","do27t":"403","do34t":"441"},
{"city":"Nova Lhota","zipcode":"69674","do27t":"521","do34t":"569"},
{"city":"Nova Olesna","zipcode":"37853","do27t":"484","do34t":"529"},
{"city":"Nova Paka","zipcode":"50901","do27t":"341","do34t":"374"},
{"city":"Nova Rise","zipcode":"58865","do27t":"440","do34t":"481"},
{"city":"Nova Vcelnice","zipcode":"37842","do27t":"451","do34t":"493"},
{"city":"Nova Ves","zipcode":"46331","do27t":"482","do34t":"528"},
{"city":"Nova Ves","zipcode":"67521","do27t":"411","do34t":"451"},
{"city":"Nova Ves nad Nisou","zipcode":"46827","do27t":"456","do34t":"500"},
{"city":"Nova Ves u Noveho Mesta na Morave","zipcode":"59231","do27t":"221","do34t":"243"},
{"city":"Nova Ves u Svetle","zipcode":"58291","do27t":"332","do34t":"363"},
{"city":"Nove Dvory","zipcode":"28531","do27t":"332","do34t":"364"},
{"city":"Nove Herminovy","zipcode":"79201","do27t":"311","do34t":"342"},
{"city":"Nove Mesto na Morave","zipcode":"59231","do27t":"216","do34t":"237"},
{"city":"Nove Mesto nad Metuji","zipcode":"54901","do27t":"217","do34t":"239"},
{"city":"Nove Mesto pod Smrkem","zipcode":"46365","do27t":"524","do34t":"574"},
{"city":"Nove Syrovice","zipcode":"67541","do27t":"488","do34t":"533"},
{"city":"Nove Veseli","zipcode":"59214","do27t":"246","do34t":"270"},
{"city":"Novosedly","zipcode":"69182","do27t":"388","do34t":"425"},
{"city":"Novy Bor","zipcode":"47301","do27t":"537","do34t":"589"},
{"city":"Novy Bydzov","zipcode":"50401","do27t":"279","do34t":"307"},
{"city":"Novy Hradek","zipcode":"54922","do27t":"217","do34t":"239"},
{"city":"Novy Hrozenkov","zipcode":"75604","do27t":"542","do34t":"592"},
{"city":"Novy Jicin","zipcode":"74101","do27t":"436","do34t":"475"},
{"city":"Novy Malin","zipcode":"78803","do27t":"212","do34t":"233"},
{"city":"Novy Prerov","zipcode":"69181","do27t":"388","do34t":"425"},
{"city":"Novy Rychnov","zipcode":"39404","do27t":"402","do34t":"440"},
{"city":"Nucice","zipcode":"28163","do27t":"458","do34t":"501"},
{"city":"Nucice","zipcode":"25216","do27t":"605","do34t":"660"},
{"city":"Nupaky","zipcode":"25101","do27t":"526","do34t":"574"},
{"city":"Nydek","zipcode":"73995","do27t":"580","do34t":"632"},
{"city":"Nymburk","zipcode":"28802","do27t":"390","do34t":"427"},
{"city":"Obratan","zipcode":"39412","do27t":"439","do34t":"480"},
{"city":"Odolena Voda","zipcode":"25070","do27t":"530","do34t":"578"},
{"city":"Odry","zipcode":"74235","do27t":"409","do34t":"446"},
{"city":"Odunec","zipcode":"67555","do27t":"401","do34t":"440"},
{"city":"Ohare","zipcode":"28130","do27t":"351","do34t":"384"},
{"city":"Ohrazenice","zipcode":"51101","do27t":"411","do34t":"451"},
{"city":"Ochoz u Tisnova","zipcode":"67923","do27t":"264","do34t":"290"},
{"city":"Okresice","zipcode":"67401","do27t":"411","do34t":"451"},
{"city":"Okrisky","zipcode":"67521","do27t":"422","do34t":"463"},
{"city":"Okrouhla Radoun","zipcode":"37842","do27t":"462","do34t":"505"},
{"city":"Okrouhlice","zipcode":"58231","do27t":"321","do34t":"351"},
{"city":"Okrouhlicka","zipcode":"58253","do27t":"320","do34t":"350"},
{"city":"Olbramovice","zipcode":"67176","do27t":"375","do34t":"411"},
{"city":"Oleksovice","zipcode":"67162","do27t":"396","do34t":"434"},
{"city":"Olesenka","zipcode":"58222","do27t":"263","do34t":"289"},
{"city":"Oleska","zipcode":"28162","do27t":"458","do34t":"501"},
{"city":"Olesna","zipcode":"39301","do27t":"392","do34t":"429"},
{"city":"Olesnice","zipcode":"67974","do27t":"208","do34t":"229"},
{"city":"Olesnice","zipcode":"51736","do27t":"201","do34t":"221"},
{"city":"Olomouc","zipcode":"77200","do27t":"271","do34t":"296"},
{"city":"Olomouc/Holice","zipcode":"78371","do27t":"271","do34t":"296"},
{"city":"Olomouc/Nedvezi","zipcode":"77900","do27t":"271","do34t":"296"},
{"city":"Olomouc/Slavonin","zipcode":"78301","do27t":"271","do34t":"296"},
{"city":"Olsany","zipcode":"78962","do27t":"198","do34t":"218"},
{"city":"Olsany","zipcode":"68301","do27t":"328","do34t":"359"},
{"city":"Olsany u Prostejova","zipcode":"79814","do27t":"284","do34t":"310"},
{"city":"Olsi","zipcode":"58856","do27t":"459","do34t":"502"},
{"city":"Ondrejov","zipcode":"39301","do27t":"403","do34t":"441"},
{"city":"Ondrejov","zipcode":"25165","do27t":"479","do34t":"524"},
{"city":"Opatov","zipcode":"56912","do27t":"167","do34t":"184"},
{"city":"Opatov","zipcode":"67528","do27t":"433","do34t":"475"},
{"city":"Opatovice","zipcode":"66461","do27t":"313","do34t":"343"},
{"city":"Opatovice nad Labem","zipcode":"53345","do27t":"243","do34t":"267"},
{"city":"Opava","zipcode":"74601","do27t":"500","do34t":"545"},
{"city":"Opava/Komarov","zipcode":"74770","do27t":"500","do34t":"545"},
{"city":"Opava/Podvihov","zipcode":"74706","do27t":"500","do34t":"545"},
{"city":"Opava/Suche Lazce","zipcode":"74795","do27t":"500","do34t":"545"},
{"city":"Oplany","zipcode":"28163","do27t":"469","do34t":"513"},
{"city":"Opocno","zipcode":"51773","do27t":"212","do34t":"233"},
{"city":"Orechov","zipcode":"66444","do27t":"301","do34t":"330"},
{"city":"Orechov","zipcode":"58862","do27t":"438","do34t":"479"},
{"city":"Orechov","zipcode":"68737","do27t":"480","do34t":"524"},
{"city":"Orechov","zipcode":"59452","do27t":"283","do34t":"311"},
{"city":"Orel","zipcode":"53821","do27t":"243","do34t":"267"},
{"city":"Orlova","zipcode":"73511","do27t":"543","do34t":"591"},
{"city":"Osecek","zipcode":"28941","do27t":"379","do34t":"415"},
{"city":"Osek","zipcode":"50743","do27t":"367","do34t":"403"},
{"city":"Osek nad Becvou","zipcode":"75122","do27t":"359","do34t":"391"},
{"city":"Osice","zipcode":"50326","do27t":"260","do34t":"286"},
{"city":"Osik","zipcode":"56967","do27t":"194","do34t":"213"},
{"city":"Osiky","zipcode":"67923","do27t":"230","do34t":"253"},
{"city":"Oskava","zipcode":"78801","do27t":"235","do34t":"259"},
{"city":"Oslavany","zipcode":"66412","do27t":"325","do34t":"356"},
{"city":"Oslavice","zipcode":"59401","do27t":"396","do34t":"433"},
{"city":"Osoblaha","zipcode":"79399","do27t":"429","do34t":"472"},
{"city":"Osova Bityska","zipcode":"59453","do27t":"367","do34t":"401"},
{"city":"Ostra","zipcode":"28922","do27t":"421","do34t":"461"},
{"city":"Ostrata","zipcode":"76311","do27t":"445","do34t":"486"},
{"city":"Ostrava","zipcode":"70200","do27t":"501","do34t":"545"},
{"city":"Ostrava/Hermanice","zipcode":"71300","do27t":"501","do34t":"545"},
{"city":"Ostrava/Hrabova","zipcode":"72000","do27t":"501","do34t":"545"},
{"city":"Ostrava/Kuncice","zipcode":"71900","do27t":"501","do34t":"545"},
{"city":"Ostrava/Kuncicky","zipcode":"71800","do27t":"501","do34t":"545"},
{"city":"Ostrava/Polanka nad Odrou","zipcode":"72525","do27t":"501","do34t":"545"},
{"city":"Ostrava/Trebovice","zipcode":"72200","do27t":"501","do34t":"545"},
{"city":"Ostrava/Vitkovice","zipcode":"70300","do27t":"501","do34t":"545"},
{"city":"Ostravice","zipcode":"73914","do27t":"538","do34t":"586"},
{"city":"Ostresany","zipcode":"53002","do27t":"250","do34t":"274"},
{"city":"Ostromer","zipcode":"50752","do27t":"285","do34t":"313"},
{"city":"Ostrov","zipcode":"36301","do27t":"795","do34t":"868"},
{"city":"Ostrov","zipcode":"56122","do27t":"167","do34t":"184"},
{"city":"Ostrov u Macochy","zipcode":"67914","do27t":"239","do34t":"263"},
{"city":"Ostrovacice","zipcode":"66481","do27t":"305","do34t":"334"},
{"city":"Ostrozska Lhota","zipcode":"68723","do27t":"479","do34t":"523"},
{"city":"Ostrozska Nova Ves","zipcode":"68722","do27t":"468","do34t":"511"},
{"city":"Ostruzno","zipcode":"50601","do27t":"343","do34t":"376"},
{"city":"Osvetimany","zipcode":"68742","do27t":"413","do34t":"453"},
{"city":"Otaslavice","zipcode":"79806","do27t":"332","do34t":"362"},
{"city":"Otice","zipcode":"74781","do27t":"500","do34t":"545"},
{"city":"Otmarov","zipcode":"66457","do27t":"313","do34t":"343"},
{"city":"Otrokovice","zipcode":"76502","do27t":"403","do34t":"440"},
{"city":"Otrokovice/Kvitkovice","zipcode":"76502","do27t":"403","do34t":"440"},
{"city":"Oucmanice","zipcode":"56201","do27t":"195","do34t":"215"},
{"city":"Ovcary","zipcode":"28002","do27t":"351","do34t":"384"},
{"city":"Ovesna Lhota","zipcode":"58291","do27t":"356","do34t":"389"},
{"city":"Pacov","zipcode":"39501","do27t":"438","do34t":"479"},
{"city":"Palkovice","zipcode":"73941","do27t":"504","do34t":"549"},
{"city":"Panenska Rozsicka","zipcode":"58901","do27t":"417","do34t":"456"},
{"city":"Pardubice","zipcode":"53002","do27t":"262","do34t":"287"},
{"city":"Pardubice/Cerna za Bory","zipcode":"53301","do27t":"262","do34t":"287"},
{"city":"Pardubice/Rosice","zipcode":"53351","do27t":"262","do34t":"287"},
{"city":"Pardubice/Semtin","zipcode":"53353","do27t":"262","do34t":"287"},
{"city":"Paseky nad Jizerou","zipcode":"51247","do27t":"416","do34t":"457"},
{"city":"Paskov","zipcode":"73921","do27t":"533","do34t":"580"},
{"city":"Pasohlavky","zipcode":"69122","do27t":"366","do34t":"400"},
{"city":"Patek","zipcode":"29001","do27t":"377","do34t":"413"},
{"city":"Pavlov","zipcode":"58833","do27t":"406","do34t":"444"},
{"city":"Pavlov","zipcode":"59444","do27t":"263","do34t":"289"},
{"city":"Pavlovice","zipcode":"25801","do27t":"457","do34t":"499"},
{"city":"Pavlovice u Prerova","zipcode":"75112","do27t":"349","do34t":"381"},
{"city":"Pecky","zipcode":"28911","do27t":"391","do34t":"428"},
{"city":"Pelhrimov","zipcode":"39301","do27t":"381","do34t":"417"},
{"city":"Pencin","zipcode":"46821","do27t":"442","do34t":"485"},
{"city":"Petrov","zipcode":"69665","do27t":"473","do34t":"517"},
{"city":"Petrov nad Desnou","zipcode":"78814","do27t":"217","do34t":"239"},
{"city":"Petrovice u Karvine","zipcode":"73572","do27t":"555","do34t":"604"},
{"city":"Petrvald","zipcode":"73541","do27t":"522","do34t":"568"},
{"city":"Petrvald","zipcode":"74260","do27t":"482","do34t":"525"},
{"city":"Pikarec","zipcode":"59253","do27t":"246","do34t":"270"},
{"city":"Pilnikov","zipcode":"54242","do27t":"322","do34t":"354"},
{"city":"Pisecna","zipcode":"79082","do27t":"300","do34t":"330"},
{"city":"Pisecne","zipcode":"37872","do27t":"504","do34t":"551"},
{"city":"Pisek","zipcode":"73984","do27t":"600","do34t":"654"},
{"city":"Pisek","zipcode":"39701","do27t":"595","do34t":"651"},
{"city":"Piskova Lhota","zipcode":"29001","do27t":"379","do34t":"415"},
{"city":"Pist","zipcode":"74718","do27t":"531","do34t":"578"},
{"city":"Pitin","zipcode":"68771","do27t":"525","do34t":"573"},
{"city":"Plana nad Luznici","zipcode":"39111","do27t":"498","do34t":"544"},
{"city":"Planany","zipcode":"28104","do27t":"425","do34t":"465"},
{"city":"Plandry","zipcode":"58841","do27t":"369","do34t":"403"},
{"city":"Plavsko","zipcode":"37802","do27t":"506","do34t":"553"},
{"city":"Plavy","zipcode":"46846","do27t":"453","do34t":"497"},
{"city":"Pluhuv Zdar","zipcode":"37824","do27t":"481","do34t":"526"},
{"city":"Plumlov","zipcode":"79803","do27t":"318","do34t":"347"},
{"city":"Plzen","zipcode":"30100","do27t":"772","do34t":"840"},
{"city":"Pocatky","zipcode":"39464","do27t":"447","do34t":"489"},
{"city":"Podbrezi","zipcode":"51803","do27t":"204","do34t":"224"},
{"city":"Podebrady","zipcode":"29001","do27t":"379","do34t":"415"},
{"city":"Podhorany u Ronova","zipcode":"53841","do27t":"287","do34t":"315"},
{"city":"Podhradi","zipcode":"50601","do27t":"341","do34t":"374"},
{"city":"Podhradi nad Dyji","zipcode":"67106","do27t":"504","do34t":"552"},
{"city":"Podivin","zipcode":"69145","do27t":"396","do34t":"433"},
{"city":"Podmoklany","zipcode":"58264","do27t":"256","do34t":"280"},
{"city":"Podoli","zipcode":"66403","do27t":"290","do34t":"318"},
{"city":"Podoli","zipcode":"75116","do27t":"337","do34t":"368"},
{"city":"Podoli","zipcode":"68604","do27t":"469","do34t":"512"},
{"city":"Podomi","zipcode":"68304","do27t":"255","do34t":"280"},
{"city":"Pohled","zipcode":"58221","do27t":"287","do34t":"314"},
{"city":"Pohledy","zipcode":"56802","do27t":"190","do34t":"209"},
{"city":"Pohorelice","zipcode":"69123","do27t":"342","do34t":"374"},
{"city":"Pohori","zipcode":"51801","do27t":"212","do34t":"233"},
{"city":"Polesi","zipcode":"39468","do27t":"434","do34t":"475"},
{"city":"Polesovice","zipcode":"68737","do27t":"468","do34t":"511"},
{"city":"Police nad Metuji","zipcode":"54954","do27t":"268","do34t":"295"},
{"city":"Policka","zipcode":"57201","do27t":"199","do34t":"219"},
{"city":"Polna","zipcode":"58813","do27t":"272","do34t":"299"},
{"city":"Polom","zipcode":"51741","do27t":"190","do34t":"209"},
{"city":"Pomezi","zipcode":"56971","do27t":"193","do34t":"212"},
{"city":"Ponetovice","zipcode":"66451","do27t":"290","do34t":"318"},
{"city":"Ponikla","zipcode":"51242","do27t":"395","do34t":"434"},
{"city":"Popelin","zipcode":"37855","do27t":"471","do34t":"515"},
{"city":"Popovice","zipcode":"68604","do27t":"469","do34t":"512"},
{"city":"Popuvky","zipcode":"66441","do27t":"279","do34t":"306"},
{"city":"Popuvky","zipcode":"67575","do27t":"369","do34t":"405"},
{"city":"Poricany","zipcode":"28914","do27t":"405","do34t":"443"},
{"city":"Postrelmov","zipcode":"78969","do27t":"206","do34t":"227"},
{"city":"Potstat","zipcode":"75362","do27t":"396","do34t":"432"},
{"city":"Potstejn","zipcode":"51743","do27t":"184","do34t":"202"},
{"city":"Pozorice","zipcode":"66407","do27t":"314","do34t":"344"},
{"city":"Praha","zipcode":"1xxxx","do27t":"502","do34t":"548"},
{"city":"Prachatice","zipcode":"38301","do27t":"711","do34t":"776"},
{"city":"Prachovice","zipcode":"53804","do27t":"276","do34t":"303"},
{"city":"Praksice","zipcode":"68756","do27t":"456","do34t":"498"},
{"city":"Praskacka","zipcode":"50333","do27t":"253","do34t":"278"},
{"city":"Praslavice","zipcode":"78354","do27t":"291","do34t":"318"},
{"city":"Pravonin","zipcode":"25709","do27t":"467","do34t":"510"},
{"city":"Pravy","zipcode":"53341","do27t":"275","do34t":"302"},
{"city":"Prazmo","zipcode":"73904","do27t":"540","do34t":"588"},
{"city":"Predklasteri","zipcode":"66602","do27t":"259","do34t":"284"},
{"city":"Predmerice nad Labem","zipcode":"50302","do27t":"235","do34t":"259"},
{"city":"Prelouc","zipcode":"53501","do27t":"290","do34t":"318"},
{"city":"Premyslovice","zipcode":"79851","do27t":"222","do34t":"244"},
{"city":"Prepere","zipcode":"51261","do27t":"396","do34t":"435"},
{"city":"Prerov","zipcode":"75002","do27t":"326","do34t":"356"},
{"city":"Prerov nad Labem","zipcode":"28916","do27t":"429","do34t":"469"},
{"city":"Prestanov","zipcode":"40317","do27t":"695","do34t":"757"},
{"city":"Pribor","zipcode":"74258","do27t":"470","do34t":"512"},
{"city":"Pribram","zipcode":"26101","do27t":"677","do34t":"738"},
{"city":"Pribyslav","zipcode":"58222","do27t":"297","do34t":"325"},
{"city":"Pribyslav","zipcode":"54901","do27t":"225","do34t":"248"},
{"city":"Pribyslavice","zipcode":"67521","do27t":"411","do34t":"451"},
{"city":"Prikazy","zipcode":"78333","do27t":"242","do34t":"265"},
{"city":"Priseka","zipcode":"58291","do27t":"333","do34t":"364"},
{"city":"Prisimasy","zipcode":"28201","do27t":"439","do34t":"480"},
{"city":"Prisnotice","zipcode":"66463","do27t":"341","do34t":"373"},
{"city":"Prisovice","zipcode":"46346","do27t":"412","do34t":"452"},
{"city":"Pritluky","zipcode":"69104","do27t":"417","do34t":"456"},
{"city":"Prlov","zipcode":"75611","do27t":"478","do34t":"522"},
{"city":"Prosec","zipcode":"53944","do27t":"271","do34t":"297"},
{"city":"Prosenice","zipcode":"75121","do27t":"338","do34t":"369"},
{"city":"Prosetin","zipcode":"59264","do27t":"230","do34t":"253"},
{"city":"Prosimerice","zipcode":"67161","do27t":"417","do34t":"457"},
{"city":"Prostejov","zipcode":"79601","do27t":"308","do34t":"336"},
{"city":"Protivanov","zipcode":"79848","do27t":"229","do34t":"252"},
{"city":"Provodov Sonov","zipcode":"54908","do27t":"236","do34t":"260"},
{"city":"Prusanky","zipcode":"69621","do27t":"417","do34t":"456"},
{"city":"Prusice","zipcode":"28163","do27t":"448","do34t":"490"},
{"city":"Przno","zipcode":"73911","do27t":"528","do34t":"575"},
{"city":"Psary","zipcode":"25244","do27t":"543","do34t":"592"},
{"city":"Pteni","zipcode":"79843","do27t":"255","do34t":"280"},
{"city":"Puklice","zipcode":"58831","do27t":"380","do34t":"416"},
{"city":"Pulecny","zipcode":"46802","do27t":"435","do34t":"477"},
{"city":"Pustimer","zipcode":"68321","do27t":"358","do34t":"390"},
{"city":"Putimov","zipcode":"39301","do27t":"392","do34t":"429"},
{"city":"Racice Pistovice","zipcode":"68305","do27t":"394","do34t":"430"},
{"city":"Radejov","zipcode":"69667","do27t":"494","do34t":"540"},
{"city":"Radim","zipcode":"50712","do27t":"319","do34t":"350"},
{"city":"Radonice","zipcode":"25073","do27t":"483","do34t":"527"},
{"city":"Radonin","zipcode":"67521","do27t":"422","do34t":"463"},
{"city":"Radosov","zipcode":"67507","do27t":"304","do34t":"334"},
{"city":"Radosovice","zipcode":"25726","do27t":"506","do34t":"552"},
{"city":"Radostin","zipcode":"58001","do27t":"311","do34t":"340"},
{"city":"Radostin nad Oslavou","zipcode":"59444","do27t":"255","do34t":"280"},
{"city":"Radslavice","zipcode":"75111","do27t":"338","do34t":"369"},
{"city":"Radvanice","zipcode":"75121","do27t":"344","do34t":"375"},
{"city":"Rajec Jestrebi","zipcode":"67902","do27t":"221","do34t":"243"},
{"city":"Rajecko","zipcode":"67902","do27t":"229","do34t":"252"},
{"city":"Rajhrad","zipcode":"66461","do27t":"302","do34t":"331"},
{"city":"Rajhradice","zipcode":"66461","do27t":"302","do34t":"331"},
{"city":"Rajnochovice","zipcode":"76871","do27t":"425","do34t":"464"},
{"city":"Rakovnik","zipcode":"26901","do27t":"739","do34t":"805"},
{"city":"Rakvice","zipcode":"69103","do27t":"406","do34t":"444"},
{"city":"Rana","zipcode":"53972","do27t":"222","do34t":"243"},
{"city":"Rancirov","zipcode":"58601","do27t":"371","do34t":"405"},
{"city":"Rapotice","zipcode":"67573","do27t":"325","do34t":"356"},
{"city":"Rapotin","zipcode":"78814","do27t":"212","do34t":"233"},
{"city":"Raskovice","zipcode":"73907","do27t":"540","do34t":"588"},
{"city":"Rasna","zipcode":"58856","do27t":"449","do34t":"491"},
{"city":"Rasosky","zipcode":"55221","do27t":"263","do34t":"289"},
{"city":"Rasov","zipcode":"67923","do27t":"232","do34t":"255"},
{"city":"Raspenava","zipcode":"46401","do27t":"502","do34t":"550"},
{"city":"Rataje nad Sazavou","zipcode":"28507","do27t":"397","do34t":"436"},
{"city":"Ratibor","zipcode":"75621","do27t":"457","do34t":"499"},
{"city":"Ratiskovice","zipcode":"69602","do27t":"413","do34t":"453"},
{"city":"Razova","zipcode":"79201","do27t":"322","do34t":"354"},
{"city":"Rebesovice","zipcode":"66461","do27t":"302","do34t":"331"},
{"city":"Recany nad Labem","zipcode":"53313","do27t":"300","do34t":"329"},
{"city":"Repniky","zipcode":"53865","do27t":"211","do34t":"231"},
{"city":"Repov","zipcode":"29301","do27t":"404","do34t":"443"},
{"city":"Revnice","zipcode":"25230","do27t":"601","do34t":"656"},
{"city":"Ricany","zipcode":"66482","do27t":"305","do34t":"334"},
{"city":"Ricany","zipcode":"25101","do27t":"514","do34t":"561"},
{"city":"Ricky","zipcode":"66483","do27t":"316","do34t":"346"},
{"city":"Ridelov","zipcode":"58856","do27t":"423","do34t":"463"},
{"city":"Rikov","zipcode":"55203","do27t":"244","do34t":"268"},
{"city":"Rimov","zipcode":"67522","do27t":"422","do34t":"463"},
{"city":"Rodinov","zipcode":"39470","do27t":"439","do34t":"480"},
{"city":"Rohatec","zipcode":"69601","do27t":"462","do34t":"505"},
{"city":"Rohle","zipcode":"78974","do27t":"234","do34t":"257"},
{"city":"Rohovladova Bela","zipcode":"53343","do27t":"275","do34t":"302"},
{"city":"Rohozec","zipcode":"67923","do27t":"232","do34t":"255"},
{"city":"Rohozna","zipcode":"58844","do27t":"402","do34t":"440"},
{"city":"Rokycany","zipcode":"33701","do27t":"750","do34t":"816"},
{"city":"Rokytnice","zipcode":"76321","do27t":"519","do34t":"567"},
{"city":"Rokytnice nad Jizerou","zipcode":"51244","do27t":"416","do34t":"457"},
{"city":"Rokytnice nad Rokytnou","zipcode":"67525","do27t":"422","do34t":"463"},
{"city":"Rokytnice v Orlickych horach","zipcode":"51761","do27t":"201","do34t":"221"},
{"city":"Ronov nad Doubravou","zipcode":"53842","do27t":"297","do34t":"326"},
{"city":"Rosice","zipcode":"66501","do27t":"303","do34t":"332"},
{"city":"Rosice","zipcode":"53834","do27t":"233","do34t":"256"},
{"city":"Rostenice Zvonovice","zipcode":"68201","do27t":"397","do34t":"433"},
{"city":"Rouchovany","zipcode":"67557","do27t":"401","do34t":"440"},
{"city":"Rousinov","zipcode":"68301","do27t":"317","do34t":"347"},
{"city":"Rovecne","zipcode":"59265","do27t":"207","do34t":"227"},
{"city":"Rovensko","zipcode":"78901","do27t":"201","do34t":"221"},
{"city":"Rovensko pod Troskami","zipcode":"51263","do27t":"378","do34t":"415"},
{"city":"Rozdalovice","zipcode":"28934","do27t":"419","do34t":"459"},
{"city":"Rozna","zipcode":"59252","do27t":"229","do34t":"252"},
{"city":"Roznov pod Radhostem","zipcode":"75661","do27t":"446","do34t":"487"},
{"city":"Rozsicka","zipcode":"67974","do27t":"222","do34t":"244"},
{"city":"Rozsochatec","zipcode":"58272","do27t":"285","do34t":"312"},
{"city":"Roztoky","zipcode":"25263","do27t":"638","do34t":"696"},
{"city":"Rtyne v Podkrkonosi","zipcode":"54233","do27t":"259","do34t":"285"},
{"city":"Ruda","zipcode":"59401","do27t":"382","do34t":"418"},
{"city":"Ruda nad Moravou","zipcode":"78963","do27t":"201","do34t":"221"},
{"city":"Rudice","zipcode":"68732","do27t":"515","do34t":"562"},
{"city":"Rudna","zipcode":"25219","do27t":"605","do34t":"660"},
{"city":"Rudnik","zipcode":"54372","do27t":"344","do34t":"378"},
{"city":"Rudolec","zipcode":"59214","do27t":"255","do34t":"280"},
{"city":"Rudoltice","zipcode":"56125","do27t":"167","do34t":"184"},
{"city":"Rusinov","zipcode":"58301","do27t":"271","do34t":"297"},
{"city":"Ruzdka","zipcode":"75625","do27t":"446","do34t":"487"},
{"city":"Rybitvi","zipcode":"53354","do27t":"272","do34t":"299"},
{"city":"Rybnicek","zipcode":"58282","do27t":"303","do34t":"332"},
{"city":"Rychnov nad Kneznou","zipcode":"51601","do27t":"198","do34t":"218"},
{"city":"Rychnov u Jablonce nad Nisou","zipcode":"46802","do27t":"435","do34t":"477"},
{"city":"Rychnovek","zipcode":"55225","do27t":"242","do34t":"266"},
{"city":"Rychvald","zipcode":"73532","do27t":"533","do34t":"580"},
{"city":"Rymarov","zipcode":"79501","do27t":"259","do34t":"285"},
{"city":"Rynoltice","zipcode":"46353","do27t":"516","do34t":"565"},
{"city":"Ryzoviste","zipcode":"79356","do27t":"289","do34t":"318"},
{"city":"Sadova","zipcode":"50315","do27t":"253","do34t":"278"},
{"city":"Sadska","zipcode":"28912","do27t":"405","do34t":"443"},
{"city":"Sakvice","zipcode":"69167","do27t":"366","do34t":"400"},
{"city":"Salacova Lhota","zipcode":"39501","do27t":"459","do34t":"502"},
{"city":"Samopse","zipcode":"28506","do27t":"407","do34t":"447"},
{"city":"Samsin","zipcode":"39501","do27t":"414","do34t":"453"},
{"city":"Saratice","zipcode":"68352","do27t":"327","do34t":"358"},
{"city":"Sardice","zipcode":"69613","do27t":"382","do34t":"419"},
{"city":"Sarovcova Lhota","zipcode":"50759","do27t":"293","do34t":"322"},
{"city":"Sazava","zipcode":"28506","do27t":"407","do34t":"447"},
{"city":"Sazava","zipcode":"59211","do27t":"246","do34t":"270"},
{"city":"Sazavka","zipcode":"58244","do27t":"345","do34t":"377"},
{"city":"Sebetov","zipcode":"67935","do27t":"210","do34t":"231"},
{"city":"Sebkovice","zipcode":"67545","do27t":"422","do34t":"463"},
{"city":"Sebranice","zipcode":"67931","do27t":"209","do34t":"229"},
{"city":"Sebranice","zipcode":"56962","do27t":"202","do34t":"222"},
{"city":"Sebrov Katerina","zipcode":"67922","do27t":"243","do34t":"267"},
{"city":"Sec","zipcode":"53807","do27t":"276","do34t":"303"},
{"city":"Sedlejov","zipcode":"58862","do27t":"427","do34t":"467"},
{"city":"Sedletin","zipcode":"58301","do27t":"282","do34t":"309"},
{"city":"Sedliste","zipcode":"73936","do27t":"517","do34t":"563"},
{"city":"Sedlnice","zipcode":"74256","do27t":"470","do34t":"512"},
{"city":"Sedlonov","zipcode":"51791","do27t":"217","do34t":"239"},
{"city":"Seletice","zipcode":"28934","do27t":"430","do34t":"471"},
{"city":"Semcice","zipcode":"29446","do27t":"453","do34t":"496"},
{"city":"Semily","zipcode":"51301","do27t":"398","do34t":"437"},
{"city":"Semtes","zipcode":"28601","do27t":"297","do34t":"326"},
{"city":"Senetarov","zipcode":"67906","do27t":"255","do34t":"280"},
{"city":"Senice na Hane","zipcode":"78345","do27t":"242","do34t":"265"},
{"city":"Senov","zipcode":"73934","do27t":"533","do34t":"580"},
{"city":"Senov u Noveho Jicina","zipcode":"74242","do27t":"446","do34t":"486"},
{"city":"Senozaty","zipcode":"39456","do27t":"382","do34t":"418"},
{"city":"Sezemice","zipcode":"53304","do27t":"246","do34t":"270"},
{"city":"Sezimovo Usti","zipcode":"39101","do27t":"498","do34t":"544"},
{"city":"Siluvky","zipcode":"66446","do27t":"312","do34t":"342"},
{"city":"Simanov","zipcode":"58842","do27t":"383","do34t":"419"},
{"city":"Sitborice","zipcode":"69176","do27t":"350","do34t":"383"},
{"city":"Sivice","zipcode":"66407","do27t":"314","do34t":"344"},
{"city":"Skalice nad Svitavou","zipcode":"67901","do27t":"211","do34t":"232"},
{"city":"Skalsko","zipcode":"29426","do27t":"498","do34t":"545"},
{"city":"Skastice","zipcode":"76701","do27t":"362","do34t":"395"},
{"city":"Sklene nad Oslavou","zipcode":"59101","do27t":"263","do34t":"289"},
{"city":"Skorosice","zipcode":"79066","do27t":"355","do34t":"391"},
{"city":"Skorotice","zipcode":"59262","do27t":"247","do34t":"271"},
{"city":"Skotnice","zipcode":"74259","do27t":"471","do34t":"513"},
{"city":"Skrben","zipcode":"78335","do27t":"262","do34t":"286"},
{"city":"Skrchov","zipcode":"67961","do27t":"201","do34t":"221"},
{"city":"Skrinarov","zipcode":"59453","do27t":"367","do34t":"401"},
{"city":"Skrivany","zipcode":"50352","do27t":"293","do34t":"322"},
{"city":"Skutec","zipcode":"53973","do27t":"226","do34t":"248"},
{"city":"Skvrnov","zipcode":"28144","do27t":"397","do34t":"436"},
{"city":"Slany","zipcode":"27401","do27t":"591","do34t":"645"},
{"city":"Slapanice","zipcode":"66451","do27t":"290","do34t":"318"},
{"city":"Slapanov","zipcode":"58251","do27t":"318","do34t":"348"},
{"city":"Slatinany","zipcode":"53821","do27t":"243","do34t":"267"},
{"city":"Slatinice","zipcode":"78342","do27t":"259","do34t":"283"},
{"city":"Slavicin","zipcode":"76321","do27t":"509","do34t":"556"},
{"city":"Slavikov","zipcode":"58265","do27t":"256","do34t":"280"},
{"city":"Slavkov","zipcode":"74757","do27t":"431","do34t":"472"},
{"city":"Slavkov","zipcode":"68764","do27t":"489","do34t":"534"},
{"city":"Slavkov u Brna","zipcode":"68401","do27t":"316","do34t":"346"},
{"city":"Slavnic","zipcode":"58255","do27t":"332","do34t":"363"},
{"city":"Slavonice","zipcode":"37881","do27t":"493","do34t":"539"},
{"city":"Slusovice","zipcode":"76315","do27t":"456","do34t":"498"},
{"city":"Smidary","zipcode":"50353","do27t":"304","do34t":"334"},
{"city":"Smirice","zipcode":"50303","do27t":"255","do34t":"280"},
{"city":"Smrcna","zipcode":"58801","do27t":"344","do34t":"376"},
{"city":"Smrzice","zipcode":"79817","do27t":"293","do34t":"320"},
{"city":"Smrzovka","zipcode":"46851","do27t":"466","do34t":"511"},
{"city":"Snet","zipcode":"25768","do27t":"406","do34t":"444"},
{"city":"Sobcice","zipcode":"50801","do27t":"295","do34t":"324"},
{"city":"Sobesovice","zipcode":"73938","do27t":"544","do34t":"592"},
{"city":"Sobotin","zipcode":"78816","do27t":"217","do34t":"239"},
{"city":"Sobotka","zipcode":"50743","do27t":"367","do34t":"403"},
{"city":"Sobotovice","zipcode":"66467","do27t":"313","do34t":"343"},
{"city":"Sokolnice","zipcode":"66452","do27t":"300","do34t":"329"},
{"city":"Sokolov","zipcode":"35601","do27t":"886","do34t":"965"},
{"city":"Solnice","zipcode":"51701","do27t":"201","do34t":"221"},
{"city":"Sopotnice","zipcode":"56115","do27t":"184","do34t":"202"},
{"city":"Soutice","zipcode":"25771","do27t":"435","do34t":"475"},
{"city":"Spytihnev","zipcode":"76364","do27t":"426","do34t":"465"},
{"city":"Srch","zipcode":"53352","do27t":"262","do34t":"288"},
{"city":"Stankovice","zipcode":"28504","do27t":"386","do34t":"424"},
{"city":"Stara Lysa","zipcode":"28926","do27t":"432","do34t":"473"},
{"city":"Stara Paka","zipcode":"50791","do27t":"352","do34t":"386"},
{"city":"Stara Ves nad Ondrejnici","zipcode":"73923","do27t":"494","do34t":"538"},
{"city":"Stare Briste","zipcode":"39601","do27t":"357","do34t":"390"},
{"city":"Stare Hradiste","zipcode":"53352","do27t":"261","do34t":"287"},
{"city":"Stare Mesto","zipcode":"79201","do27t":"300","do34t":"330"},
{"city":"Stare Mesto","zipcode":"73801","do27t":"517","do34t":"563"},
{"city":"Stare Mesto","zipcode":"78832","do27t":"235","do34t":"259"},
{"city":"Stare Mesto","zipcode":"56932","do27t":"194","do34t":"213"},
{"city":"Stare Mesto","zipcode":"68603","do27t":"447","do34t":"488"},
{"city":"Starec","zipcode":"67522","do27t":"411","do34t":"451"},
{"city":"Staric","zipcode":"73943","do27t":"494","do34t":"538"},
{"city":"Starkov","zipcode":"54936","do27t":"268","do34t":"295"},
{"city":"Starovice","zipcode":"69301","do27t":"355","do34t":"388"},
{"city":"Starovicky","zipcode":"69301","do27t":"417","do34t":"456"},
{"city":"Stary Bydzov","zipcode":"50357","do27t":"279","do34t":"307"},
{"city":"Stary Jicin","zipcode":"74231","do27t":"423","do34t":"461"},
{"city":"Stary Materov","zipcode":"53002","do27t":"259","do34t":"284"},
{"city":"Stary Petrin","zipcode":"67106","do27t":"494","do34t":"541"},
{"city":"Stary Vestec","zipcode":"28916","do27t":"419","do34t":"458"},
{"city":"Stavesice","zipcode":"69638","do27t":"371","do34t":"407"},
{"city":"Stenovice","zipcode":"33209","do27t":"776","do34t":"844"},
{"city":"Stepankovice","zipcode":"74728","do27t":"543","do34t":"591"},
{"city":"Stepanov","zipcode":"78313","do27t":"256","do34t":"280"},
{"city":"Stepanov nad Svratkou","zipcode":"59263","do27t":"240","do34t":"264"},
{"city":"Sternberk","zipcode":"78501","do27t":"312","do34t":"341"},
{"city":"Stezery","zipcode":"50321","do27t":"243","do34t":"267"},
{"city":"Stipoklasy","zipcode":"28401","do27t":"352","do34t":"386"},
{"city":"Stitina","zipcode":"74791","do27t":"522","do34t":"568"},
{"city":"Stitna nad Vlari Popov","zipcode":"76333","do27t":"541","do34t":"591"},
{"city":"Stity","zipcode":"78991","do27t":"190","do34t":"209"},
{"city":"Stojcin","zipcode":"39468","do27t":"471","do34t":"515"},
{"city":"Stoky","zipcode":"58253","do27t":"322","do34t":"352"},
{"city":"Stonarov","zipcode":"58833","do27t":"395","do34t":"432"},
{"city":"Stosikovice na Louce","zipcode":"67161","do27t":"417","do34t":"457"},
{"city":"Stracov","zipcode":"50314","do27t":"262","do34t":"288"},
{"city":"Strachotin","zipcode":"69301","do27t":"390","do34t":"427"},
{"city":"Strakonice","zipcode":"38601","do27t":"766","do34t":"835"},
{"city":"Stramberk","zipcode":"74266","do27t":"458","do34t":"499"},
{"city":"Strancice","zipcode":"25163","do27t":"543","do34t":"592"},
{"city":"Stranecka Zhor","zipcode":"59442","do27t":"283","do34t":"311"},
{"city":"Strani","zipcode":"68765","do27t":"511","do34t":"558"},
{"city":"Straz nad Nisou","zipcode":"46303","do27t":"470","do34t":"515"},
{"city":"Strazek","zipcode":"59253","do27t":"239","do34t":"263"},
{"city":"Strazna","zipcode":"56301","do27t":"190","do34t":"209"},
{"city":"Straznice","zipcode":"69662","do27t":"483","do34t":"528"},
{"city":"Stredokluky","zipcode":"25268","do27t":"631","do34t":"688"},
{"city":"Strelice","zipcode":"66447","do27t":"290","do34t":"318"},
{"city":"Strelna","zipcode":"75612","do27t":"519","do34t":"567"},
{"city":"Stribrna Skalice","zipcode":"28167","do27t":"469","do34t":"513"},
{"city":"Stribrnice","zipcode":"68709","do27t":"469","do34t":"512"},
{"city":"Strilky","zipcode":"76804","do27t":"388","do34t":"425"},
{"city":"Stritez","zipcode":"58811","do27t":"346","do34t":"378"},
{"city":"Stritez","zipcode":"67401","do27t":"401","do34t":"440"},
{"city":"Stritez nad Ludinou","zipcode":"75363","do27t":"385","do34t":"419"},
{"city":"Stritez pod Kremesnikem","zipcode":"39301","do27t":"392","do34t":"429"},
{"city":"Strizovice","zipcode":"37853","do27t":"484","do34t":"529"},
{"city":"Strmilov","zipcode":"37853","do27t":"495","do34t":"541"},
{"city":"Strojetice","zipcode":"25765","do27t":"431","do34t":"471"},
{"city":"Studena","zipcode":"37856","do27t":"470","do34t":"514"},
{"city":"Studenec","zipcode":"51233","do27t":"352","do34t":"386"},
{"city":"Studenec","zipcode":"67502","do27t":"369","do34t":"405"},
{"city":"Studenka","zipcode":"74213","do27t":"450","do34t":"490"},
{"city":"Studnice","zipcode":"54948","do27t":"235","do34t":"259"},
{"city":"Stupava","zipcode":"68601","do27t":"409","do34t":"448"},
{"city":"Subirov","zipcode":"79852","do27t":"210","do34t":"231"},
{"city":"Sudkov","zipcode":"78821","do27t":"206","do34t":"227"},
{"city":"Sudomerice","zipcode":"69666","do27t":"473","do34t":"517"},
{"city":"Suchdol nad Luznici","zipcode":"37806","do27t":"575","do34t":"629"},
{"city":"Suchdol nad Odrou","zipcode":"74201","do27t":"422","do34t":"460"},
{"city":"Suchohrdly","zipcode":"66902","do27t":"428","do34t":"469"},
{"city":"Suchovrsice","zipcode":"54232","do27t":"279","do34t":"307"},
{"city":"Suchy","zipcode":"68001","do27t":"221","do34t":"243"},
{"city":"Sukorady","zipcode":"50801","do27t":"272","do34t":"299"},
{"city":"Sulkovec","zipcode":"59265","do27t":"208","do34t":"228"},
{"city":"Sumna","zipcode":"67102","do27t":"485","do34t":"531"},
{"city":"Sumperk","zipcode":"78701","do27t":"206","do34t":"227"},
{"city":"Sumvald","zipcode":"78385","do27t":"235","do34t":"259"},
{"city":"Supikovice","zipcode":"79051","do27t":"300","do34t":"330"},
{"city":"Svarov","zipcode":"68712","do27t":"445","do34t":"486"},
{"city":"Svatoborice Mistrin","zipcode":"69604","do27t":"382","do34t":"419"},
{"city":"Svatonovice","zipcode":"74787","do27t":"389","do34t":"426"},
{"city":"Svatoslav","zipcode":"66601","do27t":"276","do34t":"303"},
{"city":"Svatoslav","zipcode":"67507","do27t":"427","do34t":"467"},
{"city":"Svepravice","zipcode":"39301","do27t":"378","do34t":"414"},
{"city":"Svesedlice","zipcode":"78354","do27t":"291","do34t":"318"},
{"city":"Svetla nad Sazavou","zipcode":"58291","do27t":"344","do34t":"376"},
{"city":"Sviadnov","zipcode":"73925","do27t":"519","do34t":"565"},
{"city":"Svijansky Ujezd","zipcode":"46345","do27t":"412","do34t":"452"},
{"city":"Svijany","zipcode":"46346","do27t":"412","do34t":"452"},
{"city":"Svitavka","zipcode":"67932","do27t":"208","do34t":"228"},
{"city":"Svitavy","zipcode":"56802","do27t":"167","do34t":"184"},
{"city":"Svoboda nad Upou","zipcode":"54224","do27t":"333","do34t":"366"},
{"city":"Svobodne Hermanice","zipcode":"79313","do27t":"344","do34t":"378"},
{"city":"Svojanov","zipcode":"56973","do27t":"203","do34t":"223"},
{"city":"Svojsice","zipcode":"28107","do27t":"436","do34t":"477"},
{"city":"Svojsice","zipcode":"53362","do27t":"267","do34t":"293"},
{"city":"Svratka","zipcode":"59202","do27t":"221","do34t":"242"},
{"city":"Svratouch","zipcode":"53942","do27t":"221","do34t":"242"},
{"city":"Sychrov","zipcode":"46344","do27t":"411","do34t":"451"},
{"city":"Syrenov","zipcode":"51251","do27t":"330","do34t":"362"},
{"city":"Syrovice","zipcode":"66467","do27t":"313","do34t":"343"},
{"city":"Syrovin","zipcode":"69684","do27t":"424","do34t":"465"},
{"city":"Tabor","zipcode":"39001","do27t":"485","do34t":"530"},
{"city":"Tachlovice","zipcode":"25217","do27t":"593","do34t":"647"},
{"city":"Tachov","zipcode":"34701","do27t":"915","do34t":"995"},
{"city":"Tanvald","zipcode":"46841","do27t":"463","do34t":"508"},
{"city":"Tasov","zipcode":"67579","do27t":"371","do34t":"405"},
{"city":"Tasovice","zipcode":"67125","do27t":"417","do34t":"457"},
{"city":"Tatobity","zipcode":"51253","do27t":"388","do34t":"426"},
{"city":"Tavikovice","zipcode":"67140","do27t":"411","do34t":"451"},
{"city":"Tecovice","zipcode":"76302","do27t":"424","do34t":"463"},
{"city":"Techobuz","zipcode":"39501","do27t":"459","do34t":"502"},
{"city":"Techonin","zipcode":"56166","do27t":"195","do34t":"215"},
{"city":"Telc","zipcode":"58856","do27t":"438","do34t":"479"},
{"city":"Telnice","zipcode":"66459","do27t":"300","do34t":"329"},
{"city":"Temice","zipcode":"39496","do27t":"436","do34t":"477"},
{"city":"Teplice","zipcode":"41501","do27t":"692","do34t":"754"},
{"city":"Teplice nad Metuji","zipcode":"54957","do27t":"289","do34t":"318"},
{"city":"Terlicko","zipcode":"73542","do27t":"543","do34t":"591"},
{"city":"Tesany","zipcode":"66454","do27t":"339","do34t":"371"},
{"city":"Tesetice","zipcode":"67161","do27t":"417","do34t":"457"},
{"city":"Tetcice","zipcode":"66417","do27t":"303","do34t":"332"},
{"city":"Ticha","zipcode":"74274","do27t":"491","do34t":"535"},
{"city":"Tis","zipcode":"58243","do27t":"334","do34t":"365"},
{"city":"Tisnov","zipcode":"66601","do27t":"250","do34t":"274"},
{"city":"Tisnovska Nova Ves","zipcode":"59451","do27t":"276","do34t":"303"},
{"city":"Tlumacov","zipcode":"76362","do27t":"386","do34t":"422"},
{"city":"Tomice","zipcode":"25768","do27t":"421","do34t":"460"},
{"city":"Topolna","zipcode":"68711","do27t":"426","do34t":"465"},
{"city":"Tovacov","zipcode":"75101","do27t":"314","do34t":"343"},
{"city":"Tover","zipcode":"78316","do27t":"291","do34t":"318"},
{"city":"Tranovice","zipcode":"73953","do27t":"544","do34t":"592"},
{"city":"Trebarov","zipcode":"56933","do27t":"199","do34t":"219"},
{"city":"Trebechovice pod Orebem","zipcode":"50346","do27t":"212","do34t":"233"},
{"city":"Trebestovice","zipcode":"28912","do27t":"405","do34t":"443"},
{"city":"Trebetice","zipcode":"38001","do27t":"484","do34t":"529"},
{"city":"Trebetin","zipcode":"28522","do27t":"363","do34t":"399"},
{"city":"Trebic","zipcode":"67401","do27t":"390","do34t":"428"},
{"city":"Trebon","zipcode":"37901","do27t":"545","do34t":"595"},
{"city":"Trebovice","zipcode":"56124","do27t":"167","do34t":"184"},
{"city":"Trebovle","zipcode":"28163","do27t":"437","do34t":"478"},
{"city":"Tremosnice","zipcode":"53843","do27t":"287","do34t":"315"},
{"city":"Trest","zipcode":"58901","do27t":"392","do34t":"429"},
{"city":"Trestice","zipcode":"58856","do27t":"413","do34t":"452"},
{"city":"Trhovy Stepanov","zipcode":"25763","do27t":"446","do34t":"487"},
{"city":"Tribrichy","zipcode":"53701","do27t":"250","do34t":"274"},
{"city":"Trinec","zipcode":"73961","do27t":"567","do34t":"617"},
{"city":"Trnavka","zipcode":"53501","do27t":"300","do34t":"329"},
{"city":"Trojanovice","zipcode":"74401","do27t":"501","do34t":"546"},
{"city":"Troskotovice","zipcode":"67178","do27t":"375","do34t":"411"},
{"city":"Troubelice","zipcode":"78383","do27t":"234","do34t":"257"},
{"city":"Troubky","zipcode":"75102","do27t":"325","do34t":"355"},
{"city":"Troubsko","zipcode":"66441","do27t":"279","do34t":"306"},
{"city":"Trutnov","zipcode":"54101","do27t":"300","do34t":"330"},
{"city":"Tuchomerice","zipcode":"25267","do27t":"619","do34t":"675"},
{"city":"Tuklaty","zipcode":"25082","do27t":"440","do34t":"481"},
{"city":"Tulesice","zipcode":"67173","do27t":"369","do34t":"405"},
{"city":"Tunechody","zipcode":"53701","do27t":"233","do34t":"256"},
{"city":"Tupesy","zipcode":"68707","do27t":"458","do34t":"500"},
{"city":"Turnov","zipcode":"51101","do27t":"385","do34t":"423"},
{"city":"Tvarozna","zipcode":"66405","do27t":"290","do34t":"318"},
{"city":"Tvrdonice","zipcode":"69153","do27t":"430","do34t":"470"},
{"city":"Tynec","zipcode":"69154","do27t":"430","do34t":"470"},
{"city":"Tynec nad Labem","zipcode":"28126","do27t":"346","do34t":"379"},
{"city":"Tyniste nad Orlici","zipcode":"51721","do27t":"204","do34t":"224"},
{"city":"Uhelna Pribram","zipcode":"58245","do27t":"293","do34t":"321"},
{"city":"Uhercice","zipcode":"67107","do27t":"516","do34t":"565"},
{"city":"Uherske Hradiste","zipcode":"68601","do27t":"447","do34t":"488"},
{"city":"Uhersky Brod","zipcode":"68801","do27t":"493","do34t":"538"},
{"city":"Uhersky Ostroh","zipcode":"68724","do27t":"468","do34t":"511"},
{"city":"Uhlirske Janovice","zipcode":"28504","do27t":"376","do34t":"413"},
{"city":"Uhrice","zipcode":"67963","do27t":"208","do34t":"228"},
{"city":"Uhrice","zipcode":"76833","do27t":"422","do34t":"460"},
{"city":"Uhrinov","zipcode":"59441","do27t":"406","do34t":"444"},
{"city":"Ujcov","zipcode":"59262","do27t":"240","do34t":"264"},
{"city":"Ujezd","zipcode":"59212","do27t":"246","do34t":"270"},
{"city":"Ujezd","zipcode":"76325","do27t":"487","do34t":"532"},
{"city":"Ujezd","zipcode":"67140","do27t":"439","do34t":"481"},
{"city":"Ujezd pod Troskami","zipcode":"51263","do27t":"366","do34t":"402"},
{"city":"Ujezd u Brna","zipcode":"66453","do27t":"311","do34t":"341"},
{"city":"Ujezd u Cerne Hory","zipcode":"67922","do27t":"233","do34t":"256"},
{"city":"Ujezd u Rosic","zipcode":"66484","do27t":"336","do34t":"368"},
{"city":"Ujkovice","zipcode":"29404","do27t":"430","do34t":"471"},
{"city":"Unicov","zipcode":"78391","do27t":"244","do34t":"268"},
{"city":"Unin","zipcode":"67924","do27t":"232","do34t":"255"},
{"city":"Upice","zipcode":"54232","do27t":"268","do34t":"295"},
{"city":"Usobi","zipcode":"58254","do27t":"331","do34t":"362"},
{"city":"Usobrno","zipcode":"67939","do27t":"210","do34t":"231"},
{"city":"Usov","zipcode":"78973","do27t":"226","do34t":"248"},
{"city":"Usti","zipcode":"58842","do27t":"367","do34t":"401"},
{"city":"Usti","zipcode":"75501","do27t":"478","do34t":"522"},
{"city":"Usti nad Labem","zipcode":"40001","do27t":"681","do34t":"742"},
{"city":"Usti nad Orlici","zipcode":"56201","do27t":"167","do34t":"184"},
{"city":"Utechovice","zipcode":"39501","do27t":"414","do34t":"453"},
{"city":"Utechovicky","zipcode":"39501","do27t":"403","do34t":"441"},
{"city":"Uvalno","zipcode":"79391","do27t":"366","do34t":"403"},
{"city":"Uvaly","zipcode":"25082","do27t":"450","do34t":"492"},
{"city":"Vacenovice","zipcode":"69606","do27t":"413","do34t":"453"},
{"city":"Vaclavovice","zipcode":"73934","do27t":"533","do34t":"580"},
{"city":"Valasska Bystrice","zipcode":"75627","do27t":"457","do34t":"499"},
{"city":"Valasska Polanka","zipcode":"75611","do27t":"488","do34t":"533"},
{"city":"Valasske Klobouky","zipcode":"76601","do27t":"519","do34t":"567"},
{"city":"Valasske Mezirici","zipcode":"75701","do27t":"425","do34t":"464"},
{"city":"Valasske Mezirici/Krasno nad Becvou","zipcode":"75706","do27t":"425","do34t":"464"},
{"city":"Valsov","zipcode":"79201","do27t":"311","do34t":"342"},
{"city":"Valtice","zipcode":"69142","do27t":"441","do34t":"482"},
{"city":"Vamberk","zipcode":"51754","do27t":"190","do34t":"209"},
{"city":"Vanov","zipcode":"58856","do27t":"438","do34t":"479"},
{"city":"Vanovice","zipcode":"67936","do27t":"208","do34t":"228"},
{"city":"Vapenice","zipcode":"68774","do27t":"541","do34t":"590"},
{"city":"Vapenna","zipcode":"79064","do27t":"355","do34t":"391"},
{"city":"Vavrinec","zipcode":"28504","do27t":"386","do34t":"424"},
{"city":"Vazany nad Litavou","zipcode":"68401","do27t":"327","do34t":"358"},
{"city":"Vecov","zipcode":"59244","do27t":"208","do34t":"228"},
{"city":"Vejvanovice","zipcode":"53862","do27t":"233","do34t":"256"},
{"city":"Velenov","zipcode":"68001","do27t":"221","do34t":"243"},
{"city":"Veletiny","zipcode":"68733","do27t":"470","do34t":"513"},
{"city":"Velim","zipcode":"28101","do27t":"390","do34t":"427"},
{"city":"Velis","zipcode":"25706","do27t":"488","do34t":"533"},
{"city":"Velka Bites","zipcode":"59501","do27t":"345","do34t":"377"},
{"city":"Velka Bystrice","zipcode":"78353","do27t":"291","do34t":"318"},
{"city":"Velka Chyska","zipcode":"39428","do27t":"424","do34t":"464"},
{"city":"Velka Jesenice","zipcode":"55224","do27t":"235","do34t":"259"},
{"city":"Velka Kras","zipcode":"79058","do27t":"333","do34t":"366"},
{"city":"Velka Losenice","zipcode":"59211","do27t":"255","do34t":"280"},
{"city":"Velka nad Velickou","zipcode":"69674","do27t":"500","do34t":"546"},
{"city":"Velka Polom","zipcode":"74764","do27t":"509","do34t":"554"},
{"city":"Velka Stahle","zipcode":"79351","do27t":"279","do34t":"307"},
{"city":"Velke Albrechtice","zipcode":"74291","do27t":"461","do34t":"502"},
{"city":"Velke Bilovice","zipcode":"69102","do27t":"396","do34t":"433"},
{"city":"Velke Hamry","zipcode":"46845","do27t":"453","do34t":"497"},
{"city":"Velke Hostice","zipcode":"74731","do27t":"511","do34t":"557"},
{"city":"Velke Karlovice","zipcode":"75606","do27t":"521","do34t":"569"},
{"city":"Velke Losiny","zipcode":"78815","do27t":"217","do34t":"239"},
{"city":"Velke Mezirici","zipcode":"59401","do27t":"385","do34t":"421"},
{"city":"Velke Nemcice","zipcode":"69163","do27t":"335","do34t":"367"},
{"city":"Velke Opatovice","zipcode":"67963","do27t":"205","do34t":"225"},
{"city":"Velke Pavlovice","zipcode":"69106","do27t":"417","do34t":"456"},
{"city":"Velke Popovice","zipcode":"25169","do27t":"543","do34t":"592"},
{"city":"Velke Porici","zipcode":"54932","do27t":"242","do34t":"266"},
{"city":"Velke Prilepy","zipcode":"25264","do27t":"562","do34t":"614"},
{"city":"Velke Tresne","zipcode":"59265","do27t":"207","do34t":"227"},
{"city":"Velke Vselisy","zipcode":"29427","do27t":"488","do34t":"534"},
{"city":"Velky Beranov","zipcode":"58821","do27t":"370","do34t":"404"},
{"city":"Velky Orechov","zipcode":"76307","do27t":"445","do34t":"486"},
{"city":"Velky Osek","zipcode":"28151","do27t":"366","do34t":"400"},
{"city":"Velky Ratmirov","zipcode":"37701","do27t":"495","do34t":"541"},
{"city":"Velky Rybnik","zipcode":"39301","do27t":"357","do34t":"390"},
{"city":"Velky Tynec","zipcode":"78372","do27t":"294","do34t":"321"},
{"city":"Veltruby","zipcode":"28002","do27t":"377","do34t":"413"},
{"city":"Vendryne","zipcode":"73994","do27t":"580","do34t":"632"},
{"city":"Vermerovice","zipcode":"56152","do27t":"184","do34t":"202"},
{"city":"Verovany","zipcode":"78375","do27t":"304","do34t":"332"},
{"city":"Verovice","zipcode":"74273","do27t":"468","do34t":"510"},
{"city":"Vesela","zipcode":"39470","do27t":"423","do34t":"463"},
{"city":"Vesela","zipcode":"51252","do27t":"377","do34t":"414"},
{"city":"Vesela","zipcode":"76315","do27t":"445","do34t":"486"},
{"city":"Veseli nad Moravou","zipcode":"69801","do27t":"479","do34t":"523"},
{"city":"Vesely Zdar","zipcode":"58001","do27t":"310","do34t":"339"},
{"city":"Vestec","zipcode":"25242","do27t":"543","do34t":"592"},
{"city":"Vetrkovice","zipcode":"74743","do27t":"469","do34t":"511"},
{"city":"Vetrny Jenikov","zipcode":"58842","do27t":"372","do34t":"406"},
{"city":"Veverska Bityska","zipcode":"66471","do27t":"260","do34t":"285"},
{"city":"Veverske Kninice","zipcode":"66481","do27t":"305","do34t":"334"},
{"city":"Vez","zipcode":"58256","do27t":"322","do34t":"352"},
{"city":"Vezna","zipcode":"39501","do27t":"427","do34t":"467"},
{"city":"Veznice","zipcode":"58252","do27t":"318","do34t":"348"},
{"city":"Vicemerice","zipcode":"79826","do27t":"345","do34t":"376"},
{"city":"Vicenice u Nameste nad Oslavou","zipcode":"67571","do27t":"358","do34t":"392"},
{"city":"Vidce","zipcode":"75653","do27t":"446","do34t":"487"},
{"city":"Viden","zipcode":"59401","do27t":"283","do34t":"311"},
{"city":"Vidlata Sec","zipcode":"57001","do27t":"202","do34t":"222"},
{"city":"Vidonin","zipcode":"59457","do27t":"287","do34t":"315"},
{"city":"Vichova nad Jizerou","zipcode":"51241","do27t":"384","do34t":"422"},
{"city":"Vikyrovice","zipcode":"78813","do27t":"212","do34t":"233"},
{"city":"Vilanec","zipcode":"58835","do27t":"383","do34t":"419"},
{"city":"Vilemov","zipcode":"58283","do27t":"303","do34t":"332"},
{"city":"Vilemov","zipcode":"78322","do27t":"239","do34t":"262"},
{"city":"Vilemovice","zipcode":"58401","do27t":"366","do34t":"400"},
{"city":"Vinicne Sumice","zipcode":"66406","do27t":"314","do34t":"344"},
{"city":"Vir","zipcode":"59266","do27t":"209","do34t":"230"},
{"city":"Visnova","zipcode":"46401","do27t":"514","do34t":"563"},
{"city":"Visnove","zipcode":"67138","do27t":"417","do34t":"457"},
{"city":"Vitejeves","zipcode":"56906","do27t":"200","do34t":"220"},
{"city":"Vitezna","zipcode":"54462","do27t":"319","do34t":"350"},
{"city":"Vitice","zipcode":"28106","do27t":"426","do34t":"466"},
{"city":"Vitkov","zipcode":"74901","do27t":"479","do34t":"522"},
{"city":"Vitkovice","zipcode":"51238","do27t":"395","do34t":"434"},
{"city":"Vitonice","zipcode":"76861","do27t":"404","do34t":"441"},
{"city":"Vizovice","zipcode":"76312","do27t":"456","do34t":"498"},
{"city":"Vladislav","zipcode":"67501","do27t":"380","do34t":"417"},
{"city":"Vlachovice","zipcode":"76324","do27t":"520","do34t":"568"},
{"city":"Vlasatice","zipcode":"69130","do27t":"365","do34t":"399"},
{"city":"Vlasim","zipcode":"25801","do27t":"467","do34t":"510"},
{"city":"Vlastejovice","zipcode":"28523","do27t":"384","do34t":"422"},
{"city":"Vlcice","zipcode":"54241","do27t":"322","do34t":"354"},
{"city":"Vlcnov","zipcode":"68761","do27t":"481","do34t":"525"},
{"city":"Vlkancice","zipcode":"28163","do27t":"469","do34t":"513"},
{"city":"Vlkanec","zipcode":"28564","do27t":"354","do34t":"388"},
{"city":"Vlkos","zipcode":"69641","do27t":"392","do34t":"430"},
{"city":"Vlkos","zipcode":"75119","do27t":"361","do34t":"394"},
{"city":"Vlkov","zipcode":"59453","do27t":"367","do34t":"401"},
{"city":"Vnorovy","zipcode":"69661","do27t":"489","do34t":"534"},
{"city":"Voderady","zipcode":"51734","do27t":"206","do34t":"227"},
{"city":"Vohancice","zipcode":"66601","do27t":"259","do34t":"284"},
{"city":"Vojkovice","zipcode":"66701","do27t":"313","do34t":"343"},
{"city":"Vojnuv Mestec","zipcode":"59101","do27t":"256","do34t":"280"},
{"city":"Vojslavice","zipcode":"39601","do27t":"382","do34t":"418"},
{"city":"Vraclav","zipcode":"56542","do27t":"211","do34t":"231"},
{"city":"Vracov","zipcode":"69642","do27t":"403","do34t":"442"},
{"city":"Vracovice","zipcode":"25801","do27t":"467","do34t":"510"},
{"city":"Vranov nad Dyji","zipcode":"67103","do27t":"483","do34t":"529"},
{"city":"Vranovice","zipcode":"69125","do27t":"364","do34t":"398"},
{"city":"Vranovice Kelcice","zipcode":"79808","do27t":"321","do34t":"350"},
{"city":"Vranovska Ves","zipcode":"67151","do27t":"474","do34t":"519"},
{"city":"Vratimov","zipcode":"73932","do27t":"522","do34t":"568"},
{"city":"Vrbatky","zipcode":"79813","do27t":"284","do34t":"310"},
{"city":"Vrbatuv Kostelec","zipcode":"53956","do27t":"234","do34t":"257"},
{"city":"Vrbno pod Pradedem","zipcode":"79326","do27t":"322","do34t":"354"},
{"city":"Vrbovec","zipcode":"67124","do27t":"440","do34t":"482"},
{"city":"Vrdy","zipcode":"28571","do27t":"297","do34t":"326"},
{"city":"Vresina","zipcode":"74285","do27t":"488","do34t":"531"},
{"city":"Vresovice","zipcode":"69648","do27t":"403","do34t":"442"},
{"city":"Vrchlabi","zipcode":"54301","do27t":"376","do34t":"414"},
{"city":"Vsechovice","zipcode":"75353","do27t":"404","do34t":"441"},
{"city":"Vsemina","zipcode":"76315","do27t":"466","do34t":"509"},
{"city":"Vsetin","zipcode":"75501","do27t":"467","do34t":"510"},
{"city":"Vycapy","zipcode":"67401","do27t":"411","do34t":"451"},
{"city":"Vykan","zipcode":"28915","do27t":"440","do34t":"481"},
{"city":"Vysehnevice","zipcode":"53341","do27t":"286","do34t":"314"},
{"city":"Vyskov","zipcode":"68201","do27t":"372","do34t":"405"},
{"city":"Vyskytna","zipcode":"39405","do27t":"404","do34t":"442"},
{"city":"Vyskytna nad Jihlavou","zipcode":"58841","do27t":"369","do34t":"403"},
{"city":"Vysni Lhoty","zipcode":"73951","do27t":"530","do34t":"577"},
{"city":"Vysocany","zipcode":"67913","do27t":"246","do34t":"270"},
{"city":"Vysocina","zipcode":"53901","do27t":"247","do34t":"271"},
{"city":"Vysoke Myto","zipcode":"56601","do27t":"208","do34t":"228"},
{"city":"Vysoke nad Jizerou","zipcode":"51211","do27t":"405","do34t":"445"},
{"city":"Vysoke Studnice","zipcode":"58821","do27t":"370","do34t":"404"},
{"city":"Vysoke Veseli","zipcode":"50703","do27t":"306","do34t":"336"},
{"city":"Vysokov","zipcode":"54912","do27t":"225","do34t":"248"},
{"city":"Xaverov","zipcode":"28506","do27t":"509","do34t":"555"},
{"city":"Zabcice","zipcode":"66463","do27t":"341","do34t":"373"},
{"city":"Zaben","zipcode":"73925","do27t":"536","do34t":"583"},
{"city":"Zaborna","zipcode":"58813","do27t":"272","do34t":"299"},
{"city":"Zabreh","zipcode":"78901","do27t":"198","do34t":"218"},
{"city":"Zacler","zipcode":"54201","do27t":"333","do34t":"366"},
{"city":"Zadovice","zipcode":"69649","do27t":"392","do34t":"430"},
{"city":"Zadverice Rakova","zipcode":"76312","do27t":"445","do34t":"486"},
{"city":"Zachotin","zipcode":"39301","do27t":"368","do34t":"402"},
{"city":"Zajeci","zipcode":"69105","do27t":"427","do34t":"467"},
{"city":"Zajecice","zipcode":"53835","do27t":"250","do34t":"274"},
{"city":"Zajickov","zipcode":"39301","do27t":"402","do34t":"440"},
{"city":"Zakrany","zipcode":"66484","do27t":"314","do34t":"344"},
{"city":"Zalesna Zhor","zipcode":"66484","do27t":"367","do34t":"401"},
{"city":"Zalsi","zipcode":"56501","do27t":"190","do34t":"209"},
{"city":"Zamberk","zipcode":"56401","do27t":"190","do34t":"209"},
{"city":"Zamrsk","zipcode":"56543","do27t":"212","do34t":"232"},
{"city":"Zarosice","zipcode":"69634","do27t":"349","do34t":"382"},
{"city":"Zasada","zipcode":"46825","do27t":"442","do34t":"485"},
{"city":"Zasmuky","zipcode":"28144","do27t":"376","do34t":"413"},
{"city":"Zasova","zipcode":"75651","do27t":"435","do34t":"475"},
{"city":"Zasovice","zipcode":"67521","do27t":"422","do34t":"463"},
{"city":"Zastavka","zipcode":"66484","do27t":"314","do34t":"344"},
{"city":"Zastrizly","zipcode":"76805","do27t":"388","do34t":"425"},
{"city":"Zatcany","zipcode":"66453","do27t":"328","do34t":"359"},
{"city":"Zatec","zipcode":"58862","do27t":"427","do34t":"467"},
{"city":"Zatec","zipcode":"43801","do27t":"713","do34t":"778"},
{"city":"Zator","zipcode":"79316","do27t":"333","do34t":"366"},
{"city":"Zbilidy","zipcode":"58842","do27t":"383","do34t":"419"},
{"city":"Zborovice","zipcode":"76832","do27t":"433","do34t":"472"},
{"city":"Zbraslav","zipcode":"66484","do27t":"325","do34t":"356"},
{"city":"Zbraslavice","zipcode":"28521","do27t":"352","do34t":"386"},
{"city":"Zbysov","zipcode":"66411","do27t":"314","do34t":"344"},
{"city":"Zbysov","zipcode":"28565","do27t":"341","do34t":"374"},
{"city":"Zdanice","zipcode":"69632","do27t":"360","do34t":"394"},
{"city":"Zdanice","zipcode":"28163","do27t":"458","do34t":"501"},
{"city":"Zdar","zipcode":"29412","do27t":"412","do34t":"452"},
{"city":"Zdar nad Metuji","zipcode":"54955","do27t":"268","do34t":"295"},
{"city":"Zdar nad Sazavou","zipcode":"59101","do27t":"239","do34t":"263"},
{"city":"Zdarec","zipcode":"59456","do27t":"276","do34t":"303"},
{"city":"Zdarna","zipcode":"67952","do27t":"221","do34t":"243"},
{"city":"Zdiby","zipcode":"25066","do27t":"513","do34t":"560"},
{"city":"Zdirec","zipcode":"58813","do27t":"346","do34t":"378"},
{"city":"Zdirec nad Doubravou","zipcode":"58263","do27t":"249","do34t":"273"},
{"city":"Zdounky","zipcode":"76802","do27t":"410","do34t":"448"},
{"city":"Zebrak","zipcode":"26753","do27t":"683","do34t":"744"},
{"city":"Zelatovice","zipcode":"75116","do27t":"337","do34t":"368"},
{"city":"Zelechovice nad Drevnici","zipcode":"76311","do27t":"434","do34t":"474"},
{"city":"Zelenec","zipcode":"25091","do27t":"456","do34t":"498"},
{"city":"Zelesice","zipcode":"66443","do27t":"291","do34t":"319"},
{"city":"Zeletava","zipcode":"67526","do27t":"442","do34t":"483"},
{"city":"Zelezne","zipcode":"66601","do27t":"242","do34t":"266"},
{"city":"Zelezny Brod","zipcode":"46822","do27t":"421","do34t":"462"},
{"city":"Zeliv","zipcode":"39444","do27t":"367","do34t":"401"},
{"city":"Zenklava","zipcode":"74267","do27t":"469","do34t":"511"},
{"city":"Zernovnik","zipcode":"67921","do27t":"224","do34t":"246"},
{"city":"Zhorec","zipcode":"39501","do27t":"449","do34t":"491"},
{"city":"Zidlochovice","zipcode":"66701","do27t":"313","do34t":"343"},
{"city":"Zichlinek","zipcode":"56301","do27t":"182","do34t":"200"},
{"city":"Zirovnice","zipcode":"39468","do27t":"460","do34t":"503"},
{"city":"Zizelice","zipcode":"28129","do27t":"313","do34t":"343"},
{"city":"Zizkovo Pole","zipcode":"58222","do27t":"275","do34t":"301"},
{"city":"Zlate Hory","zipcode":"79376","do27t":"322","do34t":"354"},
{"city":"Zlatenka","zipcode":"39501","do27t":"416","do34t":"455"},
{"city":"Zleby","zipcode":"28561","do27t":"308","do34t":"338"},
{"city":"Zlin","zipcode":"76001","do27t":"424","do34t":"463"},
{"city":"Zlin/Louky","zipcode":"76302","do27t":"424","do34t":"463"},
{"city":"Zlin/Malenovice","zipcode":"76302","do27t":"424","do34t":"463"},
{"city":"Znojmo","zipcode":"66902","do27t":"429","do34t":"470"},
{"city":"Zruc nad Sazavou","zipcode":"28522","do27t":"384","do34t":"422"},
{"city":"Zubri","zipcode":"75654","do27t":"446","do34t":"487"},
{"city":"Zulova","zipcode":"79065","do27t":"344","do34t":"378"},
{"city":"Zverinek","zipcode":"28913","do27t":"390","do34t":"427"},
{"city":"Zvestovice","zipcode":"58282","do27t":"308","do34t":"338"}
]
